{
"type": "FeatureCollection",
"name": "care_facilities_Trier, Germany",
"crs": { "type": "name", "properties": { "name": "urn:ogc:def:crs:OGC:1.3:CRS84" } },
"features": [
{ "type": "Feature", "properties": { "index": "('way', 160773962)", "addr:city": "Trier", "addr:country": "DE", "addr:housenumber": "34", "addr:postcode": "54294", "addr:street": "Medardstraße", "amenity": "social_facility", "female": null, "name": "Intensiv betreute Wohnangebote BBT", "operator": "Barmherzige Brüder Trier gGmbH", "operator:type": null, "social_facility": "assisted_living", "social_facility:for": "mental_health", "wheelchair": null, "contact:phone": null, "contact:email": null, "contact:fax": null, "contact:website": null, "email": null, "phone": null, "website": null, "nodes": [ 1728120969, 4648370858, 1728120986, 4645010728, 1728120988, 4648370857, 1728120981, 5063534259, 4648370877, 1728120977, 1728120974, 1728120976, 1728120975, 4645010735, 5063534258, 4645010734, 1728120984, 1728120989, 1728121016, 1728120992, 1728120970, 1728120969 ], "brand": null, "brand:wikidata": null, "building": "apartments", "building:levels": "3", "roof:levels": "1", "roof:shape": null, "fax": null, "wikidata": null, "wikipedia": null, "addr:housename": null, "addr:suburb": null, "check_date": null, "toilets:wheelchair": null, "alt_name": null, "start_date": null, "construction": null, "healthcare": null }, "geometry": { "type": "Polygon", "coordinates": [ [ [ 6.6284351, 49.7364703 ], [ 6.6284815, 49.7368167 ], [ 6.6286677, 49.7369003 ], [ 6.6292175, 49.7368003 ], [ 6.6293731, 49.7367713 ], [ 6.629315, 49.7366859 ], [ 6.6292876, 49.7366457 ], [ 6.6292714, 49.7366219 ], [ 6.629198, 49.7365167 ], [ 6.6291854, 49.7365201 ], [ 6.6291847, 49.7365203 ], [ 6.6290571, 49.7365573 ], [ 6.6291069, 49.7366299 ], [ 6.6291378, 49.7366761 ], [ 6.6291599, 49.7367076 ], [ 6.6287177, 49.7367894 ], [ 6.6286573, 49.7368006 ], [ 6.6286451, 49.7367936 ], [ 6.6286326, 49.7367865 ], [ 6.6286272, 49.73675 ], [ 6.6285842, 49.7364594 ], [ 6.6284351, 49.7364703 ] ] ] } },
{ "type": "Feature", "properties": { "index": "('node', 8391163372)", "addr:city": null, "addr:country": null, "addr:housenumber": null, "addr:postcode": null, "addr:street": null, "amenity": "social_facility", "female": null, "name": "Wohngemeinschaft Eisenbahnstraße", "operator": "Lebenshilfe Trier e. V.", "operator:type": null, "social_facility": "assisted_living", "social_facility:for": "juvenile", "wheelchair": null, "contact:phone": null, "contact:email": null, "contact:fax": null, "contact:website": null, "email": null, "phone": null, "website": null, "nodes": null, "brand": null, "brand:wikidata": null, "building": null, "building:levels": null, "roof:levels": null, "roof:shape": null, "fax": null, "wikidata": null, "wikipedia": null, "addr:housename": null, "addr:suburb": null, "check_date": null, "toilets:wheelchair": null, "alt_name": null, "start_date": null, "construction": null, "healthcare": null }, "geometry": { "type": "Point", "coordinates": [ 6.6091187, 49.7390874 ] } },
{ "type": "Feature", "properties": { "index": "('way', 320515845)", "addr:city": "Trier", "addr:country": "DE", "addr:housenumber": "170", "addr:postcode": "54294", "addr:street": "Eurener Straße", "amenity": "social_facility", "female": null, "name": "Seniorenzentrum AGO Trier", "operator": "AGO Betriebsgesellschaft für Sozialeinrichtungen mbH", "operator:type": null, "social_facility": "nursing_home", "social_facility:for": "senior", "wheelchair": null, "contact:phone": "+49 651 99460 0", "contact:email": "trier@alloheim.de", "contact:fax": "+49 651 99460 555", "contact:website": "https://www.alloheim.de/residenz/seniorenzentrum-ago-trier-trier/", "email": null, "phone": null, "website": null, "nodes": [ 4483878688, 4082405843, 4082405840, 4082405847, 4082405832, 4082405837, 4082405829, 4082405842, 4082405838, 4082405844, 4082405845, 4082405841, 4082405828, 4082405839, 4082405836, 4082405834, 4082405848, 4082405849, 4082405830, 4082405846, 4082405833, 13453334596, 13453334597, 13453334598, 13453334599, 4483878688 ], "brand": null, "brand:wikidata": null, "building": "yes", "building:levels": null, "roof:levels": null, "roof:shape": null, "fax": null, "wikidata": null, "wikipedia": null, "addr:housename": null, "addr:suburb": "Euren", "check_date": null, "toilets:wheelchair": null, "alt_name": null, "start_date": null, "construction": null, "healthcare": null }, "geometry": { "type": "Polygon", "coordinates": [ [ [ 6.6094235, 49.7417553 ], [ 6.6096365, 49.7420245 ], [ 6.6096544, 49.7420195 ], [ 6.6096658, 49.7420335 ], [ 6.609679, 49.7420498 ], [ 6.6096476, 49.7420613 ], [ 6.6096712, 49.7420849 ], [ 6.6096745, 49.7420841 ], [ 6.6099006, 49.7423322 ], [ 6.6100957, 49.7422573 ], [ 6.6100511, 49.7422105 ], [ 6.6103932, 49.7420779 ], [ 6.6102855, 49.7419603 ], [ 6.6102676, 49.7419414 ], [ 6.6105158, 49.7418464 ], [ 6.6104367, 49.7417705 ], [ 6.6099898, 49.7419427 ], [ 6.6100454, 49.7420017 ], [ 6.6100596, 49.7419964 ], [ 6.6101421, 49.7420825 ], [ 6.6099844, 49.7421431 ], [ 6.6098598, 49.7419956 ], [ 6.6098434, 49.741976 ], [ 6.60961, 49.7416908 ], [ 6.6094335, 49.7417504 ], [ 6.6094235, 49.7417553 ] ] ] } },
{ "type": "Feature", "properties": { "index": "('way', 1157631274)", "addr:city": "Trier", "addr:country": null, "addr:housenumber": "2", "addr:postcode": "54290", "addr:street": "Töpferstraße", "amenity": "social_facility", "female": null, "name": "Lebenshilfe Trier, Wohnhaus Töpferstraße", "operator": null, "operator:type": null, "social_facility": "group_home", "social_facility:for": "disabled", "wheelchair": null, "contact:phone": null, "contact:email": null, "contact:fax": null, "contact:website": null, "email": null, "phone": null, "website": null, "nodes": [ 10765700752, 10765700753, 10765700754, 13427261203, 13427261202, 11033996020, 10765700755, 1696311428, 10765700752 ], "brand": "Lebenshilfe", "brand:wikidata": "Q20533", "building": "dormitory", "building:levels": null, "roof:levels": null, "roof:shape": null, "fax": null, "wikidata": null, "wikipedia": null, "addr:housename": null, "addr:suburb": null, "check_date": null, "toilets:wheelchair": null, "alt_name": null, "start_date": "2022", "construction": null, "healthcare": null }, "geometry": { "type": "Polygon", "coordinates": [ [ [ 6.635208, 49.7420512 ], [ 6.6351412, 49.7419279 ], [ 6.6350487, 49.7419489 ], [ 6.6350586, 49.7419671 ], [ 6.6348031, 49.742025 ], [ 6.6347657, 49.7420334 ], [ 6.634796, 49.7420893 ], [ 6.6348227, 49.7421385 ], [ 6.635208, 49.7420512 ] ] ] } },
{ "type": "Feature", "properties": { "index": "('node', 13013996269)", "addr:city": "Trier", "addr:country": null, "addr:housenumber": "44", "addr:postcode": "54294", "addr:street": "Gneisenaustraße", "amenity": "social_facility", "female": null, "name": "Margareta Bosco Haus", "operator": null, "operator:type": null, "social_facility": "group_home", "social_facility:for": "underprivileged", "wheelchair": null, "contact:phone": null, "contact:email": null, "contact:fax": null, "contact:website": null, "email": null, "phone": null, "website": null, "nodes": null, "brand": null, "brand:wikidata": null, "building": null, "building:levels": null, "roof:levels": null, "roof:shape": null, "fax": null, "wikidata": null, "wikipedia": null, "addr:housename": null, "addr:suburb": null, "check_date": null, "toilets:wheelchair": null, "alt_name": null, "start_date": null, "construction": null, "healthcare": null }, "geometry": { "type": "Point", "coordinates": [ 6.6195832, 49.7512639 ] } },
{ "type": "Feature", "properties": { "index": "('way', 845617570)", "addr:city": null, "addr:country": null, "addr:housenumber": null, "addr:postcode": null, "addr:street": null, "amenity": "social_facility", "female": null, "name": "Helenenhaus", "operator": null, "operator:type": null, "social_facility": "nursing_home", "social_facility:for": null, "wheelchair": null, "contact:phone": "+49 651 945-0", "contact:email": "info@vereinigtehospitien.de", "contact:fax": null, "contact:website": "https://www.vereinigtehospitien.de/soziale-einrichtungen/helenenhaus/", "email": null, "phone": null, "website": null, "nodes": [ 1394002664, 1394002627, 1406151545, 1394002552, 1394002577, 1394002615, 1394002619, 1394002618, 1406151548, 3373635521, 1394002631, 1394002642, 1394002645, 1394002656, 1394002664 ], "brand": null, "brand:wikidata": null, "building": null, "building:levels": null, "roof:levels": null, "roof:shape": null, "fax": null, "wikidata": null, "wikipedia": null, "addr:housename": null, "addr:suburb": null, "check_date": null, "toilets:wheelchair": null, "alt_name": "Altenwohn- und Pflegeheim Helenenhaus", "start_date": null, "construction": null, "healthcare": null }, "geometry": { "type": "Polygon", "coordinates": [ [ [ 6.6336652, 49.7554613 ], [ 6.633554, 49.7552677 ], [ 6.6334878, 49.7551522 ], [ 6.6328105, 49.755303 ], [ 6.6328624, 49.7553969 ], [ 6.6328823, 49.7554253 ], [ 6.6330269, 49.7553907 ], [ 6.6332179, 49.7553451 ], [ 6.6332834, 49.7554518 ], [ 6.6332942, 49.7554748 ], [ 6.6332609, 49.755484 ], [ 6.6332449, 49.7554981 ], [ 6.6332729, 49.7555471 ], [ 6.6332919, 49.7555538 ], [ 6.6336652, 49.7554613 ] ] ] } },
{ "type": "Feature", "properties": { "index": "('node', 4817997949)", "addr:city": "Trier", "addr:country": "DE", "addr:housenumber": "7", "addr:postcode": "54290", "addr:street": "Frauenstraße", "amenity": "social_facility", "female": null, "name": "Seniorenresidenz am Zuckerberg", "operator": "Seniorenresidenz am Zuckerberg gGmbH", "operator:type": null, "social_facility": "group_home", "social_facility:for": "senior", "wheelchair": null, "contact:phone": "+49 651 9793 0", "contact:email": "info@residenz-trier.de", "contact:fax": "+49 651 9793 2099", "contact:website": "http://residenz-trier.de/", "email": null, "phone": null, "website": null, "nodes": null, "brand": null, "brand:wikidata": null, "building": null, "building:levels": null, "roof:levels": null, "roof:shape": null, "fax": null, "wikidata": null, "wikipedia": null, "addr:housename": null, "addr:suburb": null, "check_date": null, "toilets:wheelchair": null, "alt_name": null, "start_date": null, "construction": null, "healthcare": null }, "geometry": { "type": "Point", "coordinates": [ 6.6348303, 49.7557534 ] } },
{ "type": "Feature", "properties": { "index": "('node', 3823307461)", "addr:city": "Trier", "addr:country": "DE", "addr:housenumber": "33", "addr:postcode": "54290", "addr:street": "Krahnenstraße", "amenity": "social_facility", "female": "yes", "name": "Haus Maria Goretti", "operator": "SkF Sozialdienst katholischer Frauen", "operator:type": "religious", "social_facility": "assisted_living", "social_facility:for": "drug_addicted; homeless", "wheelchair": "limited", "contact:phone": null, "contact:email": null, "contact:fax": null, "contact:website": null, "email": null, "phone": null, "website": null, "nodes": null, "brand": null, "brand:wikidata": null, "building": null, "building:levels": null, "roof:levels": null, "roof:shape": null, "fax": null, "wikidata": null, "wikipedia": null, "addr:housename": null, "addr:suburb": null, "check_date": null, "toilets:wheelchair": null, "alt_name": null, "start_date": null, "construction": null, "healthcare": null }, "geometry": { "type": "Point", "coordinates": [ 6.62997, 49.756263 ] } },
{ "type": "Feature", "properties": { "index": "('way', 467532846)", "addr:city": "Trier", "addr:country": "DE", "addr:housenumber": "6", "addr:postcode": "54290", "addr:street": "In der Olk", "amenity": "social_facility", "female": null, "name": "Wohnpark St. Elisabeth", "operator": "Angela von Cordier - Stiftung", "operator:type": null, "social_facility": "group_home", "social_facility:for": "senior", "wheelchair": "yes", "contact:phone": null, "contact:email": null, "contact:fax": null, "contact:website": null, "email": "pieper@wohnpark-stelisabeth.de", "phone": "+49 651 7160-0", "website": "https://www.wohnpark-stelisabeth.de/", "nodes": [ 4621408159, 4621408162, 4621408163, 4621408164, 4621408165, 4621408158, 4621408157, 4621408156, 4621408155, 4621408154, 4621408161, 4621408160, 6181055994, 4621408159 ], "brand": null, "brand:wikidata": null, "building": "residential", "building:levels": "3", "roof:levels": null, "roof:shape": "flat", "fax": "+49 651 7160-447", "wikidata": null, "wikipedia": null, "addr:housename": null, "addr:suburb": null, "check_date": null, "toilets:wheelchair": null, "alt_name": null, "start_date": null, "construction": null, "healthcare": null }, "geometry": { "type": "Polygon", "coordinates": [ [ [ 6.6352565, 49.756684 ], [ 6.6352625, 49.7566937 ], [ 6.6352056, 49.7567074 ], [ 6.6353396, 49.7569603 ], [ 6.6355878, 49.7569004 ], [ 6.6354497, 49.756647 ], [ 6.6353915, 49.7566626 ], [ 6.6353714, 49.756632 ], [ 6.6356839, 49.7565359 ], [ 6.6356223, 49.7564481 ], [ 6.6351513, 49.7565923 ], [ 6.6352018, 49.7566842 ], [ 6.6352479, 49.75667 ], [ 6.6352565, 49.756684 ] ] ] } },
{ "type": "Feature", "properties": { "index": "('way', 563278842)", "addr:city": null, "addr:country": null, "addr:housenumber": null, "addr:postcode": null, "addr:street": null, "amenity": "social_facility", "female": null, "name": "St. Markushaus", "operator": "Markusbrücke e.V.", "operator:type": null, "social_facility": "assisted_living", "social_facility:for": "mental_health", "wheelchair": null, "contact:phone": "+49 651 93778 0", "contact:email": null, "contact:fax": "+49 651 93778 13", "contact:website": null, "email": null, "phone": null, "website": null, "nodes": [ 5428555849, 5428555850, 5428555851, 5428555852, 5428555853, 5428555854, 5428555855, 5428555856, 5428555857, 5428555858, 5428555860, 5428555861, 1119745984, 1119745979, 5428555862, 5428555859, 5428555849 ], "brand": null, "brand:wikidata": null, "building": null, "building:levels": null, "roof:levels": null, "roof:shape": null, "fax": null, "wikidata": null, "wikipedia": null, "addr:housename": null, "addr:suburb": null, "check_date": null, "toilets:wheelchair": null, "alt_name": null, "start_date": null, "construction": null, "healthcare": null }, "geometry": { "type": "Polygon", "coordinates": [ [ [ 6.6134298, 49.7563223 ], [ 6.613194, 49.7562378 ], [ 6.6131356, 49.7561949 ], [ 6.612804, 49.7563465 ], [ 6.6124036, 49.7565373 ], [ 6.6121456, 49.7566813 ], [ 6.6123522, 49.756842 ], [ 6.6119868, 49.7570238 ], [ 6.6121389, 49.7571424 ], [ 6.6119323, 49.7572592 ], [ 6.6122274, 49.7574944 ], [ 6.6125249, 49.7573161 ], [ 6.6129541, 49.7570804 ], [ 6.6128991, 49.7570405 ], [ 6.6130833, 49.7569052 ], [ 6.6137007, 49.7565109 ], [ 6.6134298, 49.7563223 ] ] ] } },
{ "type": "Feature", "properties": { "index": "('way', 160195952)", "addr:city": "Trier", "addr:country": "DE", "addr:housenumber": "31", "addr:postcode": "54296", "addr:street": "An der Härenwies", "amenity": "social_facility", "female": null, "name": "Senioren- und Pflegeheim Härenwies Trier", "operator": null, "operator:type": null, "social_facility": "group_home", "social_facility:for": "senior", "wheelchair": "yes", "contact:phone": "+49 651 9362 0", "contact:email": "seniorenheim.trier@awo-rheinland.de", "contact:fax": "+49 651 9362 114", "contact:website": "http://awo-rheinland.de", "email": null, "phone": null, "website": null, "nodes": [ 1722603626, 3379529295, 1722603656, 1722603665, 1722603664, 1722603654, 1722603642, 3647263874, 1722603631, 1722603629, 1722603606, 1722603603, 1722603602, 1722603573, 1722603563, 1722603567, 1722603608, 1722603605, 1722603582, 1722603574, 1722603577, 1722603596, 1722603607, 1722603609, 1722603618, 1722603636, 1722603640, 1722603644, 1722603667, 1722603672, 1722603670, 1722603676, 1722603687, 1722603668, 1722603626 ], "brand": null, "brand:wikidata": null, "building": "yes", "building:levels": null, "roof:levels": null, "roof:shape": null, "fax": null, "wikidata": null, "wikipedia": null, "addr:housename": null, "addr:suburb": null, "check_date": "2024-03-28", "toilets:wheelchair": "yes", "alt_name": null, "start_date": null, "construction": null, "healthcare": null }, "geometry": { "type": "Polygon", "coordinates": [ [ [ 6.6447704, 49.727706 ], [ 6.6447677, 49.7277583 ], [ 6.6448324, 49.7277579 ], [ 6.6448335, 49.7277144 ], [ 6.6450284, 49.7277215 ], [ 6.6450642, 49.7277029 ], [ 6.6450726, 49.7276136 ], [ 6.6450485, 49.7275906 ], [ 6.644875, 49.7275808 ], [ 6.6447094, 49.7274524 ], [ 6.6446215, 49.7274483 ], [ 6.6445915, 49.7274279 ], [ 6.6446014, 49.7273622 ], [ 6.6445678, 49.7273362 ], [ 6.6444418, 49.7273277 ], [ 6.6443922, 49.727351 ], [ 6.6443882, 49.7274065 ], [ 6.644327, 49.7274453 ], [ 6.6441276, 49.7272771 ], [ 6.6439113, 49.727266 ], [ 6.6438594, 49.7272909 ], [ 6.6438416, 49.7273772 ], [ 6.6438727, 49.7274001 ], [ 6.644032, 49.7274131 ], [ 6.6442049, 49.7275568 ], [ 6.6443047, 49.7275578 ], [ 6.6443341, 49.7275841 ], [ 6.6443528, 49.7276007 ], [ 6.644344, 49.7276592 ], [ 6.64438, 49.7276837 ], [ 6.6445179, 49.7276921 ], [ 6.6445555, 49.7276688 ], [ 6.6445674, 49.7275898 ], [ 6.6445726, 49.7275548 ], [ 6.6447704, 49.727706 ] ] ] } },
{ "type": "Feature", "properties": { "index": "('way', 160725715)", "addr:city": "Trier", "addr:country": "DE", "addr:housenumber": "3", "addr:postcode": "54290", "addr:street": "Löwenbrückener Straße", "amenity": "social_facility", "female": null, "name": "Senioren-Residenz Niederweiler Hof - Trier", "operator": "Senioren-Residenz Niederweiler Hof GmbH", "operator:type": null, "social_facility": "assisted_living", "social_facility:for": "senior", "wheelchair": "yes", "contact:phone": "+49 651 97570 0", "contact:email": null, "contact:fax": "+49 651 97570 13", "contact:website": null, "email": null, "phone": null, "website": null, "nodes": [ 1727679304, 1727679269, 1727679279, 1727679275, 1727679253, 11033996091, 1727679197, 1727679289, 1727679333, 11033996090, 1727679378, 1727679368, 1727679374, 1727679381, 1727679430, 1727679408, 1727679304 ], "brand": null, "brand:wikidata": null, "building": "residential", "building:levels": null, "roof:levels": null, "roof:shape": null, "fax": null, "wikidata": null, "wikipedia": null, "addr:housename": null, "addr:suburb": null, "check_date": null, "toilets:wheelchair": null, "alt_name": null, "start_date": null, "construction": null, "healthcare": null }, "geometry": { "type": "Polygon", "coordinates": [ [ [ 6.6359848, 49.7466361 ], [ 6.6359917, 49.7466519 ], [ 6.6361734, 49.7466146 ], [ 6.6361668, 49.7465975 ], [ 6.6362079, 49.7465887 ], [ 6.6362174, 49.7466065 ], [ 6.6364637, 49.7465571 ], [ 6.6364879, 49.7465523 ], [ 6.6364718, 49.7465057 ], [ 6.6364418, 49.7464192 ], [ 6.636407, 49.7464264 ], [ 6.6361701, 49.7464753 ], [ 6.6361784, 49.746494 ], [ 6.6361221, 49.7465045 ], [ 6.6361151, 49.7464887 ], [ 6.6359343, 49.7465223 ], [ 6.6359848, 49.7466361 ] ] ] } },
{ "type": "Feature", "properties": { "index": "('way', 126897541)", "addr:city": "Trier", "addr:country": "DE", "addr:housenumber": "67", "addr:postcode": "54290", "addr:street": "Ostallee", "amenity": "social_facility", "female": null, "name": "Hospiz Trier", "operator": "Da-Sein Hospizstiftung für die Region Trier", "operator:type": null, "social_facility": "nursing_home", "social_facility:for": "senior", "wheelchair": "yes", "contact:phone": "+49 651 44656", "contact:email": "stiftung@hospiz-trier.de", "contact:fax": null, "contact:website": "http://hospiz-trier.de", "email": null, "phone": null, "website": null, "nodes": [ 1405791071, 5060319391, 1405791114, 5060319398, 1405791092, 1405791095, 1405791081, 5061846679, 5061846682, 1405791051, 1405791054, 1405791047, 1405791057, 1405791059, 1405791071 ], "brand": null, "brand:wikidata": null, "building": "residential", "building:levels": "2", "roof:levels": "2", "roof:shape": "hipped", "fax": null, "wikidata": null, "wikipedia": null, "addr:housename": null, "addr:suburb": null, "check_date": null, "toilets:wheelchair": null, "alt_name": null, "start_date": null, "construction": null, "healthcare": null }, "geometry": { "type": "Polygon", "coordinates": [ [ [ 6.6449113, 49.7510808 ], [ 6.6449614, 49.7511498 ], [ 6.645051, 49.7511225 ], [ 6.6450827, 49.7511129 ], [ 6.6450966, 49.751132 ], [ 6.6452058, 49.7510988 ], [ 6.6452014, 49.7510928 ], [ 6.6451473, 49.7510184 ], [ 6.6450706, 49.7509129 ], [ 6.6450376, 49.7509229 ], [ 6.6450354, 49.7509198 ], [ 6.6449537, 49.7509446 ], [ 6.6449676, 49.7509638 ], [ 6.6448517, 49.7509989 ], [ 6.6449113, 49.7510808 ] ] ] } },
{ "type": "Feature", "properties": { "index": "('way', 87602478)", "addr:city": "Trier", "addr:country": "DE", "addr:housenumber": "8", "addr:postcode": "54295", "addr:street": "Schützenstraße", "amenity": "social_facility", "female": null, "name": "Lebenshilfe Trier, Wohnhaus Schützenstraße", "operator": null, "operator:type": null, "social_facility": "group_home", "social_facility:for": "disabled", "wheelchair": null, "contact:phone": null, "contact:email": null, "contact:fax": null, "contact:website": null, "email": null, "phone": null, "website": null, "nodes": [ 1018990071, 1595371079, 1595371059, 1018990002, 1595371036, 1018990210, 1595371002, 1595370971, 1018990119, 1595370990, 1595370988, 1018990301, 1018990168, 1018990087, 1018990009, 1018990271, 1595370978, 1018990071 ], "brand": "Lebenshilfe", "brand:wikidata": "Q20533", "building": "dormitory", "building:levels": "2", "roof:levels": "1", "roof:shape": "flat", "fax": null, "wikidata": null, "wikipedia": null, "addr:housename": null, "addr:suburb": null, "check_date": null, "toilets:wheelchair": null, "alt_name": null, "start_date": null, "construction": null, "healthcare": null }, "geometry": { "type": "Polygon", "coordinates": [ [ [ 6.6486881, 49.7514075 ], [ 6.6487199, 49.7513861 ], [ 6.6487418, 49.7513992 ], [ 6.6488295, 49.7513376 ], [ 6.6488301, 49.7513138 ], [ 6.648817, 49.7513058 ], [ 6.6487179, 49.7512449 ], [ 6.6486785, 49.7512447 ], [ 6.6486266, 49.7512799 ], [ 6.6486061, 49.7512791 ], [ 6.6485425, 49.7512383 ], [ 6.6486158, 49.7511882 ], [ 6.6484856, 49.7511086 ], [ 6.6483736, 49.7511851 ], [ 6.6484786, 49.7512493 ], [ 6.6484593, 49.7512625 ], [ 6.6486511, 49.7513849 ], [ 6.6486881, 49.7514075 ] ] ] } },
{ "type": "Feature", "properties": { "index": "('way', 1332410250)", "addr:city": null, "addr:country": null, "addr:housenumber": null, "addr:postcode": null, "addr:street": null, "amenity": null, "female": null, "name": "Nestwärme Haus", "operator": "nestwärme e. V. Deutschland", "operator:type": null, "social_facility": null, "social_facility:for": null, "wheelchair": null, "contact:phone": null, "contact:email": null, "contact:fax": null, "contact:website": null, "email": null, "phone": null, "website": "https://www.nestwaerme.org/nestwaerme-haus/", "nodes": [ 12326792746, 12326792745, 12326792744, 12326792743, 12326792746 ], "brand": null, "brand:wikidata": null, "building": "construction", "building:levels": null, "roof:levels": null, "roof:shape": null, "fax": null, "wikidata": null, "wikipedia": null, "addr:housename": null, "addr:suburb": null, "check_date": null, "toilets:wheelchair": null, "alt_name": null, "start_date": null, "construction": "healthcare", "healthcare": "hospice" }, "geometry": { "type": "Polygon", "coordinates": [ [ [ 6.6652478, 49.755014 ], [ 6.6656609, 49.7551466 ], [ 6.6658527, 49.7550201 ], [ 6.6654101, 49.7547792 ], [ 6.6652478, 49.755014 ] ] ] } },
{ "type": "Feature", "properties": { "index": "('node', 4034907081)", "addr:city": "Trier", "addr:country": null, "addr:housenumber": "22 A", "addr:postcode": "54290", "addr:street": "Bruchhausenstraße", "amenity": "social_facility", "female": null, "name": "Seniorenzentrum der Barmherzigen Brüder", "operator": null, "operator:type": null, "social_facility": "group_home", "social_facility:for": "senior", "wheelchair": "yes", "contact:phone": "+49 651 9377610", "contact:email": null, "contact:fax": null, "contact:website": null, "email": null, "phone": null, "website": null, "nodes": null, "brand": null, "brand:wikidata": null, "building": null, "building:levels": null, "roof:levels": null, "roof:shape": null, "fax": null, "wikidata": null, "wikipedia": null, "addr:housename": null, "addr:suburb": null, "check_date": null, "toilets:wheelchair": null, "alt_name": null, "start_date": null, "construction": null, "healthcare": null }, "geometry": { "type": "Point", "coordinates": [ 6.6398754, 49.7600556 ] } },
{ "type": "Feature", "properties": { "index": "('way', 192090704)", "addr:city": "Trier", "addr:country": "DE", "addr:housenumber": "20", "addr:postcode": "54292", "addr:street": "Theobaldstraße", "amenity": "social_facility", "female": null, "name": "Wohnheim der Lebenshilfe Trier", "operator": "Lebenshilfe Trier", "operator:type": null, "social_facility": "group_home", "social_facility:for": "disabled", "wheelchair": null, "contact:phone": null, "contact:email": null, "contact:fax": null, "contact:website": null, "email": null, "phone": null, "website": "https://www.lebenshilfe-trier.de/wohnheim-theobaldstrasse.html", "nodes": [ 2026499996, 2026499990, 2026500018, 2026500026, 2026500021, 2026500027, 2026500032, 5129429042, 5129429041, 5129429040, 2026500039, 2026500037, 2026500035, 2026500029, 2026500025, 2026500030, 2026500020, 2026500003, 2026499994, 2026499996 ], "brand": null, "brand:wikidata": null, "building": "dormitory", "building:levels": "2", "roof:levels": "1", "roof:shape": "gabled", "fax": null, "wikidata": null, "wikipedia": null, "addr:housename": null, "addr:suburb": null, "check_date": null, "toilets:wheelchair": null, "alt_name": null, "start_date": null, "construction": null, "healthcare": null }, "geometry": { "type": "Polygon", "coordinates": [ [ [ 6.6437049, 49.7628823 ], [ 6.6436145, 49.7629293 ], [ 6.6437452, 49.7630341 ], [ 6.6435957, 49.7631118 ], [ 6.6435327, 49.7630613 ], [ 6.643444, 49.7631074 ], [ 6.6435751, 49.7632125 ], [ 6.6435358, 49.763233 ], [ 6.6436075, 49.7632905 ], [ 6.6436567, 49.7632649 ], [ 6.6436628, 49.7632698 ], [ 6.643833, 49.7631813 ], [ 6.6438813, 49.7631561 ], [ 6.6438079, 49.7630972 ], [ 6.6439036, 49.7630474 ], [ 6.6439279, 49.7630669 ], [ 6.6440178, 49.7630201 ], [ 6.6438044, 49.762849 ], [ 6.6437189, 49.7628935 ], [ 6.6437049, 49.7628823 ] ] ] } },
{ "type": "Feature", "properties": { "index": "('way', 1033204737)", "addr:city": null, "addr:country": null, "addr:housenumber": null, "addr:postcode": null, "addr:street": null, "amenity": "social_facility", "female": null, "name": "Mutter-Rosa-Altenzentrum Trier", "operator": null, "operator:type": null, "social_facility": "nursing_home", "social_facility:for": "senior", "wheelchair": null, "contact:phone": "+49 651 2004-0", "contact:email": "info@mutter-rosa.de", "contact:fax": "+49 651 2004-980", "contact:website": "https://www.mutter-rosa.de", "email": null, "phone": null, "website": null, "nodes": [ 3902207134, 9519110450, 9519110449, 9519110448, 3289637507, 3289637499, 4565054825, 4565054800, 4565054799, 4605593687, 4605593686, 4605593734, 4605593733, 4605593749, 4605593750, 9519110447, 3902207134 ], "brand": null, "brand:wikidata": null, "building": null, "building:levels": null, "roof:levels": null, "roof:shape": null, "fax": null, "wikidata": null, "wikipedia": null, "addr:housename": null, "addr:suburb": null, "check_date": "2025-05-21", "toilets:wheelchair": null, "alt_name": null, "start_date": null, "construction": null, "healthcare": null }, "geometry": { "type": "Polygon", "coordinates": [ [ [ 6.6482901, 49.7635393 ], [ 6.6482095, 49.7634828 ], [ 6.6481031, 49.7634079 ], [ 6.6480261, 49.7633537 ], [ 6.6478794, 49.7632491 ], [ 6.6477468, 49.7631246 ], [ 6.6473794, 49.7628931 ], [ 6.6470628, 49.762684 ], [ 6.6465886, 49.7629916 ], [ 6.6465499, 49.7630178 ], [ 6.6463902, 49.7631198 ], [ 6.6462819, 49.7631874 ], [ 6.6462471, 49.7632141 ], [ 6.6471, 49.7638698 ], [ 6.6473776, 49.763694 ], [ 6.6477242, 49.7638973 ], [ 6.6482901, 49.7635393 ] ] ] } },
{ "type": "Feature", "properties": { "index": "('way', 149428440)", "addr:city": "Trier", "addr:country": null, "addr:housenumber": "31", "addr:postcode": "54292", "addr:street": "Peter-Friedhofen-Straße", "amenity": "social_facility", "female": null, "name": "Raphaelshaus Trier", "operator": "Wohnverbund Raphaelshaus Caritasverband Trier e.V.", "operator:type": null, "social_facility": "group_home", "social_facility:for": "disabled", "wheelchair": null, "contact:phone": null, "contact:email": null, "contact:fax": null, "contact:website": null, "email": null, "phone": null, "website": null, "nodes": [ 1624131794, 1624131802, 1624131783, 1624131786, 1624131748, 1624131665, 1624131712, 1624131728, 1624131794 ], "brand": null, "brand:wikidata": null, "building": "residential", "building:levels": "2", "roof:levels": "1", "roof:shape": "mansard", "fax": null, "wikidata": null, "wikipedia": null, "addr:housename": null, "addr:suburb": "Maximin", "check_date": null, "toilets:wheelchair": null, "alt_name": null, "start_date": null, "construction": null, "healthcare": null }, "geometry": { "type": "Polygon", "coordinates": [ [ [ 6.6397666, 49.7643297 ], [ 6.6399723, 49.7642087 ], [ 6.6399827, 49.7642162 ], [ 6.6400881, 49.7641542 ], [ 6.6399517, 49.7640568 ], [ 6.6398511, 49.7641159 ], [ 6.6398602, 49.7641224 ], [ 6.6396496, 49.7642462 ], [ 6.6397666, 49.7643297 ] ] ] } },
{ "type": "Feature", "properties": { "index": "('way', 1453069602)", "addr:city": "Trier", "addr:country": "DE", "addr:housenumber": "40", "addr:postcode": "54292", "addr:street": "Thyrsusstraße", "amenity": "social_facility", "female": null, "name": "VerRus D Tagespflege", "operator": "VerRus D e. V.", "operator:type": null, "social_facility": "assisted_living", "social_facility:for": "senior", "wheelchair": null, "contact:phone": null, "contact:email": null, "contact:fax": null, "contact:website": "https://www.verrus.de/tagespflege/", "email": null, "phone": null, "website": null, "nodes": [ 13325939761, 13325939760, 13325939759, 7712668020, 7712668019, 13325939758, 2032775311, 13325939757, 13325939756, 2032775328, 2032775292, 13325939755, 13325939794, 13325939795, 13325939761 ], "brand": null, "brand:wikidata": null, "building": null, "building:levels": null, "roof:levels": null, "roof:shape": null, "fax": null, "wikidata": null, "wikipedia": null, "addr:housename": null, "addr:suburb": null, "check_date": null, "toilets:wheelchair": null, "alt_name": null, "start_date": null, "construction": null, "healthcare": null }, "geometry": { "type": "Polygon", "coordinates": [ [ [ 6.6587284, 49.766975 ], [ 6.6588768, 49.7669997 ], [ 6.6589677, 49.7670151 ], [ 6.6589722, 49.7670039 ], [ 6.6597331, 49.7671326 ], [ 6.6597285, 49.7671453 ], [ 6.6598607, 49.7671669 ], [ 6.6598958, 49.7670755 ], [ 6.6599582, 49.7669182 ], [ 6.6586814, 49.7667092 ], [ 6.6585279, 49.7666831 ], [ 6.6584171, 49.7666642 ], [ 6.6583417, 49.7668682 ], [ 6.6583315, 49.7669092 ], [ 6.6587284, 49.766975 ] ] ] } },
{ "type": "Feature", "properties": { "index": "('way', 125509484)", "addr:city": "Trier", "addr:country": "DE", "addr:housenumber": "14", "addr:postcode": "54290", "addr:street": "Böhmerstraße", "amenity": "social_facility", "female": null, "name": "Alten- und Pflegeheim St. Elisabeth", "operator": "Angela von Cordier - Stiftung", "operator:type": null, "social_facility": "nursing_home", "social_facility:for": "senior", "wheelchair": null, "contact:phone": null, "contact:email": null, "contact:fax": null, "contact:website": null, "email": "pieper@wohnpark-stelisabeth.de", "phone": "+49 651 7160-0", "website": "https://www.wohnpark-stelisabeth.de/", "nodes": [ 1393839402, 1393839393, 1393839401, 1393839444, 1393839442, 1393839445, 1393839446, 3824540050, 1393839449, 1393839448, 1393839450, 4621408178, 4621408177, 1393839447, 4621408179, 4621408180, 4621408181, 4621408182, 1393839443, 1393839434, 1393839438, 1393839430, 1393839428, 1393839423, 4621408176, 1393839419, 1393839421, 1393839437, 1393839432, 1393839411, 1393839408, 1393839402 ], "brand": null, "brand:wikidata": null, "building": "apartments", "building:levels": "4", "roof:levels": "2", "roof:shape": "mansard", "fax": "+49 651 7160-447", "wikidata": null, "wikipedia": null, "addr:housename": null, "addr:suburb": null, "check_date": null, "toilets:wheelchair": null, "alt_name": null, "start_date": null, "construction": null, "healthcare": null }, "geometry": { "type": "Polygon", "coordinates": [ [ [ 6.6360893, 49.7568357 ], [ 6.6360417, 49.7568555 ], [ 6.6362484, 49.7570857 ], [ 6.636099, 49.7571414 ], [ 6.6359136, 49.7569323 ], [ 6.6358232, 49.7569652 ], [ 6.635793, 49.756934 ], [ 6.6357382, 49.7569532 ], [ 6.6357659, 49.7569889 ], [ 6.6356765, 49.7570214 ], [ 6.6357671, 49.757123 ], [ 6.6358522, 49.7570941 ], [ 6.6359432, 49.7571959 ], [ 6.6358193, 49.7572422 ], [ 6.6357462, 49.7572695 ], [ 6.6357356, 49.7572732 ], [ 6.6357538, 49.757291 ], [ 6.6357469, 49.7572935 ], [ 6.6358194, 49.7573756 ], [ 6.6358242, 49.7573734 ], [ 6.6358417, 49.757389 ], [ 6.6360498, 49.7573117 ], [ 6.6360634, 49.7573238 ], [ 6.6361555, 49.7572888 ], [ 6.6362091, 49.7572675 ], [ 6.6361988, 49.7572521 ], [ 6.6363799, 49.7571827 ], [ 6.6364679, 49.7571496 ], [ 6.6361656, 49.7568114 ], [ 6.6361465, 49.7567885 ], [ 6.6360726, 49.7568153 ], [ 6.6360893, 49.7568357 ] ] ] } },
{ "type": "Feature", "properties": { "index": "('way', 127053047)", "addr:city": "Trier", "addr:country": "DE", "addr:housenumber": "3", "addr:postcode": "54290", "addr:street": "Irminenfreihof", "amenity": "social_facility", "female": null, "name": "Stift St. Irminen", "operator": null, "operator:type": null, "social_facility": "nursing_home", "social_facility:for": "senior", "wheelchair": null, "contact:phone": null, "contact:email": null, "contact:fax": null, "contact:website": null, "email": null, "phone": null, "website": null, "nodes": [ 1406979031, 1406979030, 4614882676, 4614882677, 4618260830, 4618611949, 1408838289, 1408838303, 1408838342, 1406979060, 1408838346, 1406979063, 1406979031 ], "brand": null, "brand:wikidata": null, "building": "residential", "building:levels": "2", "roof:levels": "2", "roof:shape": "mansard", "fax": null, "wikidata": null, "wikipedia": null, "addr:housename": "St. Irminen", "addr:suburb": null, "check_date": null, "toilets:wheelchair": null, "alt_name": null, "start_date": null, "construction": null, "healthcare": null }, "geometry": { "type": "Polygon", "coordinates": [ [ [ 6.631554, 49.757867 ], [ 6.6316971, 49.7578342 ], [ 6.631762, 49.7578192 ], [ 6.6317568, 49.7578097 ], [ 6.6315543, 49.7574238 ], [ 6.6314831, 49.7572944 ], [ 6.6313378, 49.7570368 ], [ 6.6312852, 49.7569414 ], [ 6.6312581, 49.7568931 ], [ 6.6312395, 49.7568962 ], [ 6.6310712, 49.7569352 ], [ 6.6310556, 49.756938 ], [ 6.631554, 49.757867 ] ] ] } },
{ "type": "Feature", "properties": { "index": "('way', 106463780)", "addr:city": null, "addr:country": null, "addr:housenumber": null, "addr:postcode": null, "addr:street": null, "amenity": "social_facility", "female": null, "name": "Jakobusstift", "operator": null, "operator:type": null, "social_facility": "assisted_living", "social_facility:for": "senior", "wheelchair": null, "contact:phone": null, "contact:email": null, "contact:fax": null, "contact:website": null, "email": null, "phone": null, "website": null, "nodes": [ 1224746418, 4617361698, 1690977713, 1224746472, 1224746454, 1224746419, 1224746500, 1224746479, 1224746416, 1224746502, 1224746475, 1690977697, 1224746444, 1224746431, 1224746516, 1224746483, 1224746460, 4614887692, 4614887691, 4614887690, 4614887689, 1224746512, 1224746486, 4617361681, 1224746452, 1654794455, 1224746417, 4617361685, 1224746418 ], "brand": null, "brand:wikidata": null, "building": "apartments", "building:levels": "3", "roof:levels": null, "roof:shape": "flat", "fax": null, "wikidata": null, "wikipedia": null, "addr:housename": null, "addr:suburb": null, "check_date": null, "toilets:wheelchair": null, "alt_name": null, "start_date": null, "construction": null, "healthcare": null }, "geometry": { "type": "Polygon", "coordinates": [ [ [ 6.6331703, 49.7578692 ], [ 6.6331842, 49.7579058 ], [ 6.6331946, 49.7579257 ], [ 6.6333386, 49.7578937 ], [ 6.6333644, 49.7579389 ], [ 6.6334099, 49.757929 ], [ 6.6333881, 49.7578833 ], [ 6.6335843, 49.7578367 ], [ 6.6336021, 49.7578648 ], [ 6.6337013, 49.7578422 ], [ 6.6336859, 49.7578159 ], [ 6.633673, 49.7577934 ], [ 6.6338137, 49.7577617 ], [ 6.6336512, 49.7574588 ], [ 6.6336126, 49.7574682 ], [ 6.6335646, 49.7573833 ], [ 6.6335227, 49.757394 ], [ 6.633527, 49.757407 ], [ 6.633465, 49.7574201 ], [ 6.6334529, 49.7573986 ], [ 6.6332168, 49.7574532 ], [ 6.6332654, 49.7575495 ], [ 6.6332858, 49.7575453 ], [ 6.6333793, 49.7575258 ], [ 6.6334714, 49.7576984 ], [ 6.6334913, 49.757748 ], [ 6.6332936, 49.7577917 ], [ 6.6331527, 49.7578228 ], [ 6.6331703, 49.7578692 ] ] ] } },
{ "type": "Feature", "properties": { "index": "('way', 125666264)", "addr:city": "Trier", "addr:country": "DE", "addr:housenumber": "2", "addr:postcode": "54290", "addr:street": "Kalenfelsstraße", "amenity": "social_facility", "female": null, "name": "Echternacher Hof", "operator": null, "operator:type": null, "social_facility": "group_home", "social_facility:for": "diseased", "wheelchair": null, "contact:phone": null, "contact:email": null, "contact:fax": null, "contact:website": null, "email": null, "phone": null, "website": null, "nodes": [ 1395188142, 1395188139, 1395188133, 1395188132, 1395188129, 1395188127, 1395188128, 1395188130, 1395188126, 4614352697, 4614352698, 4614352699, 4614352700, 4614352701, 4614352702, 4614352703, 4614352704, 4614352705, 4614352706, 4614352707, 4614352708, 4614352709, 1395188165, 1395188180, 1395188197, 1395188187, 1395188179, 1395188153, 1395188158, 1395188147, 1395188142 ], "brand": null, "brand:wikidata": null, "building": "residential", "building:levels": "2", "roof:levels": "1", "roof:shape": "gabled_row", "fax": null, "wikidata": "Q110137742", "wikipedia": "de:Echternacher Hof (Trier)", "addr:housename": null, "addr:suburb": null, "check_date": null, "toilets:wheelchair": null, "alt_name": null, "start_date": null, "construction": null, "healthcare": null }, "geometry": { "type": "Polygon", "coordinates": [ [ [ 6.6336352, 49.7585516 ], [ 6.6336588, 49.7585782 ], [ 6.6337097, 49.758566 ], [ 6.6337539, 49.7586446 ], [ 6.6337316, 49.7586535 ], [ 6.6337333, 49.7586642 ], [ 6.6338992, 49.7586392 ], [ 6.6340461, 49.758611 ], [ 6.6340325, 49.7585853 ], [ 6.6340372, 49.7585792 ], [ 6.6340422, 49.7585663 ], [ 6.6340284, 49.7585445 ], [ 6.634012, 49.7585419 ], [ 6.6339941, 49.7585105 ], [ 6.6340053, 49.7584994 ], [ 6.6339957, 49.7584823 ], [ 6.6339723, 49.7584848 ], [ 6.6339632, 49.7584677 ], [ 6.6339506, 49.758471 ], [ 6.6339286, 49.7584367 ], [ 6.6339146, 49.7584404 ], [ 6.6339003, 49.7584168 ], [ 6.6338266, 49.7584335 ], [ 6.6338006, 49.7583908 ], [ 6.6337461, 49.7584036 ], [ 6.6336786, 49.7584193 ], [ 6.6336831, 49.7584542 ], [ 6.6336397, 49.7584764 ], [ 6.6336501, 49.7585018 ], [ 6.6336264, 49.7585126 ], [ 6.6336352, 49.7585516 ] ] ] } },
{ "type": "Feature", "properties": { "index": "('way', 549205327)", "addr:city": null, "addr:country": null, "addr:housenumber": null, "addr:postcode": null, "addr:street": null, "amenity": "social_facility", "female": null, "name": "Seniorenzentrum Hildegard von Bingen", "operator": "Hildegard von Bingen GmbH", "operator:type": null, "social_facility": "nursing_home", "social_facility:for": "senior", "wheelchair": null, "contact:phone": "+49 651 1442-0", "contact:email": "trier@h-v-b.de", "contact:fax": "+49 651 1442-04", "contact:website": "https://h-v-b.de/trier/", "email": null, "phone": null, "website": null, "nodes": [ 5305263184, 12387993222, 5305263183, 5305263182, 5305263181, 12387993220, 12387993219, 5305263180, 5305263179, 5305263184 ], "brand": null, "brand:wikidata": null, "building": null, "building:levels": null, "roof:levels": null, "roof:shape": null, "fax": null, "wikidata": null, "wikipedia": null, "addr:housename": null, "addr:suburb": null, "check_date": null, "toilets:wheelchair": null, "alt_name": null, "start_date": null, "construction": null, "healthcare": null }, "geometry": { "type": "Polygon", "coordinates": [ [ [ 6.659586, 49.7685476 ], [ 6.6594221, 49.7686939 ], [ 6.6601234, 49.76902 ], [ 6.6603902, 49.7687856 ], [ 6.6605042, 49.768839 ], [ 6.6606428, 49.7687196 ], [ 6.6605897, 49.7686956 ], [ 6.6607428, 49.7685642 ], [ 6.6599662, 49.7682082 ], [ 6.659586, 49.7685476 ] ] ] } },
{ "type": "Feature", "properties": { "index": "('node', 4938746414)", "addr:city": null, "addr:country": null, "addr:housenumber": null, "addr:postcode": null, "addr:street": null, "amenity": "social_facility", "female": null, "name": "Jugendhilfezentrum Don Bosco Helenenberg - Standort Trier", "operator": "Jugendhilfezentrum Don Bosco Helenenberg", "operator:type": null, "social_facility": "group_home", "social_facility:for": null, "wheelchair": null, "contact:phone": null, "contact:email": null, "contact:fax": null, "contact:website": null, "email": null, "phone": null, "website": null, "nodes": null, "brand": null, "brand:wikidata": null, "building": null, "building:levels": null, "roof:levels": null, "roof:shape": null, "fax": null, "wikidata": null, "wikipedia": null, "addr:housename": null, "addr:suburb": null, "check_date": null, "toilets:wheelchair": null, "alt_name": null, "start_date": null, "construction": null, "healthcare": null }, "geometry": { "type": "Point", "coordinates": [ 6.688179, 49.8078051 ] } },
{ "type": "Feature", "properties": { "index": "('way', 471203686)", "addr:city": "Trier", "addr:country": null, "addr:housenumber": "35", "addr:postcode": "54293", "addr:street": "Franziskusstraße", "amenity": "social_facility", "female": null, "name": "Seniorenresidenz St. Peter", "operator": "Creatio GmbH", "operator:type": null, "social_facility": "group_home", "social_facility:for": "senior", "wheelchair": null, "contact:phone": null, "contact:email": null, "contact:fax": null, "contact:website": null, "email": null, "phone": null, "website": null, "nodes": [ 4653687016, 9888511611, 9888511612, 9888511613, 12866377623, 12866377622, 12866377621, 12866377620, 9888511614, 12866377619, 12866377617, 12866377616, 12866377618, 9888511615, 9888511616, 9888516417, 9888516418, 9888516419, 9888516420, 12866377630, 12866377629, 12866377628, 1262380323, 12076236417, 9888516424, 4653687015, 4653687014, 4653687019, 4653687018, 12866377627, 12866377626, 4653687017, 12866377625, 12866377624, 4653687016 ], "brand": null, "brand:wikidata": null, "building": "residential", "building:levels": null, "roof:levels": null, "roof:shape": null, "fax": null, "wikidata": null, "wikipedia": null, "addr:housename": null, "addr:suburb": "Ehrang", "check_date": null, "toilets:wheelchair": null, "alt_name": null, "start_date": null, "construction": null, "healthcare": null }, "geometry": { "type": "Polygon", "coordinates": [ [ [ 6.6886324, 49.8079847 ], [ 6.6886201, 49.8079901 ], [ 6.6885509, 49.8079384 ], [ 6.6884661, 49.8079882 ], [ 6.6884856, 49.8080019 ], [ 6.6884233, 49.8080351 ], [ 6.6884671, 49.808068 ], [ 6.6884348, 49.8080867 ], [ 6.6888185, 49.8083742 ], [ 6.6888899, 49.8083337 ], [ 6.6889618, 49.808384 ], [ 6.6889721, 49.80838 ], [ 6.689023, 49.8083525 ], [ 6.6890609, 49.8083321 ], [ 6.6890685, 49.8083396 ], [ 6.6893537, 49.808181 ], [ 6.6893247, 49.8081586 ], [ 6.6893571, 49.8081411 ], [ 6.6892909, 49.8080901 ], [ 6.6892585, 49.8081076 ], [ 6.6892001, 49.8080625 ], [ 6.6891237, 49.8081082 ], [ 6.6891066, 49.8080962 ], [ 6.6890347, 49.8081382 ], [ 6.6890497, 49.8081478 ], [ 6.6889245, 49.8082182 ], [ 6.6889085, 49.8082065 ], [ 6.6889192, 49.8082001 ], [ 6.6888515, 49.8081474 ], [ 6.6888401, 49.8081542 ], [ 6.6888248, 49.8081398 ], [ 6.6889517, 49.8080675 ], [ 6.6888926, 49.80802 ], [ 6.6887721, 49.80809 ], [ 6.6886324, 49.8079847 ] ] ] } },
{ "type": "Feature", "properties": { "index": "('node', 5166505422)", "addr:city": null, "addr:country": null, "addr:housenumber": null, "addr:postcode": null, "addr:street": null, "amenity": "social_facility", "female": null, "name": "Tagespflege Trier-Ehrang", "operator": "Club Aktiv e. V.", "operator:type": null, "social_facility": "assisted_living", "social_facility:for": "senior", "wheelchair": null, "contact:phone": null, "contact:email": null, "contact:fax": null, "contact:website": null, "email": "tagespflege-ehrang@clubaktiv.de", "phone": "+49 651 99550354", "website": "https://www.clubaktiv.de/-betreuung/tagespflege/", "nodes": null, "brand": null, "brand:wikidata": null, "building": null, "building:levels": null, "roof:levels": null, "roof:shape": null, "fax": null, "wikidata": null, "wikipedia": null, "addr:housename": null, "addr:suburb": null, "check_date": null, "toilets:wheelchair": null, "alt_name": null, "start_date": null, "construction": null, "healthcare": null }, "geometry": { "type": "Point", "coordinates": [ 6.6861733, 49.8101998 ] } }
]
}
