{
"type": "FeatureCollection",
"name": "fire_stations_Trier, Germany",
"crs": { "type": "name", "properties": { "name": "urn:ogc:def:crs:OGC:1.3:CRS84" } },
"features": [
{ "type": "Feature", "properties": { "element_type": "way", "osmid": 45728831, "emergency": null, "nodes": [ 582476669, 582476670, 582476671, 582476672, 582476669 ], "addr:city": "Trier", "addr:country": "DE", "addr:housenumber": "51", "addr:postcode": "54294", "addr:street": "Waldstraße", "alt_name": "Freiwillige Feuerwehr Trier - Löschzug Zewen", "amenity": "fire_station", "building": "yes", "name": "Freiwillige Feuerwehr Trier-Zewen", "operator": "Stadt Trier", "description": null, "email": null, "addr:suburb": null, "check_date": null, "building:levels": null, "contact:website": null, "operator:wikidata": null, "roof:levels": null, "website": null, "ways": null, "contact:email": null, "contact:fax": null, "contact:phone": null, "operator:wikipedia": null, "ref": null, "short_name": null, "type": null, "wikipedia": null }, "geometry": { "type": "Polygon", "coordinates": [ [ [ 6.5746274, 49.7219603 ], [ 6.5748534, 49.7219161 ], [ 6.5748149, 49.7218336 ], [ 6.574589, 49.7218779 ], [ 6.5746274, 49.7219603 ] ] ] } },
{ "type": "Feature", "properties": { "element_type": "way", "osmid": 149913385, "emergency": null, "nodes": [ 1628477570, 1628477510, 1628477531, 1628477611, 1628477570 ], "addr:city": "Trier", "addr:country": "DE", "addr:housenumber": "29b", "addr:postcode": "54293", "addr:street": "St.-Jost-Straße", "alt_name": "Freiwillige Feuerwehr Trier Löschzug Biewer", "amenity": "fire_station", "building": "yes", "name": "Freiwillige Feuerwehr Trier-Biewer", "operator": "Stadt Trier", "description": null, "email": null, "addr:suburb": null, "check_date": null, "building:levels": null, "contact:website": null, "operator:wikidata": null, "roof:levels": null, "website": null, "ways": null, "contact:email": null, "contact:fax": null, "contact:phone": null, "operator:wikipedia": null, "ref": null, "short_name": null, "type": null, "wikipedia": null }, "geometry": { "type": "Polygon", "coordinates": [ [ [ 6.6658564, 49.7788207 ], [ 6.6660022, 49.7786932 ], [ 6.6661232, 49.7787513 ], [ 6.6659774, 49.7788788 ], [ 6.6658564, 49.7788207 ] ] ] } },
{ "type": "Feature", "properties": { "element_type": "way", "osmid": 160761230, "emergency": null, "nodes": [ 1728046445, 1728046600, 1728046631, 1728046518, 1728046489, 1728046445 ], "addr:city": "Trier", "addr:country": null, "addr:housenumber": "13-14", "addr:postcode": "54290", "addr:street": "Löwenbrückener Straße", "alt_name": null, "amenity": "fire_station", "building": "yes", "name": "Freiwillige Feuerwehr Trier-Stadtmitte", "operator": "Stadtverwaltung Trier - Amt 37", "description": "Freiwillige Feuerwehr Trier\nLöschzug Stadtmitte", "email": "zf@loeschzug-mitte.de", "addr:suburb": null, "check_date": null, "building:levels": null, "contact:website": null, "operator:wikidata": null, "roof:levels": null, "website": null, "ways": null, "contact:email": null, "contact:fax": null, "contact:phone": null, "operator:wikipedia": null, "ref": null, "short_name": null, "type": null, "wikipedia": null }, "geometry": { "type": "Polygon", "coordinates": [ [ [ 6.6379894, 49.746387 ], [ 6.6380467, 49.7465512 ], [ 6.6378407, 49.7465814 ], [ 6.6377992, 49.7464724 ], [ 6.6377823, 49.7464174 ], [ 6.6379894, 49.746387 ] ] ] } },
{ "type": "Feature", "properties": { "element_type": "way", "osmid": 168187882, "emergency": null, "nodes": [ 1794773302, 1794773306, 1794773315, 1794773314, 1794773327, 1794773324, 1794773300, 1794773298, 1794773292, 1794773296, 1794773302 ], "addr:city": "Trier", "addr:country": null, "addr:housenumber": "12", "addr:postcode": "54292", "addr:street": "Hermeskeiler Straße", "alt_name": "Freiwillige Feuerwehr Trier - Löschzug Ruwer", "amenity": "fire_station", "building": "fire_station", "name": "Freiwillige Feuerwehr Trier-Ruwer", "operator": "Stadt Trier", "description": null, "email": null, "addr:suburb": null, "check_date": null, "building:levels": null, "contact:website": null, "operator:wikidata": null, "roof:levels": null, "website": null, "ways": null, "contact:email": null, "contact:fax": null, "contact:phone": null, "operator:wikipedia": null, "ref": null, "short_name": null, "type": null, "wikipedia": null }, "geometry": { "type": "Polygon", "coordinates": [ [ [ 6.7082954, 49.7866149 ], [ 6.7083068, 49.7866188 ], [ 6.7082701, 49.7866635 ], [ 6.7082476, 49.7866557 ], [ 6.708178, 49.7867403 ], [ 6.7080297, 49.7866894 ], [ 6.7080971, 49.7866075 ], [ 6.7080828, 49.7866026 ], [ 6.7081218, 49.7865553 ], [ 6.7082318, 49.7865931 ], [ 6.7082954, 49.7866149 ] ] ] } },
{ "type": "Feature", "properties": { "element_type": "way", "osmid": 210040946, "emergency": null, "nodes": [ 2201789500, 2201789477, 2201789487, 2201789506, 2201789500 ], "addr:city": "Trier", "addr:country": "DE", "addr:housenumber": "27 A", "addr:postcode": "54293", "addr:street": "Residenzstraße", "alt_name": "Feuerwehr Trier - Löschzug Pfalzel", "amenity": "fire_station", "building": "yes", "name": "Freiwillige Feuerwehr Trier-Pfalzel", "operator": "Stadt Trier", "description": null, "email": null, "addr:suburb": null, "check_date": null, "building:levels": null, "contact:website": null, "operator:wikidata": null, "roof:levels": null, "website": null, "ways": null, "contact:email": null, "contact:fax": null, "contact:phone": null, "operator:wikipedia": null, "ref": null, "short_name": null, "type": null, "wikipedia": null }, "geometry": { "type": "Polygon", "coordinates": [ [ [ 6.6933123, 49.7809369 ], [ 6.6935715, 49.781017 ], [ 6.6935039, 49.7811088 ], [ 6.6932445, 49.7810299 ], [ 6.6933123, 49.7809369 ] ] ] } },
{ "type": "Feature", "properties": { "element_type": "way", "osmid": 249100012, "emergency": null, "nodes": [ 2557779966, 2557779967, 2557779963, 2557779962, 2557779966 ], "addr:city": "Trier", "addr:country": "DE", "addr:housenumber": "3", "addr:postcode": "54292", "addr:street": "Am Grüneberg", "alt_name": "Feuerwehr Trier - Löschzug Kürenz", "amenity": "fire_station", "building": "yes", "name": "Freiwillige Feuerwehr Trier-Kürenz", "operator": "Stadt Trier", "description": null, "email": null, "addr:suburb": "Kürenz", "check_date": "2025-01-11", "building:levels": null, "contact:website": null, "operator:wikidata": null, "roof:levels": null, "website": null, "ways": null, "contact:email": null, "contact:fax": null, "contact:phone": null, "operator:wikipedia": null, "ref": null, "short_name": null, "type": null, "wikipedia": null }, "geometry": { "type": "Polygon", "coordinates": [ [ [ 6.6694194, 49.7640957 ], [ 6.6693717, 49.7639815 ], [ 6.6695728, 49.76394 ], [ 6.6696254, 49.7640554 ], [ 6.6694194, 49.7640957 ] ] ] } },
{ "type": "Feature", "properties": { "element_type": "way", "osmid": 331889795, "emergency": null, "nodes": [ 3389882175, 3389882171, 3389882177, 3389882180, 3389882175 ], "addr:city": "Trier", "addr:country": "DE", "addr:housenumber": "52", "addr:postcode": "54294", "addr:street": "Herresthal", "alt_name": "Freiwillige Feuerwehr Trier - Löschzug Herresthal", "amenity": "fire_station", "building": "fire_station", "name": "Freiwillige Feuerwehr Trier-Herresthal", "operator": "Stadt Trier", "description": null, "email": null, "addr:suburb": null, "check_date": null, "building:levels": "1", "contact:website": "https://feuerwehr.trier.de/freiwillige-feuerwehr/ff-herresthal/", "operator:wikidata": "Q3138", "roof:levels": "1", "website": null, "ways": null, "contact:email": null, "contact:fax": null, "contact:phone": null, "operator:wikipedia": null, "ref": null, "short_name": null, "type": null, "wikipedia": null }, "geometry": { "type": "Polygon", "coordinates": [ [ [ 6.5618863, 49.7436693 ], [ 6.5619383, 49.7436179 ], [ 6.5620798, 49.7436776 ], [ 6.5620277, 49.7437291 ], [ 6.5618863, 49.7436693 ] ] ] } },
{ "type": "Feature", "properties": { "element_type": "way", "osmid": 343221638, "emergency": null, "nodes": [ 3501015598, 3501015600, 3501014284, 3501014286, 8511627443, 8511627444, 3501014291, 8511627442, 3501015598 ], "addr:city": "Trier", "addr:country": "DE", "addr:housenumber": "18", "addr:postcode": "54294", "addr:street": "Schalkenbachstraße", "alt_name": "Freiwillige Feuerwehr Trier - Löschzug Euren", "amenity": "fire_station", "building": "yes", "name": "Freiwillige Feuerwehr Trier-Euren", "operator": "Stadt Trier", "description": null, "email": null, "addr:suburb": null, "check_date": null, "building:levels": null, "contact:website": null, "operator:wikidata": null, "roof:levels": null, "website": null, "ways": null, "contact:email": null, "contact:fax": null, "contact:phone": null, "operator:wikipedia": null, "ref": null, "short_name": null, "type": null, "wikipedia": null }, "geometry": { "type": "Polygon", "coordinates": [ [ [ 6.6102106, 49.7440529 ], [ 6.6100434, 49.7440733 ], [ 6.6100767, 49.7441872 ], [ 6.6101251, 49.7441813 ], [ 6.6100942, 49.7442281 ], [ 6.6101504, 49.7442435 ], [ 6.6101946, 49.7441766 ], [ 6.6102466, 49.7441699 ], [ 6.6102106, 49.7440529 ] ] ] } },
{ "type": "Feature", "properties": { "element_type": "way", "osmid": 376663449, "emergency": null, "nodes": [ 3800643061, 3800643071, 4415760148, 3800643073, 3800643072, 3800643061 ], "addr:city": "Trier", "addr:country": null, "addr:housenumber": "6", "addr:postcode": "54293", "addr:street": "Oberstraße", "alt_name": "Freiwillige Feuerwehr Trier - Löschzug Ehrang", "amenity": "fire_station", "building": "fire_station", "name": "Freiwillige Feuerwehr Trier-Ehrang", "operator": "Stadt Trier", "description": null, "email": null, "addr:suburb": null, "check_date": "2025-04-19", "building:levels": "2", "contact:website": null, "operator:wikidata": null, "roof:levels": "1", "website": null, "ways": null, "contact:email": null, "contact:fax": null, "contact:phone": null, "operator:wikipedia": null, "ref": null, "short_name": null, "type": null, "wikipedia": null }, "geometry": { "type": "Polygon", "coordinates": [ [ [ 6.684339, 49.8093706 ], [ 6.6844272, 49.8092432 ], [ 6.6846557, 49.8093077 ], [ 6.6847455, 49.8093368 ], [ 6.6846614, 49.8094678 ], [ 6.684339, 49.8093706 ] ] ] } },
{ "type": "Feature", "properties": { "element_type": "way", "osmid": 533121828, "emergency": null, "nodes": [ 5172636133, 5172636136, 5172636137, 5172636142, 5172636139, 5172636140, 5172636138, 5172636134, 5172636135, 5172636132, 5172636133 ], "addr:city": "Trier", "addr:country": "DE", "addr:housenumber": "33", "addr:postcode": "54296", "addr:street": "Langwies", "alt_name": "Freiweillige Feuerwehr Trier - Löschzug Irsch", "amenity": "fire_station", "building": "public", "name": "Freiwillige Feuerwehr Trier-Irsch", "operator": "Stadt Trier", "description": null, "email": null, "addr:suburb": "Irsch", "check_date": null, "building:levels": null, "contact:website": null, "operator:wikidata": null, "roof:levels": null, "website": "https://feuerwehr-trier-irsch.de/", "ways": null, "contact:email": null, "contact:fax": null, "contact:phone": null, "operator:wikipedia": null, "ref": null, "short_name": null, "type": null, "wikipedia": null }, "geometry": { "type": "Polygon", "coordinates": [ [ [ 6.7035603, 49.7295541 ], [ 6.7037096, 49.729745 ], [ 6.7036778, 49.7297554 ], [ 6.7037591, 49.7298594 ], [ 6.7039271, 49.7298045 ], [ 6.7039351, 49.7298147 ], [ 6.7040458, 49.7297786 ], [ 6.7039361, 49.7296383 ], [ 6.7038488, 49.7296668 ], [ 6.7037199, 49.7295019 ], [ 6.7035603, 49.7295541 ] ] ] } },
{ "type": "Feature", "properties": { "element_type": "way", "osmid": 1385459270, "emergency": null, "nodes": [ 12827372901, 12827368800, 12827368799, 12827368798, 12827368797, 12827368796, 12827368795, 12827368794, 12827372901 ], "addr:city": null, "addr:country": null, "addr:housenumber": null, "addr:postcode": null, "addr:street": null, "alt_name": "Freiwillige Feuerwehr Trier - Löschzug Olewig", "amenity": "fire_station", "building": null, "name": "Freiwillige Feuerwehr Trier-Olewig", "operator": null, "description": null, "email": null, "addr:suburb": null, "check_date": null, "building:levels": null, "contact:website": null, "operator:wikidata": null, "roof:levels": null, "website": null, "ways": null, "contact:email": null, "contact:fax": null, "contact:phone": null, "operator:wikipedia": null, "ref": null, "short_name": null, "type": null, "wikipedia": null }, "geometry": { "type": "Polygon", "coordinates": [ [ [ 6.6611834, 49.7441745 ], [ 6.661132, 49.7442002 ], [ 6.6612711, 49.7444345 ], [ 6.6613753, 49.7444819 ], [ 6.6616392, 49.7445058 ], [ 6.6617176, 49.7441999 ], [ 6.6614322, 49.7441824 ], [ 6.6614311, 49.7441953 ], [ 6.6611834, 49.7441745 ] ] ] } },
{ "type": "Feature", "properties": { "element_type": "relation", "osmid": 4242120, "emergency": "ambulance_station", "nodes": [ [ [ 2557649147, 2528374721, 1323597991 ], [ 1323597973, 1323597986, 1323597988, 1323597984, 1230590153, 1230590157, 1230590179, 1230590216, 1230590155, 1230590137, 2557649147 ], [ 3214347496, 3214347488, 3214347491, 3336905239, 1323597973 ], [ 1323597991, 2528374719, 602763083, 5856779116, 602763086, 1725104751, 330795392, 1725104745, 3214347490, 1725104707, 330795399, 3336905240, 3214347496 ] ] ], "addr:city": null, "addr:country": null, "addr:housenumber": null, "addr:postcode": null, "addr:street": null, "alt_name": "Amt 37 - Stadtverwaltung Trier", "amenity": "fire_station", "building": null, "name": "Berufsfeuerwehr Trier", "operator": "Stadt Trier", "description": null, "email": null, "addr:suburb": null, "check_date": null, "building:levels": null, "contact:website": "http://feuerwehr-trier.de", "operator:wikidata": "Q1409919", "roof:levels": null, "website": null, "ways": [ 315331433, 315333313, 315333310, 315324052 ], "contact:email": "poststelle@feuerwehr-trier.de", "contact:fax": "+49 651 9488-3901", "contact:phone": "+49 651 9488-0", "operator:wikipedia": "de:Feuerwehr Trier", "ref": "TR01", "short_name": "BF Trier", "type": "multipolygon", "wikipedia": null }, "geometry": { "type": "Polygon", "coordinates": [ [ [ 6.6285163, 49.7465264 ], [ 6.6284694, 49.746475 ], [ 6.6281109, 49.7464553 ], [ 6.6280899, 49.7466144 ], [ 6.6280418, 49.7469742 ], [ 6.6280552, 49.7470445 ], [ 6.6281408, 49.7470391 ], [ 6.6283483, 49.747022 ], [ 6.6286159, 49.7470009 ], [ 6.6286089, 49.7469705 ], [ 6.6288554, 49.7469465 ], [ 6.6288757, 49.7470345 ], [ 6.6289047, 49.7471596 ], [ 6.6289269, 49.7471554 ], [ 6.6290612, 49.7471302 ], [ 6.6291976, 49.7470982 ], [ 6.6295099, 49.7470251 ], [ 6.6296599, 49.7469983 ], [ 6.6296193, 49.7469085 ], [ 6.6295447, 49.746741 ], [ 6.6294493, 49.7465264 ], [ 6.6293813, 49.7463738 ], [ 6.6292157, 49.7464045 ], [ 6.628747, 49.7464641 ], [ 6.6286564, 49.7464747 ], [ 6.6286236, 49.7464785 ], [ 6.6286333, 49.7465132 ], [ 6.6285711, 49.7465202 ], [ 6.6285163, 49.7465264 ] ] ] } },
{ "type": "Feature", "properties": { "element_type": "relation", "osmid": 8594427, "emergency": null, "nodes": [ [ [ 6594916524, 6594916526, 4982248029, 9378827298, 4982239419, 4982248022, 4982248028, 6926374940, 6926374941, 4982248030, 4982248033, 4982248032, 4982248031 ], [ 6594916524, 4195207341, 6594916523, 6594916521, 4195207345, 4982248031 ] ] ], "addr:city": null, "addr:country": null, "addr:housenumber": null, "addr:postcode": null, "addr:street": null, "alt_name": "Berufsfeuerwehr Trier - Feuerwache 2", "amenity": "fire_station", "building": null, "name": "Brand- und Katastrophenschutzzentrum Trier-Ehrang", "operator": "Stadt Trier", "description": null, "email": null, "addr:suburb": null, "check_date": null, "building:levels": null, "contact:website": "http://feuerwehr-trier.de", "operator:wikidata": null, "roof:levels": null, "website": null, "ways": [ 619820639, 739738563 ], "contact:email": "poststelle@feuerwehr-trier.de", "contact:fax": "+49 651 9488-3901", "contact:phone": "+49 651 9488-0", "operator:wikipedia": null, "ref": null, "short_name": null, "type": "multipolygon", "wikipedia": "de:Feuerwehr Trier" }, "geometry": { "type": "Polygon", "coordinates": [ [ [ 6.6880381, 49.8031202 ], [ 6.6880997, 49.8032096 ], [ 6.6881264, 49.8032483 ], [ 6.6892535, 49.802925 ], [ 6.6892904, 49.8028254 ], [ 6.6892761, 49.8028046 ], [ 6.6893166, 49.8028048 ], [ 6.6893971, 49.8028044 ], [ 6.6893858, 49.8025258 ], [ 6.6893535, 49.8017332 ], [ 6.6885246, 49.8019756 ], [ 6.6885602, 49.8025412 ], [ 6.6881499, 49.8026564 ], [ 6.6881673, 49.8027698 ], [ 6.6876966, 49.8029047 ], [ 6.6878803, 49.8031736 ], [ 6.6879442, 49.8031518 ], [ 6.6880381, 49.8031202 ] ] ] } }
]
}
