{
"type": "FeatureCollection",
"name": "hospitals_Trier, Germany",
"crs": { "type": "name", "properties": { "name": "urn:ogc:def:crs:OGC:1.3:CRS84" } },
"features": [
{ "type": "Feature", "properties": { "element_type": "way", "osmid": 29977497, "emergency": "yes", "wheelchair": "yes", "opening_hours": "24/7", "operator": null, "name": "Klinikum Mutterhaus der Borromäerinnen Trier", "website": "https://www.mutterhaus.de/", "nodes": [ 5246812910, 7889582620, 7889582621, 5246812908, 1390949683, 1390949687, 7889582626, 1413470652, 1413470662, 1413470660, 1413474172, 1413470650, 330011906, 4035999278, 330011908, 330011912, 330011915, 330011917, 330011920, 330011923, 1323198759, 330011857, 330011849, 330011852, 330011928, 330011931, 1323294625, 1323187696, 1321578389, 1411505653, 330011887, 1411505661, 1411505673, 329975653, 1411505539, 1411505531, 329975655, 330011892, 1411505505, 1411505498, 1411505502, 1411505512, 330011895, 1323202868, 1712822461, 1323202875, 5246812910 ], "amenity": "hospital", "healthcare": "hospital", "wikidata": "Q991759", "wikipedia": "de:Klinikum Mutterhaus der Borromäerinnen", "email": null, "phone": null, "source": null, "contact:phone": null, "healthcare:speciality": null, "old_name": null, "toilets:wheelchair": null, "ways": null, "alt_name": null, "short_name": null, "type": null }, "geometry": { "type": "Polygon", "coordinates": [ [ [ 6.6327664, 49.7534759 ], [ 6.6326967, 49.7533231 ], [ 6.6320555, 49.7534561 ], [ 6.6320289, 49.7534079 ], [ 6.6320047, 49.753364 ], [ 6.631162, 49.7535774 ], [ 6.6310698, 49.7534255 ], [ 6.6308976, 49.7531416 ], [ 6.6306526, 49.7532065 ], [ 6.6306452, 49.7531949 ], [ 6.6305961, 49.7532079 ], [ 6.6305433, 49.7531247 ], [ 6.6303428, 49.7529236 ], [ 6.6300708, 49.7530195 ], [ 6.6300215, 49.7530323 ], [ 6.6299922, 49.7529888 ], [ 6.6296042, 49.7530902 ], [ 6.6296242, 49.7532777 ], [ 6.6293705, 49.7533282 ], [ 6.6295159, 49.75363 ], [ 6.6293218, 49.7536634 ], [ 6.6289003, 49.7537454 ], [ 6.6286157, 49.7537995 ], [ 6.6286564, 49.7538888 ], [ 6.6287715, 49.75429 ], [ 6.6290455, 49.7549408 ], [ 6.6292843, 49.7554843 ], [ 6.6294613, 49.7558639 ], [ 6.6296506, 49.7557901 ], [ 6.6301443, 49.7556523 ], [ 6.6301921, 49.7557118 ], [ 6.6303769, 49.7556591 ], [ 6.6304275, 49.7556768 ], [ 6.6321514, 49.7553468 ], [ 6.6323273, 49.7553053 ], [ 6.6324538, 49.7552754 ], [ 6.6325532, 49.755252 ], [ 6.6323965, 49.7549482 ], [ 6.6323425, 49.7548552 ], [ 6.6325436, 49.7548074 ], [ 6.6326524, 49.7548524 ], [ 6.632716, 49.7549808 ], [ 6.6333873, 49.7548436 ], [ 6.6330344, 49.7540913 ], [ 6.6328421, 49.7536813 ], [ 6.6328068, 49.7536061 ], [ 6.6327664, 49.7534759 ] ] ] } },
{ "type": "Feature", "properties": { "element_type": "way", "osmid": 1323681259, "emergency": "yes", "wheelchair": "yes", "opening_hours": "24/7", "operator": "Klinikum Mutterhaus der Borromäerinnen gGmbH", "name": "Klinikum Mutterhaus der Borromäerinnen Nord", "website": null, "nodes": [ 4506594637, 4506594635, 2628661352, 2628661355, 2628661389, 9562910581, 4508112636, 2628661409, 9420245579, 9420245580, 4508112652, 4508112651, 9420245585, 9420245581, 4508112650, 4508325069, 4508112637, 4508112649, 4508112648, 4508112647, 2628661410, 2628661324, 2628661422, 2628661336, 4506594644, 4506594646, 4506594649, 4506525288, 4506594650, 4506594651, 4506594653, 1387797752, 2026499961, 2026499958, 2026499971, 4506594660, 1387797715, 1387797714, 4506594658, 4506594654, 4506594656, 9425081175, 13376184990, 4506594657, 4506594641, 4506594637 ], "amenity": "hospital", "healthcare": "hospital", "wikidata": null, "wikipedia": null, "email": null, "phone": null, "source": "http://www.mutterhaus.de/klinikum-mutterhaus-nord.html", "contact:phone": "+49 651 683 0", "healthcare:speciality": "internal;plastic_surgery", "old_name": "Evangelisches Elisabeth-Krankenhaus", "toilets:wheelchair": "yes", "ways": null, "alt_name": null, "short_name": null, "type": null }, "geometry": { "type": "Polygon", "coordinates": [ [ [ 6.6427009, 49.7621683 ], [ 6.6426861, 49.7620843 ], [ 6.6426859, 49.7618883 ], [ 6.6426998, 49.7618575 ], [ 6.6427521, 49.7618301 ], [ 6.6427692, 49.7618224 ], [ 6.6429878, 49.7617168 ], [ 6.6433259, 49.7615523 ], [ 6.6434289, 49.7616397 ], [ 6.6434605, 49.761626 ], [ 6.6434808, 49.7616435 ], [ 6.6435329, 49.7616189 ], [ 6.6435417, 49.7616261 ], [ 6.643586, 49.7616623 ], [ 6.643614, 49.7616852 ], [ 6.6436593, 49.7617244 ], [ 6.6436992, 49.7617614 ], [ 6.6437914, 49.7618429 ], [ 6.6438864, 49.7619249 ], [ 6.6439894, 49.7620108 ], [ 6.6440304, 49.7620477 ], [ 6.6440736, 49.7620844 ], [ 6.6441612, 49.7620425 ], [ 6.6443829, 49.76223 ], [ 6.6444888, 49.7623398 ], [ 6.6445094, 49.7623532 ], [ 6.6446385, 49.7624457 ], [ 6.644669, 49.7624688 ], [ 6.6446947, 49.7624901 ], [ 6.6446441, 49.7625296 ], [ 6.6445737, 49.7625725 ], [ 6.6443697, 49.7626991 ], [ 6.6442151, 49.7625817 ], [ 6.6441574, 49.7625386 ], [ 6.6438387, 49.7627166 ], [ 6.6438116, 49.7626899 ], [ 6.6437762, 49.7627096 ], [ 6.6435802, 49.762555 ], [ 6.6434395, 49.7626284 ], [ 6.6433805, 49.7625858 ], [ 6.6432443, 49.7626507 ], [ 6.6432162, 49.762651 ], [ 6.6432122, 49.7626395 ], [ 6.6432078, 49.7626266 ], [ 6.6428524, 49.762319 ], [ 6.6427009, 49.7621683 ] ] ] } },
{ "type": "Feature", "properties": { "element_type": "relation", "osmid": 6786740, "emergency": "yes", "wheelchair": null, "opening_hours": "24/7", "operator": null, "name": "Krankenhaus der Barmherzigen Brüder Trier", "website": "http://www.bk-trier.de", "nodes": [ [ [ 4550461569, 4550461571, 4550461572, 3307821755, 3803489975, 3307821756, 3307821757, 3307821758, 3307821759, 3307821760, 3307821761, 3307821762, 4550461570, 2601202853, 4550461576, 3307821769, 3307821770, 3307821771, 3307821772, 4550461575, 2601202857, 4550461574, 4275124295, 4275124294, 4275124293, 1624129157 ], [ 1624129157, 1624129118, 4550461573, 6465087697, 6465087696, 6465087695, 4506678425, 4506678426, 3803489984, 2279271418, 4506742881, 5126260885, 1624152880, 1624152881, 5126260884, 5126260883, 5126260882, 5126260881, 4550426992 ], [ 1624131738, 4550426990, 4550426993, 4550426991, 4550426989, 4550426992 ], [ 4550445533, 3459318279, 7078523468, 7078523465, 7078523464, 7078523463, 7078523462, 7078523466, 7078523467, 7078523469, 4550425469, 4550425470, 13076196534, 4791422020, 4550425472, 13076196533, 5296032754, 4550425473, 7078523461, 1624131738 ], [ 4550445533, 246824043, 4550461568, 4550461569 ] ] ], "amenity": "hospital", "healthcare": "hospital", "wikidata": "Q1786553", "wikipedia": null, "email": "info@bk-trier.de", "phone": "+49 651 208-0", "source": null, "contact:phone": null, "healthcare:speciality": null, "old_name": null, "toilets:wheelchair": null, "ways": [ 324026261, 459132477, 757975177, 459130643, 376977908 ], "alt_name": "Brüderkrankenhaus Trier", "short_name": "BKT", "type": "multipolygon" }, "geometry": { "type": "Polygon", "coordinates": [ [ [ 6.6372898, 49.7628714 ], [ 6.6374681, 49.7629962 ], [ 6.6376186, 49.7631026 ], [ 6.6376512, 49.7630911 ], [ 6.6376935, 49.7631036 ], [ 6.6377277, 49.7631283 ], [ 6.6377404, 49.7631474 ], [ 6.6377331, 49.7631621 ], [ 6.6377233, 49.7631767 ], [ 6.6382693, 49.7635629 ], [ 6.638726, 49.7638649 ], [ 6.6388529, 49.7639281 ], [ 6.6389401, 49.7639805 ], [ 6.6390123, 49.7640239 ], [ 6.6392115, 49.7641273 ], [ 6.639377, 49.7641962 ], [ 6.6394875, 49.7642422 ], [ 6.6395186, 49.7642538 ], [ 6.6399901, 49.7640188 ], [ 6.6408295, 49.76415 ], [ 6.6416469, 49.7642261 ], [ 6.6418025, 49.7642885 ], [ 6.6429995, 49.7643273 ], [ 6.6430686, 49.7642609 ], [ 6.6432248, 49.7641363 ], [ 6.6435096, 49.7639247 ], [ 6.6433966, 49.7638648 ], [ 6.6435658, 49.7637415 ], [ 6.6434168, 49.763614 ], [ 6.6434639, 49.763575 ], [ 6.6435215, 49.7635273 ], [ 6.6431924, 49.7632519 ], [ 6.6429329, 49.7630404 ], [ 6.6427203, 49.7628711 ], [ 6.6424919, 49.762659 ], [ 6.642205, 49.7624078 ], [ 6.6419625, 49.76219 ], [ 6.6414285, 49.7617821 ], [ 6.6419917, 49.7615092 ], [ 6.6413976, 49.7610007 ], [ 6.6411408, 49.7610536 ], [ 6.6409896, 49.7611009 ], [ 6.6405521, 49.7612376 ], [ 6.6404087, 49.7612959 ], [ 6.6402775, 49.7613256 ], [ 6.6401649, 49.7613482 ], [ 6.6401719, 49.7613766 ], [ 6.6401478, 49.7613779 ], [ 6.6401102, 49.7613723 ], [ 6.6400832, 49.7613505 ], [ 6.6399399, 49.7613745 ], [ 6.6397063, 49.7614465 ], [ 6.639501, 49.7615151 ], [ 6.6395, 49.7615421 ], [ 6.6394718, 49.7615532 ], [ 6.6394448, 49.7615597 ], [ 6.6393958, 49.761541 ], [ 6.639209, 49.7615938 ], [ 6.6390339, 49.761633 ], [ 6.6388634, 49.7616617 ], [ 6.6386112, 49.7616843 ], [ 6.6384128, 49.7617084 ], [ 6.638226, 49.7617341 ], [ 6.6381202, 49.7617585 ], [ 6.6380368, 49.7617778 ], [ 6.6379149, 49.7618436 ], [ 6.6377872, 49.7619287 ], [ 6.6377245, 49.7619908 ], [ 6.6382475, 49.7623114 ], [ 6.6382315, 49.7623206 ], [ 6.6372898, 49.7628714 ] ] ] } }
]
}
