{
"type": "FeatureCollection",
"name": "kindergartens_Trier, Germany",
"crs": { "type": "name", "properties": { "name": "urn:ogc:def:crs:OGC:1.3:CRS84" } },
"features": [
{ "type": "Feature", "properties": { "element_type": "way", "osmid": 490300620, "amenity": "kindergarten", "check_date": "2025-02-08", "name": "Kindertagesstätte Feyen", "website": null, "addr:city": "Trier", "addr:housenumber": "35", "addr:postcode": "54296", "addr:street": "Peter-Scholzen-Straße", "capacity": null, "contact:email": null, "contact:fax": null, "contact:phone": null, "contact:website": null, "max_age": null, "min_age": null, "opening_hours": null, "operator": "Stadt Trier", "operator:type": null, "operator:wikidata": null, "email": null, "phone": null, "description": null, "denomination": null, "note": null, "religion": null, "nodes": [ 4824760130, 4824760125, 4824760124, 4824760123, 4824760122, 4824760130 ], "building": "kindergarten", "building:levels": null, "roof:levels": null, "roof:shape": null, "addr:country": "DE", "nursery": null, "preschool": null, "education": null, "wheelchair": null, "loc_name": null, "start_date": null, "fixme": null, "source": null, "lunch": null, "fax": null, "isced:level": null, "official_name": null, "toilets:wheelchair": null, "wikidata": null, "ways": null, "type": null }, "geometry": { "type": "Polygon", "coordinates": [ [ [ 6.6267465, 49.7191856 ], [ 6.626762, 49.7190885 ], [ 6.6265745, 49.719076 ], [ 6.626559, 49.7191731 ], [ 6.6266123, 49.7191766 ], [ 6.6267465, 49.7191856 ] ] ] } },
{ "type": "Feature", "properties": { "element_type": "way", "osmid": 45676070, "amenity": "kindergarten", "check_date": null, "name": "Kath. Kindergarten St. Martinus", "website": null, "addr:city": "Trier", "addr:housenumber": "3b", "addr:postcode": "54294", "addr:street": "Auf Blehn", "capacity": null, "contact:email": null, "contact:fax": null, "contact:phone": null, "contact:website": null, "max_age": null, "min_age": null, "opening_hours": null, "operator": null, "operator:type": null, "operator:wikidata": null, "email": null, "phone": null, "description": null, "denomination": null, "note": null, "religion": null, "nodes": [ 582087211, 582087213, 1643291888, 1643291900, 1643291864, 1643291861, 582087215, 1643291848, 1643291851, 1643291884, 1643291874, 582087217, 1643291940, 1643291930, 1643291979, 1643291972, 582087211 ], "building": "yes", "building:levels": null, "roof:levels": null, "roof:shape": null, "addr:country": "DE", "nursery": null, "preschool": null, "education": null, "wheelchair": null, "loc_name": null, "start_date": null, "fixme": null, "source": null, "lunch": null, "fax": null, "isced:level": null, "official_name": null, "toilets:wheelchair": null, "wikidata": null, "ways": null, "type": null }, "geometry": { "type": "Polygon", "coordinates": [ [ [ 6.579754, 49.7225744 ], [ 6.5796158, 49.7224459 ], [ 6.5795888, 49.722458 ], [ 6.579524, 49.7223977 ], [ 6.5795445, 49.7223884 ], [ 6.5794759, 49.7223245 ], [ 6.5793897, 49.7223634 ], [ 6.5794059, 49.7223784 ], [ 6.5792602, 49.7224442 ], [ 6.5792387, 49.7224242 ], [ 6.5791333, 49.7224718 ], [ 6.579243, 49.7225738 ], [ 6.5792684, 49.7225624 ], [ 6.5793589, 49.7226467 ], [ 6.5793788, 49.7226377 ], [ 6.5794557, 49.7227092 ], [ 6.579754, 49.7225744 ] ] ] } },
{ "type": "Feature", "properties": { "element_type": "way", "osmid": 1193958126, "amenity": "kindergarten", "check_date": "2025-10-16", "name": "Kindertagesstätte Estricher Weg", "website": null, "addr:city": "Trier", "addr:housenumber": "13", "addr:postcode": "54294", "addr:street": "Estricher Weg", "capacity": null, "contact:email": null, "contact:fax": null, "contact:phone": null, "contact:website": null, "max_age": null, "min_age": null, "opening_hours": null, "operator": "Stadt Trier", "operator:type": "public", "operator:wikidata": null, "email": null, "phone": null, "description": null, "denomination": null, "note": null, "religion": null, "nodes": [ 7706738270, 11083301647, 11083301648, 11083301649, 11083301650, 11083301651, 1729096773, 1729096782, 7706738269, 7706738270 ], "building": null, "building:levels": null, "roof:levels": null, "roof:shape": null, "addr:country": "DE", "nursery": null, "preschool": null, "education": null, "wheelchair": null, "loc_name": null, "start_date": null, "fixme": null, "source": null, "lunch": null, "fax": null, "isced:level": null, "official_name": null, "toilets:wheelchair": null, "wikidata": null, "ways": null, "type": null }, "geometry": { "type": "Polygon", "coordinates": [ [ [ 6.6284612, 49.7257436 ], [ 6.6284727, 49.7253394 ], [ 6.628196, 49.7253314 ], [ 6.6280873, 49.7253355 ], [ 6.62809, 49.7252973 ], [ 6.6280068, 49.7252028 ], [ 6.6278486, 49.7251971 ], [ 6.6276214, 49.7256598 ], [ 6.6276862, 49.7256612 ], [ 6.6284612, 49.7257436 ] ] ] } },
{ "type": "Feature", "properties": { "element_type": "way", "osmid": 675156724, "amenity": "kindergarten", "check_date": null, "name": "Krabbelstube Mäusenest", "website": "https://www.maeusenest-trier.de/", "addr:city": null, "addr:housenumber": null, "addr:postcode": null, "addr:street": null, "capacity": "30", "contact:email": null, "contact:fax": null, "contact:phone": null, "contact:website": null, "max_age": "3", "min_age": "0.5", "opening_hours": "Mo-Fr 07:00-17:00", "operator": "Krabbelstube Mäusenest e.V.", "operator:type": null, "operator:wikidata": null, "email": null, "phone": null, "description": null, "denomination": null, "note": null, "religion": null, "nodes": [ 602024450, 602024448, 602007368, 6322881610, 602024450 ], "building": null, "building:levels": null, "roof:levels": null, "roof:shape": null, "addr:country": null, "nursery": null, "preschool": null, "education": null, "wheelchair": null, "loc_name": null, "start_date": null, "fixme": null, "source": null, "lunch": "yes", "fax": null, "isced:level": null, "official_name": null, "toilets:wheelchair": null, "wikidata": null, "ways": null, "type": null }, "geometry": { "type": "Polygon", "coordinates": [ [ [ 6.6155894, 49.7274088 ], [ 6.616218, 49.7278741 ], [ 6.6166008, 49.7276601 ], [ 6.6160353, 49.7271921 ], [ 6.6155894, 49.7274088 ] ] ] } },
{ "type": "Feature", "properties": { "element_type": "node", "osmid": 1487358164, "amenity": "kindergarten", "check_date": "2025-10-15", "name": "Kindertagesstätte St. Valerius", "website": null, "addr:city": "Trier", "addr:housenumber": "17", "addr:postcode": "54294", "addr:street": "Clara-Viebig-Straße", "capacity": null, "contact:email": null, "contact:fax": null, "contact:phone": null, "contact:website": null, "max_age": null, "min_age": null, "opening_hours": null, "operator": null, "operator:type": null, "operator:wikidata": null, "email": null, "phone": null, "description": null, "denomination": null, "note": null, "religion": null, "nodes": null, "building": null, "building:levels": null, "roof:levels": null, "roof:shape": null, "addr:country": null, "nursery": null, "preschool": null, "education": null, "wheelchair": null, "loc_name": null, "start_date": null, "fixme": null, "source": null, "lunch": null, "fax": null, "isced:level": null, "official_name": null, "toilets:wheelchair": null, "wikidata": null, "ways": null, "type": null }, "geometry": { "type": "Point", "coordinates": [ 6.6315602, 49.7279655 ] } },
{ "type": "Feature", "properties": { "element_type": "way", "osmid": 1421374409, "amenity": "kindergarten", "check_date": null, "name": "Kita Spatzennest", "website": "https://www.spatzennest-trier.de/kita/", "addr:city": "Trier", "addr:housenumber": "32", "addr:postcode": "54294", "addr:street": "Saarburger Straße", "capacity": null, "contact:email": null, "contact:fax": null, "contact:phone": null, "contact:website": null, "max_age": null, "min_age": null, "opening_hours": null, "operator": "Kita Spatzennest e. V.", "operator:type": "private_non_profit", "operator:wikidata": null, "email": null, "phone": null, "description": null, "denomination": null, "note": null, "religion": null, "nodes": [ 4644221471, 4644221473, 1728145754, 4644221458, 4644221457, 1728145881, 1728145885, 1728145896, 13061986091, 4644221464, 4644221465, 4644221466, 4644221467, 4644221468, 4644221469, 4644221470, 13061986093, 4644221471 ], "building": null, "building:levels": null, "roof:levels": null, "roof:shape": null, "addr:country": null, "nursery": null, "preschool": null, "education": null, "wheelchair": null, "loc_name": null, "start_date": null, "fixme": null, "source": null, "lunch": null, "fax": null, "isced:level": null, "official_name": null, "toilets:wheelchair": null, "wikidata": "Q135686710", "ways": null, "type": null }, "geometry": { "type": "Polygon", "coordinates": [ [ [ 6.6293577, 49.7341638 ], [ 6.6293573, 49.7342714 ], [ 6.6293564, 49.7343008 ], [ 6.629353, 49.7344087 ], [ 6.6293506, 49.7344886 ], [ 6.6293374, 49.7344885 ], [ 6.629336, 49.7345352 ], [ 6.6293341, 49.7345811 ], [ 6.6295193, 49.7345451 ], [ 6.6296216, 49.7345213 ], [ 6.6296434, 49.7345123 ], [ 6.6296533, 49.7344995 ], [ 6.6296568, 49.7344832 ], [ 6.6296587, 49.7343082 ], [ 6.6296581, 49.7342719 ], [ 6.6296591, 49.7342205 ], [ 6.6296601, 49.734169 ], [ 6.6293577, 49.7341638 ] ] ] } },
{ "type": "Feature", "properties": { "element_type": "node", "osmid": 8391163376, "amenity": "kindergarten", "check_date": null, "name": "Kinderhaus Am Fliederbusch", "website": null, "addr:city": null, "addr:housenumber": null, "addr:postcode": null, "addr:street": null, "capacity": null, "contact:email": null, "contact:fax": null, "contact:phone": null, "contact:website": null, "max_age": null, "min_age": null, "opening_hours": null, "operator": "Trierer Arbeitskreis für Montessori-Pädagogik", "operator:type": null, "operator:wikidata": null, "email": null, "phone": null, "description": null, "denomination": null, "note": null, "religion": null, "nodes": null, "building": null, "building:levels": null, "roof:levels": null, "roof:shape": null, "addr:country": null, "nursery": null, "preschool": null, "education": null, "wheelchair": null, "loc_name": null, "start_date": null, "fixme": null, "source": null, "lunch": null, "fax": null, "isced:level": null, "official_name": null, "toilets:wheelchair": null, "wikidata": null, "ways": null, "type": null }, "geometry": { "type": "Point", "coordinates": [ 6.6087011, 49.7391579 ] } },
{ "type": "Feature", "properties": { "element_type": "way", "osmid": 913644779, "amenity": "kindergarten", "check_date": "2023-07-23", "name": "Katholische KiTa St. Helena", "website": null, "addr:city": "Trier", "addr:housenumber": "157", "addr:postcode": "54294", "addr:street": "Eurener Straße", "capacity": null, "contact:email": null, "contact:fax": null, "contact:phone": null, "contact:website": null, "max_age": null, "min_age": null, "opening_hours": null, "operator": "Katholische KiTa gGmbH Trier", "operator:type": "religious", "operator:wikidata": null, "email": null, "phone": null, "description": null, "denomination": "roman_catholic", "note": null, "religion": "christian", "nodes": [ 8487110381, 8487110395, 8487110382, 8487110388, 8487110381 ], "building": null, "building:levels": null, "roof:levels": null, "roof:shape": null, "addr:country": null, "nursery": null, "preschool": null, "education": null, "wheelchair": null, "loc_name": null, "start_date": null, "fixme": null, "source": null, "lunch": null, "fax": null, "isced:level": "0", "official_name": null, "toilets:wheelchair": null, "wikidata": null, "ways": null, "type": null }, "geometry": { "type": "Polygon", "coordinates": [ [ [ 6.6116518, 49.7420519 ], [ 6.6113035, 49.7417128 ], [ 6.6108506, 49.7419071 ], [ 6.6111989, 49.7422461 ], [ 6.6116518, 49.7420519 ] ] ] } },
{ "type": "Feature", "properties": { "element_type": "way", "osmid": 1158676710, "amenity": "kindergarten", "check_date": null, "name": "Katholische KiTa Herz Jesu", "website": "https://www.kita-ggmbh-trier.de/unsere-kitas/t-u-v/trier-herz-jesu/", "addr:city": "Trier", "addr:housenumber": "53 b", "addr:postcode": "54290", "addr:street": "Saarbrücker Straße", "capacity": null, "contact:email": null, "contact:fax": null, "contact:phone": null, "contact:website": null, "max_age": null, "min_age": null, "opening_hours": null, "operator": "Katholische KiTa gGmbH Trier", "operator:type": "religious", "operator:wikidata": "Q115861118", "email": null, "phone": null, "description": null, "denomination": "roman_catholic", "note": null, "religion": "christian", "nodes": [ 1725104441, 1725104463, 1725104466, 1725104472, 11935533726, 1725104496, 1725104509, 1725104503, 1725104515, 10775289557, 1725104539, 1725104493, 1725104499, 1230590175, 1725104492, 1725104477, 1725104441 ], "building": null, "building:levels": null, "roof:levels": null, "roof:shape": null, "addr:country": null, "nursery": null, "preschool": null, "education": null, "wheelchair": null, "loc_name": null, "start_date": null, "fixme": null, "source": null, "lunch": null, "fax": null, "isced:level": null, "official_name": null, "toilets:wheelchair": null, "wikidata": null, "ways": null, "type": null }, "geometry": { "type": "Polygon", "coordinates": [ [ [ 6.6296036, 49.7462604 ], [ 6.6296747, 49.7463334 ], [ 6.6297027, 49.7463548 ], [ 6.6297089, 49.746374 ], [ 6.6297618, 49.7463633 ], [ 6.6297978, 49.7464529 ], [ 6.6298746, 49.7464354 ], [ 6.6300497, 49.7463956 ], [ 6.6300995, 49.7463813 ], [ 6.6301108, 49.7463798 ], [ 6.630164, 49.7463683 ], [ 6.6301348, 49.746326 ], [ 6.6300722, 49.7462355 ], [ 6.6300448, 49.7462029 ], [ 6.6300362, 49.7461947 ], [ 6.6299661, 49.7461177 ], [ 6.6296036, 49.7462604 ] ] ] } },
{ "type": "Feature", "properties": { "element_type": "way", "osmid": 571783479, "amenity": "kindergarten", "check_date": null, "name": "Kita St. Simeon", "website": null, "addr:city": "Trier", "addr:housenumber": "68a", "addr:postcode": "54294", "addr:street": "Jahnstraße", "capacity": null, "contact:email": null, "contact:fax": null, "contact:phone": null, "contact:website": null, "max_age": null, "min_age": null, "opening_hours": null, "operator": null, "operator:type": null, "operator:wikidata": null, "email": null, "phone": null, "description": null, "denomination": null, "note": null, "religion": null, "nodes": [ 5494501620, 5494501619, 5494502936, 5494501617, 1602546218, 1602546228, 1602546226, 1602546254, 8511627439, 11521841928, 11521841929, 5494501620 ], "building": null, "building:levels": null, "roof:levels": null, "roof:shape": null, "addr:country": "DE", "nursery": null, "preschool": null, "education": null, "wheelchair": null, "loc_name": null, "start_date": null, "fixme": null, "source": null, "lunch": null, "fax": null, "isced:level": null, "official_name": null, "toilets:wheelchair": null, "wikidata": null, "ways": null, "type": null }, "geometry": { "type": "Polygon", "coordinates": [ [ [ 6.6125716, 49.7482276 ], [ 6.6125355, 49.7481734 ], [ 6.6124744, 49.7480817 ], [ 6.6125795, 49.7480524 ], [ 6.6125159, 49.7479568 ], [ 6.612501, 49.7479609 ], [ 6.6124578, 49.7478959 ], [ 6.6122421, 49.747553 ], [ 6.6118186, 49.7476685 ], [ 6.6123382, 49.7484141 ], [ 6.6126365, 49.748325 ], [ 6.6125716, 49.7482276 ] ] ] } },
{ "type": "Feature", "properties": { "element_type": "relation", "osmid": 7516421, "amenity": "kindergarten", "check_date": null, "name": "Integrative Kindertagesstätte Haus Tobias", "website": null, "addr:city": null, "addr:housenumber": null, "addr:postcode": null, "addr:street": null, "capacity": null, "contact:email": "lehnen-schmitt.sonja@caritas-region-trier.de", "contact:fax": null, "contact:phone": "+49 651 99359070", "contact:website": "http://www.rcvtrier.caritas.de/73504.html", "max_age": null, "min_age": null, "opening_hours": null, "operator": "Caritasverband Trier", "operator:type": null, "operator:wikidata": null, "email": null, "phone": null, "description": null, "denomination": null, "note": null, "religion": null, "nodes": [ [ [ 4914572392, 5063495089, 5063495088, 5063495083, 5063495079, 5063495080, 6672556637, 6672556636, 5063495084, 6672556634, 6672556635, 5063495081, 5063495082 ], [ 4914572392, 4914572386, 4914572390, 4914572389, 5063495087, 4914572387, 3911731637, 5063495082 ] ] ], "building": null, "building:levels": null, "roof:levels": null, "roof:shape": null, "addr:country": null, "nursery": null, "preschool": null, "education": null, "wheelchair": "yes", "loc_name": null, "start_date": null, "fixme": null, "source": null, "lunch": null, "fax": null, "isced:level": null, "official_name": null, "toilets:wheelchair": null, "wikidata": null, "ways": [ 519235813, 500392410 ], "type": "multipolygon" }, "geometry": { "type": "Polygon", "coordinates": [ [ [ 6.6339377, 49.7266371 ], [ 6.6339546, 49.7266547 ], [ 6.6339921, 49.7266396 ], [ 6.6339825, 49.7266296 ], [ 6.6339743, 49.726621 ], [ 6.634217, 49.7265237 ], [ 6.6341817, 49.7264869 ], [ 6.6343082, 49.7264449 ], [ 6.6343662, 49.7265122 ], [ 6.634495, 49.7264741 ], [ 6.6344624, 49.7264474 ], [ 6.6345298, 49.7264264 ], [ 6.6344976, 49.7263891 ], [ 6.6345979, 49.7263495 ], [ 6.6342291, 49.7261561 ], [ 6.6340178, 49.7263156 ], [ 6.6337001, 49.7265398 ], [ 6.6338388, 49.7266771 ], [ 6.6338736, 49.7266629 ], [ 6.6339377, 49.7266371 ] ] ] } },
{ "type": "Feature", "properties": { "element_type": "way", "osmid": 160269593, "amenity": "kindergarten", "check_date": null, "name": "Waldorfkindertagesstätte Trier", "website": "https://www.waldorfkindergarten-trier.de/", "addr:city": "Trier", "addr:housenumber": "9", "addr:postcode": "54296", "addr:street": "Montessoriweg", "capacity": null, "contact:email": null, "contact:fax": null, "contact:phone": null, "contact:website": null, "max_age": null, "min_age": null, "opening_hours": null, "operator": null, "operator:type": null, "operator:wikidata": null, "email": null, "phone": null, "description": null, "denomination": null, "note": null, "religion": null, "nodes": [ 1723237411, 1723237375, 12439905671, 1723237352, 12439905672, 1723237312, 13298376060, 12439905673, 1723237281, 1723237265, 1723237250, 1723237248, 13298376058, 1723237234, 1723237223, 12439905674, 1723237215, 1723237202, 1723237205, 1723237211, 1723237212, 1723237217, 1723237221, 1723237227, 1723237244, 1723237270, 1723237325, 1723237360, 1723237385, 12439905675, 1723237409, 1723237416, 1723237411 ], "building": "kindergarten", "building:levels": null, "roof:levels": null, "roof:shape": null, "addr:country": null, "nursery": null, "preschool": null, "education": "kindergarten", "wheelchair": null, "loc_name": null, "start_date": null, "fixme": null, "source": null, "lunch": null, "fax": null, "isced:level": null, "official_name": null, "toilets:wheelchair": null, "wikidata": null, "ways": null, "type": null }, "geometry": { "type": "Polygon", "coordinates": [ [ [ 6.6466741, 49.7291626 ], [ 6.6466841, 49.7291406 ], [ 6.6466967, 49.7291033 ], [ 6.6466879, 49.729097 ], [ 6.6467014, 49.7290889 ], [ 6.6467764, 49.7290475 ], [ 6.6467905, 49.7290397 ], [ 6.646797, 49.7290445 ], [ 6.6468447, 49.7290391 ], [ 6.6468974, 49.7290307 ], [ 6.6469321, 49.7290225 ], [ 6.6469295, 49.7289819 ], [ 6.6469291, 49.7289748 ], [ 6.646925, 49.7289255 ], [ 6.646877, 49.7288982 ], [ 6.6468161, 49.7288723 ], [ 6.6467339, 49.7288442 ], [ 6.6466821, 49.7288433 ], [ 6.6466347, 49.7288464 ], [ 6.6465919, 49.7288525 ], [ 6.646549, 49.728878 ], [ 6.6465121, 49.7289073 ], [ 6.6464761, 49.7289457 ], [ 6.646435, 49.7290009 ], [ 6.6464228, 49.7290349 ], [ 6.6464053, 49.7290738 ], [ 6.6463998, 49.729109 ], [ 6.6464093, 49.7291494 ], [ 6.6464264, 49.7291789 ], [ 6.6464514, 49.7291985 ], [ 6.6465586, 49.7292001 ], [ 6.6466549, 49.7291956 ], [ 6.6466741, 49.7291626 ] ] ] } },
{ "type": "Feature", "properties": { "element_type": "way", "osmid": 1251981247, "amenity": "kindergarten", "check_date": "2024-11-03", "name": "Katholische Kindertageseinrichtung St. Michael", "website": "http://www.kiga-st-michael-mariahof.de", "addr:city": "Trier", "addr:housenumber": "33", "addr:postcode": "54296", "addr:street": "Am Mariahof", "capacity": null, "contact:email": "st-michael-trier@kita-ggmbh-trier.de", "contact:fax": null, "contact:phone": "+49 651 32410", "contact:website": null, "max_age": null, "min_age": null, "opening_hours": null, "operator": "Kita gGmbH Trier", "operator:type": "religious", "operator:wikidata": null, "email": null, "phone": null, "description": null, "denomination": "roman_catholic", "note": null, "religion": "christian", "nodes": [ 11637775056, 11637775057, 11637775058, 11637775059, 3511157826, 3511159523, 3511157891, 3511159550, 3511157846, 3511157831, 3511157845, 3511157887, 3511157841, 3511157834, 3511159534, 3511157837, 11637775060, 11638465328, 11637775061, 11637775062, 11637775056 ], "building": null, "building:levels": null, "roof:levels": null, "roof:shape": null, "addr:country": "DE", "nursery": null, "preschool": null, "education": null, "wheelchair": "yes", "loc_name": null, "start_date": null, "fixme": null, "source": null, "lunch": null, "fax": null, "isced:level": null, "official_name": null, "toilets:wheelchair": null, "wikidata": null, "ways": null, "type": null }, "geometry": { "type": "Polygon", "coordinates": [ [ [ 6.6579022, 49.7307147 ], [ 6.657795, 49.7310989 ], [ 6.6577986, 49.7314159 ], [ 6.6577996, 49.7315034 ], [ 6.6580407, 49.7314807 ], [ 6.6581322, 49.7314772 ], [ 6.6581298, 49.7314511 ], [ 6.6581498, 49.7314503 ], [ 6.6581504, 49.7314573 ], [ 6.6582174, 49.7314548 ], [ 6.6582132, 49.7314084 ], [ 6.6582053, 49.7314087 ], [ 6.6582043, 49.7313978 ], [ 6.6582992, 49.7313943 ], [ 6.6582956, 49.7313544 ], [ 6.6583333, 49.731353 ], [ 6.6583649, 49.7313469 ], [ 6.6583313, 49.7309956 ], [ 6.6582799, 49.7309458 ], [ 6.6583374, 49.7308926 ], [ 6.6579022, 49.7307147 ] ] ] } },
{ "type": "Feature", "properties": { "element_type": "node", "osmid": 5759060722, "amenity": "kindergarten", "check_date": "2025-05-29", "name": "Hort Mariahof", "website": null, "addr:city": null, "addr:housenumber": null, "addr:postcode": null, "addr:street": null, "capacity": null, "contact:email": null, "contact:fax": null, "contact:phone": null, "contact:website": null, "max_age": null, "min_age": null, "opening_hours": null, "operator": "Palais e.V.", "operator:type": null, "operator:wikidata": null, "email": null, "phone": null, "description": null, "denomination": null, "note": null, "religion": null, "nodes": null, "building": null, "building:levels": null, "roof:levels": null, "roof:shape": null, "addr:country": null, "nursery": null, "preschool": null, "education": null, "wheelchair": null, "loc_name": null, "start_date": null, "fixme": null, "source": null, "lunch": null, "fax": null, "isced:level": null, "official_name": null, "toilets:wheelchair": null, "wikidata": null, "ways": null, "type": null }, "geometry": { "type": "Point", "coordinates": [ 6.6593536, 49.7312123 ] } },
{ "type": "Feature", "properties": { "element_type": "way", "osmid": 1444515152, "amenity": "kindergarten", "check_date": "2025-10-24", "name": "Kindertagesstätte St. Valerius, Standort Gratianstraße", "website": null, "addr:city": "Trier", "addr:housenumber": "18", "addr:postcode": "54294", "addr:street": "Gratianstraße", "capacity": null, "contact:email": null, "contact:fax": null, "contact:phone": null, "contact:website": null, "max_age": null, "min_age": null, "opening_hours": null, "operator": "Sozialdienst katholischer Frauen e. V. Trier", "operator:type": "religious", "operator:wikidata": null, "email": null, "phone": null, "description": null, "denomination": null, "note": null, "religion": null, "nodes": [ 13254232554, 13254232568, 13254232555, 13254232556, 13254232557, 13254232558, 13254232559, 13254232560, 13254232561, 13254232562, 13254232563, 13254232564, 13254232565, 13254232566, 13254232554 ], "building": null, "building:levels": null, "roof:levels": null, "roof:shape": null, "addr:country": null, "nursery": null, "preschool": null, "education": null, "wheelchair": null, "loc_name": null, "start_date": null, "fixme": null, "source": null, "lunch": null, "fax": null, "isced:level": null, "official_name": null, "toilets:wheelchair": null, "wikidata": null, "ways": null, "type": null }, "geometry": { "type": "Polygon", "coordinates": [ [ [ 6.6333293, 49.7314939 ], [ 6.6332241, 49.7313921 ], [ 6.6331798, 49.7313824 ], [ 6.633147, 49.7313841 ], [ 6.6330768, 49.7314112 ], [ 6.632859, 49.7312008 ], [ 6.6327887, 49.7311798 ], [ 6.6327296, 49.7311798 ], [ 6.6324668, 49.7313181 ], [ 6.6324364, 49.7313594 ], [ 6.632441, 49.7314177 ], [ 6.6324579, 49.7314473 ], [ 6.632855, 49.731805 ], [ 6.6334148, 49.7315767 ], [ 6.6333293, 49.7314939 ] ] ] } },
{ "type": "Feature", "properties": { "element_type": "way", "osmid": 1167683099, "amenity": "kindergarten", "check_date": null, "name": "Katholische KiTa St. Matthias, Standort Schammat", "website": null, "addr:city": "Trier", "addr:housenumber": "29", "addr:postcode": "54294", "addr:street": "Im Schammat", "capacity": null, "contact:email": null, "contact:fax": null, "contact:phone": null, "contact:website": null, "max_age": null, "min_age": null, "opening_hours": null, "operator": "Gemeinnützige Trägergesellschaft Katholischer Kindertageseinrichtungen im Raum Trier mbH", "operator:type": "religious", "operator:wikidata": null, "email": null, "phone": null, "description": null, "denomination": "roman_catholic", "note": null, "religion": "christian", "nodes": [ 10859792662, 10859792663, 1589680047, 1589680044, 10859792664, 10859792665, 10859792662 ], "building": null, "building:levels": null, "roof:levels": null, "roof:shape": null, "addr:country": "DE", "nursery": null, "preschool": null, "education": null, "wheelchair": "yes", "loc_name": null, "start_date": null, "fixme": null, "source": null, "lunch": null, "fax": null, "isced:level": null, "official_name": null, "toilets:wheelchair": null, "wikidata": null, "ways": null, "type": null }, "geometry": { "type": "Polygon", "coordinates": [ [ [ 6.631381, 49.7358452 ], [ 6.6323523, 49.7356372 ], [ 6.632349, 49.7352275 ], [ 6.6314534, 49.7355668 ], [ 6.6314461, 49.7356509 ], [ 6.6312508, 49.7357178 ], [ 6.631381, 49.7358452 ] ] ] } },
{ "type": "Feature", "properties": { "element_type": "way", "osmid": 1192729568, "amenity": "kindergarten", "check_date": "2025-09-13", "name": "Katholische KiTa St. Maternus", "website": null, "addr:city": "Trier", "addr:housenumber": "19", "addr:postcode": "54295", "addr:street": "Karlsweg", "capacity": null, "contact:email": null, "contact:fax": null, "contact:phone": null, "contact:website": null, "max_age": null, "min_age": null, "opening_hours": null, "operator": "Gemeinnützige Trägergesellschaft Katholischer Kindertageseinrichtungen im Raum Trier mbH", "operator:type": "religious", "operator:wikidata": null, "email": null, "phone": null, "description": null, "denomination": "roman_catholic", "note": null, "religion": null, "nodes": [ 10856139339, 11071756367, 11071756368, 11071756369, 11071756370, 11071756371, 11071756372, 11071756373, 11071756374, 10856139337, 10856139338, 10856139339 ], "building": null, "building:levels": null, "roof:levels": null, "roof:shape": null, "addr:country": "DE", "nursery": null, "preschool": null, "education": null, "wheelchair": null, "loc_name": null, "start_date": null, "fixme": null, "source": null, "lunch": null, "fax": null, "isced:level": null, "official_name": null, "toilets:wheelchair": null, "wikidata": null, "ways": null, "type": null }, "geometry": { "type": "Polygon", "coordinates": [ [ [ 6.6511453, 49.7365422 ], [ 6.6512725, 49.7365909 ], [ 6.6513468, 49.7363534 ], [ 6.651364, 49.7360318 ], [ 6.6512886, 49.7359774 ], [ 6.6508728, 49.7359858 ], [ 6.6508383, 49.7360109 ], [ 6.6507586, 49.7361543 ], [ 6.6507995, 49.7362086 ], [ 6.6510301, 49.7363548 ], [ 6.6510398, 49.7365436 ], [ 6.6511453, 49.7365422 ] ] ] } },
{ "type": "Feature", "properties": { "element_type": "way", "osmid": 1192729561, "amenity": "kindergarten", "check_date": "2026-03-01", "name": "Katholische KiTa Heiligkreuz", "website": "https://www.heiligkreuz-trier.de/kindergarten.html/", "addr:city": "Trier", "addr:housenumber": "3a", "addr:postcode": "54295", "addr:street": "Arnulfstraße", "capacity": null, "contact:email": null, "contact:fax": null, "contact:phone": null, "contact:website": null, "max_age": null, "min_age": null, "opening_hours": null, "operator": "Katholische KiTa gGmbH Trier", "operator:type": "religious", "operator:wikidata": "Q115861118", "email": null, "phone": "+49 651 35911", "description": null, "denomination": "roman_catholic", "note": null, "religion": null, "nodes": [ 1721674901, 1721674923, 11071756320, 11071756321, 5045158010, 11071756322, 11071756346, 11071756323, 1721674845, 1721674853, 1721674885, 1721674901 ], "building": null, "building:levels": null, "roof:levels": null, "roof:shape": null, "addr:country": "DE", "nursery": null, "preschool": null, "education": null, "wheelchair": null, "loc_name": null, "start_date": null, "fixme": null, "source": null, "lunch": null, "fax": null, "isced:level": null, "official_name": null, "toilets:wheelchair": null, "wikidata": null, "ways": null, "type": null }, "geometry": { "type": "Polygon", "coordinates": [ [ [ 6.640784, 49.7410357 ], [ 6.6408101, 49.7411043 ], [ 6.6414282, 49.7410155 ], [ 6.6412189, 49.7407242 ], [ 6.6412013, 49.7406991 ], [ 6.6407662, 49.7407828 ], [ 6.6406938, 49.7407967 ], [ 6.6407115, 49.7408409 ], [ 6.6407156, 49.7408505 ], [ 6.6407607, 49.7409592 ], [ 6.6407718, 49.7409851 ], [ 6.640784, 49.7410357 ] ] ] } },
{ "type": "Feature", "properties": { "element_type": "way", "osmid": 1141624360, "amenity": "kindergarten", "check_date": null, "name": "Kindertagesstätte St. Matthias", "website": "http://www.kita-stmatthias-toepferstrasse.de", "addr:city": "Trier", "addr:housenumber": "31", "addr:postcode": "54290", "addr:street": "Töpferstraße", "capacity": null, "contact:email": "st-matthias-toepferstrasse@kita-ggmbh-trier.de", "contact:fax": null, "contact:phone": "+49 651 35800", "contact:website": null, "max_age": null, "min_age": null, "opening_hours": null, "operator": null, "operator:type": null, "operator:wikidata": null, "email": null, "phone": null, "description": null, "denomination": null, "note": null, "religion": null, "nodes": [ 10634032021, 10634032020, 4849874463, 4846474907, 10634032021 ], "building": null, "building:levels": null, "roof:levels": null, "roof:shape": null, "addr:country": "DE", "nursery": null, "preschool": null, "education": null, "wheelchair": null, "loc_name": null, "start_date": null, "fixme": null, "source": "Bing", "lunch": null, "fax": null, "isced:level": null, "official_name": null, "toilets:wheelchair": null, "wikidata": null, "ways": null, "type": null }, "geometry": { "type": "Polygon", "coordinates": [ [ [ 6.6323626, 49.7420903 ], [ 6.6322494, 49.7417033 ], [ 6.6318091, 49.7417127 ], [ 6.6319415, 49.7421796 ], [ 6.6323626, 49.7420903 ] ] ] } },
{ "type": "Feature", "properties": { "element_type": "way", "osmid": 1178537576, "amenity": "kindergarten", "check_date": null, "name": "Integrative Kindertagesstätte Lebenshilfe Trier", "website": null, "addr:city": "Trier", "addr:housenumber": "27", "addr:postcode": "54295", "addr:street": "Im Hopfengarten", "capacity": null, "contact:email": null, "contact:fax": null, "contact:phone": null, "contact:website": null, "max_age": null, "min_age": null, "opening_hours": null, "operator": "Lebenshilfe Trier", "operator:type": "private", "operator:wikidata": null, "email": null, "phone": null, "description": null, "denomination": null, "note": null, "religion": null, "nodes": [ 6315724795, 6315724796, 10948636635, 10948636636, 10948636637, 10948636638, 1722766045, 1722766072, 1722766087, 6315724795 ], "building": null, "building:levels": null, "roof:levels": null, "roof:shape": null, "addr:country": "DE", "nursery": null, "preschool": null, "education": null, "wheelchair": "yes", "loc_name": null, "start_date": null, "fixme": null, "source": null, "lunch": null, "fax": null, "isced:level": null, "official_name": null, "toilets:wheelchair": "yes", "wikidata": null, "ways": null, "type": null }, "geometry": { "type": "Polygon", "coordinates": [ [ [ 6.6386689, 49.7446203 ], [ 6.6390712, 49.7444932 ], [ 6.6394953, 49.7444007 ], [ 6.6392107, 49.7439157 ], [ 6.6385969, 49.7440411 ], [ 6.6385178, 49.7440607 ], [ 6.638189, 49.7441431 ], [ 6.6383243, 49.7443734 ], [ 6.6386395, 49.7446246 ], [ 6.6386689, 49.7446203 ] ] ] } },
{ "type": "Feature", "properties": { "element_type": "way", "osmid": 25522912, "amenity": "kindergarten", "check_date": "2025-09-27", "name": "Katholische KiTa St. Georg", "website": null, "addr:city": "Trier", "addr:housenumber": "14", "addr:postcode": "54296", "addr:street": "Engelborn", "capacity": null, "contact:email": null, "contact:fax": null, "contact:phone": null, "contact:website": null, "max_age": null, "min_age": null, "opening_hours": null, "operator": "Gemeinnützige Trägergesellschaft Katholischer Kindertageseinrichtungen im Raum Trier mbH", "operator:type": "religious", "operator:wikidata": null, "email": null, "phone": null, "description": null, "denomination": null, "note": null, "religion": null, "nodes": [ 1016760658, 1016760926, 1016760733, 278136630, 278136627, 262552355, 278136624, 278136625, 1016760705, 1016760658 ], "building": null, "building:levels": null, "roof:levels": null, "roof:shape": null, "addr:country": null, "nursery": null, "preschool": null, "education": null, "wheelchair": null, "loc_name": null, "start_date": null, "fixme": null, "source": null, "lunch": null, "fax": null, "isced:level": null, "official_name": null, "toilets:wheelchair": null, "wikidata": null, "ways": null, "type": null }, "geometry": { "type": "Polygon", "coordinates": [ [ [ 6.7048585, 49.72611 ], [ 6.704494, 49.725855 ], [ 6.7042865, 49.725741 ], [ 6.7040571, 49.7256152 ], [ 6.7037576, 49.7258007 ], [ 6.70383, 49.7258945 ], [ 6.7040059, 49.7259988 ], [ 6.7040728, 49.7260228 ], [ 6.7045164, 49.7263253 ], [ 6.7048585, 49.72611 ] ] ] } },
{ "type": "Feature", "properties": { "element_type": "way", "osmid": 197513151, "amenity": "kindergarten", "check_date": null, "name": "Kita St. Katharina", "website": null, "addr:city": "Trier", "addr:housenumber": "31", "addr:postcode": "54296", "addr:street": "Auf der Redoute", "capacity": null, "contact:email": null, "contact:fax": null, "contact:phone": null, "contact:website": null, "max_age": null, "min_age": null, "opening_hours": null, "operator": null, "operator:type": null, "operator:wikidata": null, "email": null, "phone": null, "description": null, "denomination": null, "note": null, "religion": null, "nodes": [ 2077426337, 2077426332, 2077426333, 2077426334, 2077426338, 2077426337 ], "building": "yes", "building:levels": null, "roof:levels": null, "roof:shape": null, "addr:country": "DE", "nursery": null, "preschool": null, "education": null, "wheelchair": "limited", "loc_name": null, "start_date": null, "fixme": null, "source": null, "lunch": null, "fax": null, "isced:level": null, "official_name": null, "toilets:wheelchair": null, "wikidata": null, "ways": null, "type": null }, "geometry": { "type": "Polygon", "coordinates": [ [ [ 6.6850743, 49.7267289 ], [ 6.6849246, 49.7267499 ], [ 6.684961, 49.7268583 ], [ 6.6850162, 49.7270228 ], [ 6.6851658, 49.7270018 ], [ 6.6850743, 49.7267289 ] ] ] } },
{ "type": "Feature", "properties": { "element_type": "way", "osmid": 1162462528, "amenity": "kindergarten", "check_date": null, "name": "Kindertagesstätte Im Freschfeld", "website": null, "addr:city": "Trier", "addr:housenumber": "26", "addr:postcode": "54296", "addr:street": "Von-Babenberg-Straße", "capacity": null, "contact:email": null, "contact:fax": null, "contact:phone": null, "contact:website": null, "max_age": null, "min_age": null, "opening_hours": null, "operator": "Stadt Trier", "operator:type": "public", "operator:wikidata": null, "email": null, "phone": null, "description": null, "denomination": null, "note": null, "religion": null, "nodes": [ 10811224785, 10811224786, 10811224787, 10811224788, 10811224789, 10811224790, 5799705526, 5799705519, 10811224791, 10811224792, 10811224785 ], "building": null, "building:levels": null, "roof:levels": null, "roof:shape": null, "addr:country": "DE", "nursery": null, "preschool": null, "education": null, "wheelchair": null, "loc_name": null, "start_date": null, "fixme": null, "source": null, "lunch": null, "fax": null, "isced:level": null, "official_name": null, "toilets:wheelchair": null, "wikidata": null, "ways": null, "type": null }, "geometry": { "type": "Polygon", "coordinates": [ [ [ 6.6987562, 49.7359185 ], [ 6.6983172, 49.7360867 ], [ 6.6981485, 49.7360722 ], [ 6.6980651, 49.7364203 ], [ 6.6981997, 49.7364268 ], [ 6.6981936, 49.7364697 ], [ 6.6984033, 49.7364823 ], [ 6.698681, 49.7364952 ], [ 6.6987047, 49.7365232 ], [ 6.6991587, 49.7363428 ], [ 6.6987562, 49.7359185 ] ] ] } },
{ "type": "Feature", "properties": { "element_type": "way", "osmid": 1162462530, "amenity": "kindergarten", "check_date": null, "name": "Kindertagesstätte Trimmelter Hof", "website": null, "addr:city": "Trier", "addr:housenumber": "34", "addr:postcode": "54296", "addr:street": "Langflur", "capacity": null, "contact:email": null, "contact:fax": null, "contact:phone": null, "contact:website": null, "max_age": null, "min_age": null, "opening_hours": null, "operator": "Stadt Trier", "operator:type": "public", "operator:wikidata": null, "email": null, "phone": null, "description": null, "denomination": null, "note": null, "religion": null, "nodes": [ 1254090820, 1643366294, 10811224797, 10811224798, 10811224799, 10811224800, 10811224801, 10811224802, 10811224803, 10811224804, 10811264005, 10811264006, 10811264014, 10811264013, 10811264007, 10811264008, 10811264009, 10811264010, 10811264017, 10811264011, 1254090820 ], "building": null, "building:levels": null, "roof:levels": null, "roof:shape": null, "addr:country": null, "nursery": null, "preschool": null, "education": null, "wheelchair": null, "loc_name": null, "start_date": null, "fixme": null, "source": null, "lunch": null, "fax": null, "isced:level": null, "official_name": null, "toilets:wheelchair": null, "wikidata": null, "ways": null, "type": null }, "geometry": { "type": "Polygon", "coordinates": [ [ [ 6.6888364, 49.7379995 ], [ 6.6886388, 49.7380095 ], [ 6.6886388, 49.737953 ], [ 6.6885819, 49.7379372 ], [ 6.6885392, 49.7379438 ], [ 6.6880717, 49.7382565 ], [ 6.688092, 49.7383182 ], [ 6.6884254, 49.7386151 ], [ 6.6885331, 49.7385994 ], [ 6.6887994, 49.738514 ], [ 6.6890169, 49.7385192 ], [ 6.6890177, 49.7384855 ], [ 6.6890226, 49.7382886 ], [ 6.689023, 49.7382722 ], [ 6.6890982, 49.7382736 ], [ 6.6890915, 49.7380801 ], [ 6.6890266, 49.7380798 ], [ 6.6890272, 49.7380091 ], [ 6.689027, 49.7380003 ], [ 6.6889168, 49.7379974 ], [ 6.6888364, 49.7379995 ] ] ] } },
{ "type": "Feature", "properties": { "element_type": "way", "osmid": 725167757, "amenity": "kindergarten", "check_date": "2025-02-21", "name": "Kindertagesstätte Alt-Tarforst", "website": "https://kitaportal.trier.de", "addr:city": null, "addr:housenumber": null, "addr:postcode": null, "addr:street": null, "capacity": null, "contact:email": null, "contact:fax": null, "contact:phone": null, "contact:website": null, "max_age": "6", "min_age": "0", "opening_hours": "Mo-Fr 07:00-17:00", "operator": "Stadt Trier", "operator:type": null, "operator:wikidata": null, "email": "monika.burda@trier.de", "phone": "+49 651 20066100", "description": null, "denomination": null, "note": null, "religion": null, "nodes": [ 6800195632, 6800195631, 6800195630, 6800195629, 6800195628, 6800195627, 6800195626, 6800195632 ], "building": null, "building:levels": null, "roof:levels": null, "roof:shape": null, "addr:country": null, "nursery": null, "preschool": null, "education": null, "wheelchair": "yes", "loc_name": null, "start_date": null, "fixme": "Ausdehnung prüfen", "source": null, "lunch": null, "fax": "+49 651 20066108", "isced:level": null, "official_name": null, "toilets:wheelchair": null, "wikidata": null, "ways": null, "type": null }, "geometry": { "type": "Polygon", "coordinates": [ [ [ 6.7019712, 49.7401637 ], [ 6.7017259, 49.7405408 ], [ 6.702446, 49.7406751 ], [ 6.7025211, 49.740669 ], [ 6.7025721, 49.7406551 ], [ 6.7026217, 49.7406248 ], [ 6.7027786, 49.7403804 ], [ 6.7019712, 49.7401637 ] ] ] } },
{ "type": "Feature", "properties": { "element_type": "node", "osmid": 8554653029, "amenity": "kindergarten", "check_date": null, "name": "Kindertagesstätte Alt-Tarforst, Standort \"Alter Garten\"", "website": null, "addr:city": null, "addr:housenumber": null, "addr:postcode": null, "addr:street": null, "capacity": null, "contact:email": null, "contact:fax": null, "contact:phone": null, "contact:website": null, "max_age": null, "min_age": null, "opening_hours": null, "operator": "Stadt Trier", "operator:type": "local_authority", "operator:wikidata": null, "email": "monika.burda@trier.de", "phone": "+49 651 186 73 200 66 100", "description": null, "denomination": null, "note": null, "religion": null, "nodes": null, "building": null, "building:levels": null, "roof:levels": null, "roof:shape": null, "addr:country": null, "nursery": null, "preschool": null, "education": null, "wheelchair": null, "loc_name": null, "start_date": null, "fixme": null, "source": null, "lunch": null, "fax": null, "isced:level": null, "official_name": null, "toilets:wheelchair": null, "wikidata": null, "ways": null, "type": null }, "geometry": { "type": "Point", "coordinates": [ 6.7020185, 49.7421223 ] } },
{ "type": "Feature", "properties": { "element_type": "way", "osmid": 1141655227, "amenity": "kindergarten", "check_date": "2025-02-23", "name": "Kita Sankt Anna", "website": null, "addr:city": "Trier", "addr:housenumber": "53", "addr:postcode": "54295", "addr:street": "Auf der Ayl", "capacity": null, "contact:email": null, "contact:fax": null, "contact:phone": null, "contact:website": null, "max_age": null, "min_age": null, "opening_hours": null, "operator": null, "operator:type": null, "operator:wikidata": null, "email": null, "phone": null, "description": null, "denomination": null, "note": null, "religion": null, "nodes": [ 10634212538, 10634212537, 10634212536, 10634212535, 10634212534, 13078462215, 1525071583, 12611215896, 1525071631, 10634212538 ], "building": null, "building:levels": null, "roof:levels": null, "roof:shape": null, "addr:country": "DE", "nursery": null, "preschool": null, "education": null, "wheelchair": null, "loc_name": null, "start_date": null, "fixme": null, "source": null, "lunch": null, "fax": null, "isced:level": null, "official_name": null, "toilets:wheelchair": null, "wikidata": null, "ways": null, "type": null }, "geometry": { "type": "Polygon", "coordinates": [ [ [ 6.6646825, 49.7424535 ], [ 6.6645528, 49.7420921 ], [ 6.6640693, 49.7422148 ], [ 6.6637691, 49.7423554 ], [ 6.6637854, 49.7424039 ], [ 6.6637963, 49.7424317 ], [ 6.6638189, 49.7424895 ], [ 6.6638292, 49.7425158 ], [ 6.663857, 49.7425809 ], [ 6.6646825, 49.7424535 ] ] ] } },
{ "type": "Feature", "properties": { "element_type": "way", "osmid": 863858743, "amenity": "kindergarten", "check_date": null, "name": "KITA im Treff", "website": null, "addr:city": null, "addr:housenumber": null, "addr:postcode": null, "addr:street": null, "capacity": null, "contact:email": "im-treff@kita-im-treff.de", "contact:fax": "+49 651 9956080", "contact:phone": "+49 651 17599", "contact:website": null, "max_age": null, "min_age": null, "opening_hours": null, "operator": null, "operator:type": null, "operator:wikidata": null, "email": null, "phone": null, "description": null, "denomination": null, "note": null, "religion": null, "nodes": [ 1241646767, 8047998995, 8047998994, 1241646753, 1241646754, 1241646757, 1241646758, 1241646765, 1241646767 ], "building": null, "building:levels": null, "roof:levels": null, "roof:shape": null, "addr:country": null, "nursery": null, "preschool": null, "education": null, "wheelchair": null, "loc_name": null, "start_date": null, "fixme": null, "source": null, "lunch": null, "fax": null, "isced:level": null, "official_name": null, "toilets:wheelchair": null, "wikidata": null, "ways": null, "type": null }, "geometry": { "type": "Polygon", "coordinates": [ [ [ 6.6864917, 49.7430129 ], [ 6.6863904, 49.7430783 ], [ 6.6861745, 49.7432266 ], [ 6.6861002, 49.7433138 ], [ 6.6861407, 49.7433749 ], [ 6.6866225, 49.7436191 ], [ 6.6870166, 49.7431763 ], [ 6.6865861, 49.7430609 ], [ 6.6864917, 49.7430129 ] ] ] } },
{ "type": "Feature", "properties": { "element_type": "way", "osmid": 524971887, "amenity": "kindergarten", "check_date": "2025-12-15", "name": "Integrative Kita Petrisberg", "website": null, "addr:city": null, "addr:housenumber": null, "addr:postcode": null, "addr:street": null, "capacity": null, "contact:email": null, "contact:fax": null, "contact:phone": null, "contact:website": null, "max_age": null, "min_age": null, "opening_hours": null, "operator": "Lebenshilfe Trier", "operator:type": null, "operator:wikidata": null, "email": null, "phone": null, "description": null, "denomination": null, "note": null, "religion": null, "nodes": [ 9588480699, 9588480690, 9588480691, 9588480692, 9588480693, 9588480694, 9588480695, 9588480696, 9588480697, 9588480698, 9588480699 ], "building": null, "building:levels": null, "roof:levels": "0", "roof:shape": null, "addr:country": null, "nursery": null, "preschool": null, "education": null, "wheelchair": null, "loc_name": null, "start_date": null, "fixme": null, "source": null, "lunch": null, "fax": null, "isced:level": null, "official_name": null, "toilets:wheelchair": null, "wikidata": null, "ways": null, "type": null }, "geometry": { "type": "Polygon", "coordinates": [ [ [ 6.6775645, 49.7519311 ], [ 6.6778904, 49.7516851 ], [ 6.6778602, 49.751666 ], [ 6.6777603, 49.7516322 ], [ 6.6777704, 49.7516157 ], [ 6.6774874, 49.7515165 ], [ 6.6774995, 49.7515035 ], [ 6.6773144, 49.7514355 ], [ 6.677082, 49.7517067 ], [ 6.677115, 49.7517729 ], [ 6.6775645, 49.7519311 ] ] ] } },
{ "type": "Feature", "properties": { "element_type": "way", "osmid": 1355434227, "amenity": "kindergarten", "check_date": null, "name": "Deutsch-Französische Kindertagestätte der Stadt Trier", "website": null, "addr:city": "Trier", "addr:housenumber": "9", "addr:postcode": "54296", "addr:street": "Simone-Veil-Straße", "capacity": null, "contact:email": null, "contact:fax": null, "contact:phone": null, "contact:website": null, "max_age": null, "min_age": null, "opening_hours": null, "operator": "Stadt Trier", "operator:type": "public", "operator:wikidata": null, "email": null, "phone": null, "description": null, "denomination": null, "note": null, "religion": null, "nodes": [ 12544264748, 12544264749, 12544264750, 12544264751, 12544264752, 1472093550, 12544264753, 12544264748 ], "building": null, "building:levels": null, "roof:levels": null, "roof:shape": null, "addr:country": null, "nursery": null, "preschool": null, "education": null, "wheelchair": null, "loc_name": null, "start_date": null, "fixme": null, "source": null, "lunch": null, "fax": null, "isced:level": null, "official_name": null, "toilets:wheelchair": null, "wikidata": "Q131941376", "ways": null, "type": null }, "geometry": { "type": "Polygon", "coordinates": [ [ [ 6.6816599, 49.7529323 ], [ 6.6820968, 49.7530191 ], [ 6.6822629, 49.7527975 ], [ 6.6821132, 49.7527285 ], [ 6.6821306, 49.7526937 ], [ 6.6821492, 49.752664 ], [ 6.6818309, 49.7525823 ], [ 6.6816599, 49.7529323 ] ] ] } },
{ "type": "Feature", "properties": { "element_type": "way", "osmid": 1231112885, "amenity": "kindergarten", "check_date": null, "name": "Evangelische Kindertagesstätte Wichernhaus", "website": "https://trier.ekir.de/inhalt/kita-wichernhaus", "addr:city": "Trier", "addr:housenumber": "4", "addr:postcode": "54290", "addr:street": "Am Palastgarten", "capacity": null, "contact:email": "Kita.trier@ekir.de", "contact:fax": null, "contact:phone": null, "contact:website": null, "max_age": null, "min_age": null, "opening_hours": "Mo-Fr 07:15-17:15", "operator": "Evangelische Kirchengemeinde Trier", "operator:type": "religious", "operator:wikidata": null, "email": null, "phone": "+49 651 39027", "description": "Evangelische Kindertagesstätte mitten im Stadtzentrum. Verfügt über drei Gruppen mit insgesamt 55 Kindern. Bis zu 20 Kinder unter 3 Jahren (ab 1 Jahr).", "denomination": "protestant", "note": null, "religion": null, "nodes": [ 11417485046, 12132205396, 12132205399, 11417485068, 11417485047, 1429031748, 1429031747, 1429031744, 11417485048, 11417485049, 3325525873, 4429529553, 4693373094, 4429529554, 3325525872, 3325525871, 4693373095, 2248081409, 11417485050, 1429031768, 5384220516, 1429031769, 11417485046 ], "building": null, "building:levels": null, "roof:levels": null, "roof:shape": null, "addr:country": "DE", "nursery": null, "preschool": null, "education": null, "wheelchair": null, "loc_name": null, "start_date": null, "fixme": null, "source": null, "lunch": null, "fax": null, "isced:level": null, "official_name": null, "toilets:wheelchair": null, "wikidata": null, "ways": null, "type": null }, "geometry": { "type": "Polygon", "coordinates": [ [ [ 6.6427463, 49.7533845 ], [ 6.642741, 49.7533735 ], [ 6.6427924, 49.7533632 ], [ 6.6428617, 49.7533684 ], [ 6.6428348, 49.7533145 ], [ 6.6428303, 49.7533085 ], [ 6.6428017, 49.7533007 ], [ 6.6427799, 49.753291 ], [ 6.6427632, 49.7532735 ], [ 6.6427544, 49.753247 ], [ 6.6427606, 49.7532249 ], [ 6.6427839, 49.7532099 ], [ 6.6427849, 49.7532072 ], [ 6.6426671, 49.7529837 ], [ 6.6424682, 49.7530209 ], [ 6.6424915, 49.7530752 ], [ 6.6424119, 49.7530909 ], [ 6.6423449, 49.7531035 ], [ 6.6423879, 49.753179 ], [ 6.6424509, 49.7532895 ], [ 6.6425033, 49.7533814 ], [ 6.6425305, 49.7534291 ], [ 6.6427463, 49.7533845 ] ] ] } },
{ "type": "Feature", "properties": { "element_type": "node", "osmid": 7889374071, "amenity": "kindergarten", "check_date": null, "name": "Kinderkrippe im Ruländer Hof", "website": null, "addr:city": null, "addr:housenumber": null, "addr:postcode": null, "addr:street": null, "capacity": null, "contact:email": null, "contact:fax": null, "contact:phone": null, "contact:website": "https://vereinigtehospitien.de/soziale-einrichtungen/kinderkrippe-rulaender-hof", "max_age": null, "min_age": null, "opening_hours": null, "operator": null, "operator:type": null, "operator:wikidata": null, "email": null, "phone": null, "description": null, "denomination": null, "note": null, "religion": null, "nodes": null, "building": null, "building:levels": null, "roof:levels": null, "roof:shape": null, "addr:country": null, "nursery": null, "preschool": null, "education": null, "wheelchair": null, "loc_name": null, "start_date": null, "fixme": null, "source": null, "lunch": null, "fax": null, "isced:level": null, "official_name": null, "toilets:wheelchair": null, "wikidata": null, "ways": null, "type": null }, "geometry": { "type": "Point", "coordinates": [ 6.634503, 49.7579563 ] } },
{ "type": "Feature", "properties": { "element_type": "way", "osmid": 798141440, "amenity": "kindergarten", "check_date": "2024-12-30", "name": "Kindertagesstätte St. Bonifatius", "website": null, "addr:city": null, "addr:housenumber": null, "addr:postcode": null, "addr:street": null, "capacity": "85", "contact:email": "st-bonifatius-trier@kita-ggmbh-trier.de", "contact:fax": "+49 651 4367997", "contact:phone": "+49 651 23211", "contact:website": null, "max_age": "6", "min_age": "0", "opening_hours": "Mo-Fr 07:30-17:00", "operator": "Kita gGmbH", "operator:type": null, "operator:wikidata": null, "email": null, "phone": null, "description": null, "denomination": null, "note": null, "religion": null, "nodes": [ 3357265925, 10147372279, 1710052275, 7099880982, 3357265926, 4492215910, 4492207848, 1710052271, 6836315418, 1710052260, 1710052256, 6836315417, 3357262949, 7464868080, 3357265923, 1710052187, 1710052186, 1710052208, 1710052210, 1710052230, 1710052232, 1710052258, 1710052269, 3357265925 ], "building": null, "building:levels": null, "roof:levels": null, "roof:shape": null, "addr:country": null, "nursery": null, "preschool": null, "education": null, "wheelchair": null, "loc_name": null, "start_date": null, "fixme": null, "source": null, "lunch": null, "fax": null, "isced:level": "0", "official_name": null, "toilets:wheelchair": null, "wikidata": null, "ways": null, "type": null }, "geometry": { "type": "Polygon", "coordinates": [ [ [ 6.6634664, 49.7612484 ], [ 6.6635508, 49.7611843 ], [ 6.6635673, 49.7611725 ], [ 6.6635827, 49.7611615 ], [ 6.663596, 49.7611502 ], [ 6.6636886, 49.7610859 ], [ 6.6638105, 49.7611671 ], [ 6.6638762, 49.7612107 ], [ 6.6640069, 49.7611207 ], [ 6.6639357, 49.761078 ], [ 6.6638907, 49.7610474 ], [ 6.6635745, 49.7608323 ], [ 6.663426, 49.7607656 ], [ 6.6634086, 49.7607856 ], [ 6.663372, 49.7608202 ], [ 6.6633086, 49.7607909 ], [ 6.6631606, 49.760925 ], [ 6.6631768, 49.7609325 ], [ 6.6631121, 49.7609912 ], [ 6.6631599, 49.7610133 ], [ 6.6630751, 49.7610915 ], [ 6.663169, 49.7611311 ], [ 6.6634508, 49.7612603 ], [ 6.6634664, 49.7612484 ] ] ] } },
{ "type": "Feature", "properties": { "element_type": "node", "osmid": 7077031895, "amenity": "kindergarten", "check_date": null, "name": "Kita St. Paulin", "website": null, "addr:city": null, "addr:housenumber": null, "addr:postcode": null, "addr:street": null, "capacity": "72", "contact:email": "st-paulin-trier@kita-ggmbh-trier.de", "contact:fax": "+49 651 1461333", "contact:phone": "+49 651 25859", "contact:website": null, "max_age": "6", "min_age": "3", "opening_hours": null, "operator": "Katholische KiTa gGmbH Trier", "operator:type": "religious", "operator:wikidata": "Q115861118", "email": null, "phone": null, "description": null, "denomination": null, "note": null, "religion": null, "nodes": null, "building": null, "building:levels": null, "roof:levels": null, "roof:shape": null, "addr:country": null, "nursery": null, "preschool": null, "education": null, "wheelchair": null, "loc_name": null, "start_date": null, "fixme": null, "source": null, "lunch": null, "fax": null, "isced:level": null, "official_name": null, "toilets:wheelchair": null, "wikidata": null, "ways": null, "type": null }, "geometry": { "type": "Point", "coordinates": [ 6.6516828, 49.7633997 ] } },
{ "type": "Feature", "properties": { "element_type": "way", "osmid": 149428365, "amenity": "kindergarten", "check_date": null, "name": "Kindertagesstätte St. Monika", "website": "https://www.bk-trier.de/bkt/ueber-uns/kindertagesstaette-st-monika/index.php", "addr:city": null, "addr:housenumber": null, "addr:postcode": null, "addr:street": null, "capacity": null, "contact:email": null, "contact:fax": null, "contact:phone": null, "contact:website": null, "max_age": null, "min_age": null, "opening_hours": "07:00-17:00; PH closed", "operator": "Barmherzigen Brüder Trier gGmbH", "operator:type": null, "operator:wikidata": null, "email": "R.Scherer@bk-trier.de", "phone": "+49 651 208 1268", "description": null, "denomination": null, "note": null, "religion": null, "nodes": [ 1624131041, 1624131000, 1624130941, 1624130889, 1624130991, 1624130932, 1624130926, 1624130884, 1624130982, 1624130925, 1624130923, 1624130877, 1624130936, 1624130922, 1624130892, 1624130844, 1624130931, 1624130984, 1624131037, 1624131003, 1624131101, 1624131174, 1624131085, 1624131146, 1624131048, 1624131197, 1624131240, 1624131280, 1624131244, 1624131285, 1624131041 ], "building": "kindergarten", "building:levels": "1", "roof:levels": null, "roof:shape": "flat", "addr:country": null, "nursery": null, "preschool": null, "education": null, "wheelchair": null, "loc_name": null, "start_date": null, "fixme": null, "source": null, "lunch": null, "fax": null, "isced:level": null, "official_name": null, "toilets:wheelchair": null, "wikidata": null, "ways": null, "type": null }, "geometry": { "type": "Polygon", "coordinates": [ [ [ 6.6421268, 49.7638867 ], [ 6.6422034, 49.7638591 ], [ 6.6422261, 49.7638855 ], [ 6.6423263, 49.7638494 ], [ 6.6423023, 49.7638216 ], [ 6.642563, 49.7637276 ], [ 6.6426124, 49.7637851 ], [ 6.6427072, 49.763751 ], [ 6.642741, 49.7637903 ], [ 6.6428308, 49.7637579 ], [ 6.6427813, 49.7637002 ], [ 6.6427249, 49.7637206 ], [ 6.6426878, 49.7636774 ], [ 6.6427431, 49.7636575 ], [ 6.6426957, 49.7636023 ], [ 6.6426072, 49.7636342 ], [ 6.6426128, 49.7636408 ], [ 6.642551, 49.763663 ], [ 6.6425068, 49.7636116 ], [ 6.6424158, 49.7636444 ], [ 6.6424231, 49.7636529 ], [ 6.6423592, 49.7636759 ], [ 6.6423137, 49.763623 ], [ 6.6422297, 49.7636533 ], [ 6.6422374, 49.7636622 ], [ 6.6421685, 49.7636871 ], [ 6.6421229, 49.763634 ], [ 6.6420341, 49.763666 ], [ 6.6420607, 49.763697 ], [ 6.6419868, 49.7637237 ], [ 6.6421268, 49.7638867 ] ] ] } },
{ "type": "Feature", "properties": { "element_type": "way", "osmid": 192109362, "amenity": "kindergarten", "check_date": null, "name": "Kindertagesstätte St. Martin", "website": "https://www.bk-trier.de/bkt/ueber-uns/kindertagesstaette-st-martin/index.php", "addr:city": null, "addr:housenumber": null, "addr:postcode": null, "addr:street": null, "capacity": "84", "contact:email": null, "contact:fax": null, "contact:phone": null, "contact:website": null, "max_age": null, "min_age": null, "opening_hours": "Mo-Fr 07:00-17:00; PH closed", "operator": "Barmherzigen Brüder Trier gGmbH", "operator:type": null, "operator:wikidata": null, "email": "p.block@bk-trier.de", "phone": "+49 651 28822", "description": null, "denomination": null, "note": null, "religion": null, "nodes": [ 2026721922, 2026721925, 2026721926, 2026721924, 2026721922 ], "building": "kindergarten", "building:levels": null, "roof:levels": null, "roof:shape": null, "addr:country": null, "nursery": null, "preschool": null, "education": null, "wheelchair": null, "loc_name": null, "start_date": null, "fixme": null, "source": null, "lunch": null, "fax": null, "isced:level": null, "official_name": null, "toilets:wheelchair": null, "wikidata": null, "ways": null, "type": null }, "geometry": { "type": "Polygon", "coordinates": [ [ [ 6.6472061, 49.7639006 ], [ 6.6474524, 49.7640635 ], [ 6.6475973, 49.7639738 ], [ 6.6473583, 49.7638122 ], [ 6.6472061, 49.7639006 ] ] ] } },
{ "type": "Feature", "properties": { "element_type": "node", "osmid": 5244747368, "amenity": "kindergarten", "check_date": "2025-12-15", "name": "Kindertagesstätte St. Ambrosius", "website": null, "addr:city": null, "addr:housenumber": null, "addr:postcode": null, "addr:street": null, "capacity": "80", "contact:email": "st-ambrosius-trier@kita-ggmbh-trier.de", "contact:fax": "+49 651 4608722", "contact:phone": "+49 651 24744", "contact:website": "https://www.kita-ggmbh-trier.de/unsere-kitas/t-u-v/trier-st-ambrosius", "max_age": "6", "min_age": "none", "opening_hours": "Mo-Fr 07:30-16:30; PH off", "operator": "Katholische KiTa gGmbH Trier", "operator:type": null, "operator:wikidata": null, "email": null, "phone": null, "description": null, "denomination": null, "note": null, "religion": null, "nodes": null, "building": null, "building:levels": null, "roof:levels": null, "roof:shape": null, "addr:country": null, "nursery": null, "preschool": null, "education": null, "wheelchair": null, "loc_name": null, "start_date": null, "fixme": null, "source": null, "lunch": null, "fax": null, "isced:level": null, "official_name": null, "toilets:wheelchair": null, "wikidata": null, "ways": null, "type": null }, "geometry": { "type": "Point", "coordinates": [ 6.6587898, 49.7657348 ] } },
{ "type": "Feature", "properties": { "element_type": "way", "osmid": 192743664, "amenity": "kindergarten", "check_date": null, "name": "Kindertagesstätte Sonnengarten", "website": null, "addr:city": "Trier", "addr:housenumber": "3", "addr:postcode": "54292", "addr:street": "Karl-Grün-Straße", "capacity": null, "contact:email": "kita.sonnengarten@buergerhaus-trier-nord.de", "contact:fax": null, "contact:phone": "+49 651 149759", "contact:website": null, "max_age": null, "min_age": null, "opening_hours": null, "operator": "Kindertagesstätte Trier-Nord e.V.", "operator:type": null, "operator:wikidata": null, "email": null, "phone": null, "description": null, "denomination": null, "note": null, "religion": null, "nodes": [ 2032775497, 2032775600, 2032775534, 2032775564, 2032775506, 2032775474, 2032775482, 2032775470, 2032775512, 2032775594, 2032775514, 2032775585, 2032775660, 2032775696, 2032775676, 2032775668, 2032775624, 2032775662, 2032775721, 2032775746, 2032775737, 2032775729, 2032775680, 2032775656, 2032775607, 2032775497 ], "building": "yes", "building:levels": null, "roof:levels": null, "roof:shape": null, "addr:country": "DE", "nursery": null, "preschool": null, "education": null, "wheelchair": null, "loc_name": null, "start_date": null, "fixme": null, "source": null, "lunch": null, "fax": null, "isced:level": null, "official_name": null, "toilets:wheelchair": null, "wikidata": null, "ways": null, "type": null }, "geometry": { "type": "Polygon", "coordinates": [ [ [ 6.6597875, 49.7678282 ], [ 6.6602258, 49.7680538 ], [ 6.6601503, 49.7681243 ], [ 6.6605713, 49.7683172 ], [ 6.6605459, 49.7683437 ], [ 6.6606373, 49.7683867 ], [ 6.6607618, 49.7682733 ], [ 6.6603004, 49.7680636 ], [ 6.6604609, 49.7679235 ], [ 6.6608193, 49.7680917 ], [ 6.6607937, 49.7681185 ], [ 6.660891, 49.7681605 ], [ 6.6610145, 49.7680486 ], [ 6.6605651, 49.7678412 ], [ 6.6606627, 49.7677436 ], [ 6.6611314, 49.7678411 ], [ 6.6611779, 49.7677522 ], [ 6.660709, 49.7676524 ], [ 6.660691, 49.7676876 ], [ 6.6606305, 49.7676754 ], [ 6.660605, 49.7677251 ], [ 6.6605054, 49.7678211 ], [ 6.6604115, 49.767781 ], [ 6.6603209, 49.7678657 ], [ 6.6599198, 49.7677085 ], [ 6.6597875, 49.7678282 ] ] ] } },
{ "type": "Feature", "properties": { "element_type": "way", "osmid": 41569523, "amenity": "kindergarten", "check_date": null, "name": "Hort Barbara", "website": "http://www.hort-barbara.de/startseite.htm", "addr:city": "Trier", "addr:housenumber": "1b", "addr:postcode": "54290", "addr:street": "St.-Barbara-Ufer", "capacity": null, "contact:email": null, "contact:fax": null, "contact:phone": null, "contact:website": null, "max_age": null, "min_age": null, "opening_hours": null, "operator": null, "operator:type": null, "operator:wikidata": null, "email": null, "phone": null, "description": null, "denomination": null, "note": null, "religion": null, "nodes": [ 1725023438, 1725023442, 1436513578, 4621892583, 4621892582, 1725023432, 1436513576, 1436513577, 510104708, 1436513580, 1436513582, 1436513588, 510104709, 1436513585, 1436513587, 1436513586, 1436513583, 1436513581, 1436513579, 4621898937, 1725023438 ], "building": "apartments", "building:levels": "3", "roof:levels": "1", "roof:shape": "hipped", "addr:country": null, "nursery": null, "preschool": null, "education": null, "wheelchair": null, "loc_name": null, "start_date": null, "fixme": null, "source": null, "lunch": null, "fax": null, "isced:level": null, "official_name": null, "toilets:wheelchair": null, "wikidata": null, "ways": null, "type": null }, "geometry": { "type": "Polygon", "coordinates": [ [ [ 6.6285278, 49.7506871 ], [ 6.628524, 49.7506416 ], [ 6.6285219, 49.7506077 ], [ 6.628479, 49.7506105 ], [ 6.6284765, 49.750587 ], [ 6.6283505, 49.7505958 ], [ 6.6283547, 49.7506216 ], [ 6.6282998, 49.7506256 ], [ 6.6283226, 49.7507407 ], [ 6.6283016, 49.7507579 ], [ 6.6283579, 49.7507871 ], [ 6.6283824, 49.7507665 ], [ 6.6285065, 49.7507577 ], [ 6.6285176, 49.7507714 ], [ 6.6285414, 49.7507728 ], [ 6.6285548, 49.7507626 ], [ 6.6285565, 49.7507523 ], [ 6.6286058, 49.7507487 ], [ 6.6286019, 49.7507161 ], [ 6.6285981, 49.7506846 ], [ 6.6285278, 49.7506871 ] ] ] } },
{ "type": "Feature", "properties": { "element_type": "way", "osmid": 1279357342, "amenity": "kindergarten", "check_date": null, "name": "Kindertageseinrichtung Bauspielplatz Trier-West", "website": null, "addr:city": null, "addr:housenumber": null, "addr:postcode": null, "addr:street": null, "capacity": null, "contact:email": null, "contact:fax": null, "contact:phone": null, "contact:website": null, "max_age": null, "min_age": null, "opening_hours": null, "operator": "Caritasverband Trier e. V.", "operator:type": "private", "operator:wikidata": null, "email": null, "phone": null, "description": null, "denomination": null, "note": null, "religion": null, "nodes": [ 11876541956, 11876541957, 11876541958, 1596546212, 1596546252, 1596546334, 1596546372, 11876541959, 11876541956 ], "building": null, "building:levels": null, "roof:levels": null, "roof:shape": null, "addr:country": null, "nursery": null, "preschool": null, "education": null, "wheelchair": null, "loc_name": null, "start_date": null, "fixme": null, "source": null, "lunch": null, "fax": null, "isced:level": null, "official_name": null, "toilets:wheelchair": null, "wikidata": null, "ways": null, "type": null }, "geometry": { "type": "Polygon", "coordinates": [ [ [ 6.6203979, 49.7516781 ], [ 6.6203467, 49.7516509 ], [ 6.6203092, 49.7516202 ], [ 6.6202184, 49.751546 ], [ 6.6201693, 49.7515058 ], [ 6.6199462, 49.751342 ], [ 6.61943, 49.7514924 ], [ 6.619692, 49.7518714 ], [ 6.6203979, 49.7516781 ] ] ] } },
{ "type": "Feature", "properties": { "element_type": "way", "osmid": 1279351329, "amenity": "kindergarten", "check_date": null, "name": "Kindertagesstätte Walburga-Marx-Haus", "website": null, "addr:city": "Trier", "addr:housenumber": "15", "addr:postcode": "54294", "addr:street": "Pater-Loskyll-Weg", "capacity": null, "contact:email": null, "contact:fax": null, "contact:phone": null, "contact:website": null, "max_age": null, "min_age": null, "opening_hours": null, "operator": "Caritasverband Trier e. V.", "operator:type": "private", "operator:wikidata": null, "email": null, "phone": null, "description": null, "denomination": null, "note": null, "religion": null, "nodes": [ 11876591991, 11876591995, 11876591996, 11876591997, 11876591989, 11876591990, 11876591991 ], "building": null, "building:levels": null, "roof:levels": null, "roof:shape": null, "addr:country": null, "nursery": null, "preschool": null, "education": null, "wheelchair": null, "loc_name": null, "start_date": null, "fixme": null, "source": null, "lunch": null, "fax": null, "isced:level": null, "official_name": null, "toilets:wheelchair": null, "wikidata": null, "ways": null, "type": null }, "geometry": { "type": "Polygon", "coordinates": [ [ [ 6.6175415, 49.7531842 ], [ 6.617245, 49.7532827 ], [ 6.6169892, 49.7533686 ], [ 6.6174161, 49.753885 ], [ 6.6179563, 49.753699 ], [ 6.6178052, 49.7534982 ], [ 6.6175415, 49.7531842 ] ] ] } },
{ "type": "Feature", "properties": { "element_type": "way", "osmid": 845634359, "amenity": "kindergarten", "check_date": null, "name": "Kindertagesstätte Mutterhaus", "website": null, "addr:city": null, "addr:housenumber": null, "addr:postcode": null, "addr:street": null, "capacity": null, "contact:email": "kindertagesstaette@borromaeerinnen-trier.de", "contact:fax": null, "contact:phone": "+49 651 947-2237", "contact:website": "http://borromaeerinnen-trier.de", "max_age": null, "min_age": null, "opening_hours": "Mo-Su, PH 06:30-18:30;Dec 24 - Jan 01 off", "operator": "Kongregation der Barmherzigen Schwestern vom Heiligen Karl Borromäus", "operator:type": null, "operator:wikidata": null, "email": null, "phone": null, "description": null, "denomination": null, "note": null, "religion": null, "nodes": [ 330011855, 330011857, 1323198759, 6465850411, 6465850410, 1415873304, 1415873325, 1323198756, 330011878, 330011876, 330011873, 1415873346, 1415873347, 330011871, 330011868, 330011928, 330011852, 330011855 ], "building": null, "building:levels": null, "roof:levels": null, "roof:shape": null, "addr:country": null, "nursery": null, "preschool": null, "education": null, "wheelchair": "yes", "loc_name": null, "start_date": null, "fixme": null, "source": null, "lunch": null, "fax": null, "isced:level": null, "official_name": "Kindertagesstätte Mutterhaus der Borromäerinnen", "toilets:wheelchair": null, "wikidata": null, "ways": null, "type": null }, "geometry": { "type": "Polygon", "coordinates": [ [ [ 6.6286564, 49.7538888 ], [ 6.6287715, 49.75429 ], [ 6.6289024, 49.7542453 ], [ 6.6291885, 49.7541924 ], [ 6.629298, 49.7541922 ], [ 6.6292929, 49.7541343 ], [ 6.6293179, 49.7541284 ], [ 6.6293382, 49.7541638 ], [ 6.6295591, 49.7541178 ], [ 6.6295415, 49.7540827 ], [ 6.6294844, 49.7539655 ], [ 6.6294077, 49.7539766 ], [ 6.629308, 49.7538795 ], [ 6.6293996, 49.7538337 ], [ 6.6293218, 49.7536634 ], [ 6.6289003, 49.7537454 ], [ 6.628941, 49.7538347 ], [ 6.6286564, 49.7538888 ] ] ] } },
{ "type": "Feature", "properties": { "element_type": "way", "osmid": 571783474, "amenity": "kindergarten", "check_date": null, "name": "Katholische Kita Christ-König", "website": null, "addr:city": "Trier", "addr:housenumber": "10", "addr:postcode": "54294", "addr:street": "Christ-König-Platz", "capacity": null, "contact:email": null, "contact:fax": null, "contact:phone": null, "contact:website": null, "max_age": null, "min_age": null, "opening_hours": null, "operator": null, "operator:type": "religious", "operator:wikidata": null, "email": null, "phone": null, "description": null, "denomination": "roman_catholic", "note": null, "religion": "christian", "nodes": [ 1543180049, 1543180063, 1543180115, 8869820102, 8196838387, 5494501613, 5494501612, 5494501616, 1543180133, 1543180121, 5494501615, 5494501614, 1704196956, 1543180047, 1543180049 ], "building": null, "building:levels": null, "roof:levels": null, "roof:shape": null, "addr:country": "DE", "nursery": null, "preschool": null, "education": null, "wheelchair": null, "loc_name": null, "start_date": null, "fixme": null, "source": null, "lunch": null, "fax": null, "isced:level": null, "official_name": null, "toilets:wheelchair": null, "wikidata": null, "ways": null, "type": null }, "geometry": { "type": "Polygon", "coordinates": [ [ [ 6.6196599, 49.7559814 ], [ 6.6198636, 49.756204 ], [ 6.6200985, 49.7564603 ], [ 6.6201972, 49.7564217 ], [ 6.6202119, 49.7564378 ], [ 6.6202789, 49.7565107 ], [ 6.6204186, 49.7566661 ], [ 6.620608, 49.7565951 ], [ 6.6207311, 49.7565492 ], [ 6.6208325, 49.7565114 ], [ 6.6203721, 49.7559959 ], [ 6.6201893, 49.756064 ], [ 6.6200013, 49.7558536 ], [ 6.6197277, 49.7559556 ], [ 6.6196599, 49.7559814 ] ] ] } },
{ "type": "Feature", "properties": { "element_type": "way", "osmid": 571783485, "amenity": "kindergarten", "check_date": null, "name": "Kita Maria Königin", "website": null, "addr:city": "Trier", "addr:housenumber": "32", "addr:postcode": "54294", "addr:street": "Im Sabel", "capacity": null, "contact:email": null, "contact:fax": null, "contact:phone": null, "contact:website": null, "max_age": null, "min_age": null, "opening_hours": null, "operator": null, "operator:type": null, "operator:wikidata": null, "email": null, "phone": null, "description": null, "denomination": null, "note": null, "religion": null, "nodes": [ 5494502925, 5494502922, 5494502921, 5494502923, 5494502924, 5494502925 ], "building": null, "building:levels": null, "roof:levels": null, "roof:shape": null, "addr:country": "DE", "nursery": null, "preschool": null, "education": null, "wheelchair": null, "loc_name": null, "start_date": null, "fixme": null, "source": null, "lunch": null, "fax": null, "isced:level": null, "official_name": null, "toilets:wheelchair": null, "wikidata": null, "ways": null, "type": null }, "geometry": { "type": "Polygon", "coordinates": [ [ [ 6.6260339, 49.7622585 ], [ 6.6258542, 49.762081 ], [ 6.6254787, 49.7622022 ], [ 6.6257, 49.7624413 ], [ 6.6259038, 49.7623677 ], [ 6.6260339, 49.7622585 ] ] ] } },
{ "type": "Feature", "properties": { "element_type": "way", "osmid": 96298673, "amenity": "kindergarten", "check_date": "2025-07-13", "name": "KITA Schneidershof", "website": "https://kindergarten-trier.de/startseite", "addr:city": "Trier", "addr:housenumber": null, "addr:postcode": "54293", "addr:street": "Schneidershof", "capacity": null, "contact:email": null, "contact:fax": null, "contact:phone": null, "contact:website": null, "max_age": "6", "min_age": "2", "opening_hours": "Mo-Fr 07:30-16:30", "operator": "Kindertagesstätten an den Trierer Hochschulen e.V.", "operator:type": "private_non_profit", "operator:wikidata": null, "email": "schneidershof@kindergarten-trier.de", "phone": "+496518103235", "description": null, "denomination": null, "note": null, "religion": null, "nodes": [ 1116190035, 1116190023, 1116190006, 1116189989, 1116190035 ], "building": "yes", "building:levels": "2", "roof:levels": null, "roof:shape": null, "addr:country": null, "nursery": "yes", "preschool": "yes", "education": null, "wheelchair": null, "loc_name": null, "start_date": null, "fixme": null, "source": null, "lunch": null, "fax": null, "isced:level": null, "official_name": null, "toilets:wheelchair": null, "wikidata": null, "ways": null, "type": null }, "geometry": { "type": "Polygon", "coordinates": [ [ [ 6.6297514, 49.7675861 ], [ 6.6298691, 49.7674701 ], [ 6.6297317, 49.7674116 ], [ 6.6296141, 49.7675276 ], [ 6.6297514, 49.7675861 ] ] ] } },
{ "type": "Feature", "properties": { "element_type": "way", "osmid": 386005629, "amenity": "kindergarten", "check_date": null, "name": "Kindergarten \"Waldpänz\"", "website": "http://www.waldpaenz.de/", "addr:city": null, "addr:housenumber": null, "addr:postcode": null, "addr:street": null, "capacity": null, "contact:email": null, "contact:fax": null, "contact:phone": null, "contact:website": null, "max_age": null, "min_age": null, "opening_hours": null, "operator": null, "operator:type": null, "operator:wikidata": null, "email": null, "phone": null, "description": null, "denomination": null, "note": null, "religion": null, "nodes": [ 3893495089, 3893495090, 3893495091, 3893495092, 3893495089 ], "building": null, "building:levels": null, "roof:levels": null, "roof:shape": null, "addr:country": null, "nursery": null, "preschool": null, "education": null, "wheelchair": null, "loc_name": null, "start_date": null, "fixme": null, "source": null, "lunch": null, "fax": null, "isced:level": null, "official_name": null, "toilets:wheelchair": null, "wikidata": null, "ways": null, "type": null }, "geometry": { "type": "Polygon", "coordinates": [ [ [ 6.6269132, 49.7717276 ], [ 6.6269266, 49.7716219 ], [ 6.6268461, 49.7716184 ], [ 6.6268408, 49.7717241 ], [ 6.6269132, 49.7717276 ] ] ] } },
{ "type": "Feature", "properties": { "element_type": "way", "osmid": 141383829, "amenity": "kindergarten", "check_date": null, "name": "Kindertagesstätte Treffpunkt Am Weidengraben", "website": null, "addr:city": "Trier", "addr:housenumber": "31a", "addr:postcode": "54296", "addr:street": "Am Weidengraben", "capacity": null, "contact:email": "hort@taw-trier.de", "contact:fax": "+49 651 25440", "contact:phone": "+49 651 25757", "contact:website": "https://www.taw-trier.de/", "max_age": null, "min_age": null, "opening_hours": "Mo-Fr 10:00-18:00", "operator": null, "operator:type": null, "operator:wikidata": null, "email": null, "phone": null, "description": null, "denomination": null, "note": null, "religion": null, "nodes": [ 1547500357, 1547500362, 1547500363, 1547500364, 1547500365, 1547500366, 1547500367, 1547500368, 1547500370, 1547500371, 1547500378, 1547500379, 1547500381, 1547500383, 1547500386, 1547500389, 1547500390, 1547500393, 1547500396, 1547500403, 1547500357 ], "building": "kindergarten", "building:levels": "1", "roof:levels": null, "roof:shape": "gabled", "addr:country": null, "nursery": null, "preschool": null, "education": null, "wheelchair": null, "loc_name": null, "start_date": null, "fixme": null, "source": null, "lunch": null, "fax": null, "isced:level": null, "official_name": null, "toilets:wheelchair": null, "wikidata": null, "ways": null, "type": null }, "geometry": { "type": "Polygon", "coordinates": [ [ [ 6.6873024, 49.7528718 ], [ 6.6872533, 49.7529109 ], [ 6.6872778, 49.7529237 ], [ 6.6871806, 49.7530011 ], [ 6.687146, 49.752983 ], [ 6.6870774, 49.7530378 ], [ 6.6870985, 49.7530489 ], [ 6.6870184, 49.7531128 ], [ 6.6870413, 49.7531248 ], [ 6.686982, 49.7531721 ], [ 6.6871388, 49.7532542 ], [ 6.6872097, 49.7531977 ], [ 6.6871846, 49.7531846 ], [ 6.687266, 49.7531196 ], [ 6.6872419, 49.753107 ], [ 6.6872976, 49.7530625 ], [ 6.6873429, 49.7530862 ], [ 6.687435, 49.7530128 ], [ 6.6875133, 49.7530538 ], [ 6.6875676, 49.7530106 ], [ 6.6873024, 49.7528718 ] ] ] } },
{ "type": "Feature", "properties": { "element_type": "node", "osmid": 11513713513, "amenity": "kindergarten", "check_date": null, "name": "Katholische KiTa St. Agritius", "website": "https://www.kita-ggmbh-trier.de/unsere-kitas/t-u-v/trier-st-agritius", "addr:city": "Trier", "addr:housenumber": "23", "addr:postcode": "54296", "addr:street": "Max-Planck-Straße", "capacity": null, "contact:email": null, "contact:fax": null, "contact:phone": null, "contact:website": null, "max_age": null, "min_age": null, "opening_hours": null, "operator": "Katholische KiTa gGmbH Trier", "operator:type": "religious", "operator:wikidata": "Q115861118", "email": null, "phone": null, "description": null, "denomination": "roman_catholic", "note": "\"Ausweichquartier\", aber an den ursprünglichen Standort (Helenenstraße) soll die KiTa nicht mehr zurückkehren, Stand: 01/2024", "religion": "christian", "nodes": null, "building": null, "building:levels": null, "roof:levels": null, "roof:shape": null, "addr:country": null, "nursery": null, "preschool": null, "education": null, "wheelchair": null, "loc_name": null, "start_date": null, "fixme": null, "source": null, "lunch": null, "fax": null, "isced:level": null, "official_name": null, "toilets:wheelchair": null, "wikidata": null, "ways": null, "type": null }, "geometry": { "type": "Point", "coordinates": [ 6.6676619, 49.7556968 ] } },
{ "type": "Feature", "properties": { "element_type": "node", "osmid": 626533836, "amenity": "kindergarten", "check_date": "2024-07-24", "name": "Montessori-Kinderhaus Petrisberg", "website": "https://www.montessori-trier.de/kinderhaus_petrisberg", "addr:city": null, "addr:housenumber": null, "addr:postcode": null, "addr:street": null, "capacity": null, "contact:email": null, "contact:fax": null, "contact:phone": null, "contact:website": null, "max_age": null, "min_age": null, "opening_hours": null, "operator": null, "operator:type": null, "operator:wikidata": null, "email": null, "phone": null, "description": null, "denomination": null, "note": null, "religion": null, "nodes": null, "building": null, "building:levels": null, "roof:levels": null, "roof:shape": null, "addr:country": null, "nursery": null, "preschool": null, "education": null, "wheelchair": null, "loc_name": null, "start_date": null, "fixme": null, "source": null, "lunch": null, "fax": null, "isced:level": null, "official_name": null, "toilets:wheelchair": null, "wikidata": null, "ways": null, "type": null }, "geometry": { "type": "Point", "coordinates": [ 6.6677703, 49.7557974 ] } },
{ "type": "Feature", "properties": { "element_type": "way", "osmid": 149913330, "amenity": "kindergarten", "check_date": null, "name": "Kita St. Jakobus", "website": null, "addr:city": "Trier", "addr:housenumber": "125", "addr:postcode": "54293", "addr:street": "Biewerer Straße", "capacity": null, "contact:email": null, "contact:fax": null, "contact:phone": null, "contact:website": null, "max_age": null, "min_age": null, "opening_hours": null, "operator": null, "operator:type": null, "operator:wikidata": null, "email": null, "phone": null, "description": null, "denomination": null, "note": null, "religion": null, "nodes": [ 1628479311, 1628479420, 1628479331, 1628479314, 1628479297, 1628479251, 1628479238, 1628479173, 1628479243, 1628479214, 1628479256, 1628479268, 1628479277, 1628479301, 1628479311 ], "building": "yes", "building:levels": null, "roof:levels": null, "roof:shape": null, "addr:country": "DE", "nursery": null, "preschool": null, "education": null, "wheelchair": null, "loc_name": null, "start_date": null, "fixme": null, "source": null, "lunch": null, "fax": null, "isced:level": null, "official_name": null, "toilets:wheelchair": null, "wikidata": null, "ways": null, "type": null }, "geometry": { "type": "Polygon", "coordinates": [ [ [ 6.6674954, 49.780509 ], [ 6.6676158, 49.7804113 ], [ 6.6675834, 49.7803947 ], [ 6.6676323, 49.780355 ], [ 6.6675244, 49.7802996 ], [ 6.6675577, 49.7802725 ], [ 6.6673913, 49.7801871 ], [ 6.6672805, 49.7802771 ], [ 6.667239, 49.7802558 ], [ 6.6671805, 49.7803033 ], [ 6.667197, 49.7803117 ], [ 6.6672426, 49.7803351 ], [ 6.6673049, 49.7803671 ], [ 6.6672716, 49.7803942 ], [ 6.6674954, 49.780509 ] ] ] } },
{ "type": "Feature", "properties": { "element_type": "way", "osmid": 372947239, "amenity": "kindergarten", "check_date": null, "name": "Kita St. Clemens", "website": null, "addr:city": "Trier", "addr:housenumber": "30", "addr:postcode": "54292", "addr:street": "Auf Mohrbüsch", "capacity": null, "contact:email": null, "contact:fax": null, "contact:phone": null, "contact:website": null, "max_age": null, "min_age": null, "opening_hours": null, "operator": null, "operator:type": null, "operator:wikidata": null, "email": null, "phone": null, "description": null, "denomination": null, "note": null, "religion": null, "nodes": [ 3765024975, 3765024968, 3765024964, 3765024961, 3765024972, 3765024965, 3765024958, 3765024978, 3765024973, 3765024977, 3765024962, 3765024959, 3765024960, 3765024976, 3765024966, 3765024967, 3765024974, 3765024970, 3765024979, 3765024981, 3765024980, 3765024969, 3765024963, 3765024975 ], "building": "yes", "building:levels": null, "roof:levels": null, "roof:shape": null, "addr:country": "DE", "nursery": null, "preschool": null, "education": null, "wheelchair": "yes", "loc_name": null, "start_date": null, "fixme": null, "source": null, "lunch": null, "fax": null, "isced:level": null, "official_name": null, "toilets:wheelchair": null, "wikidata": null, "ways": null, "type": null }, "geometry": { "type": "Polygon", "coordinates": [ [ [ 6.7151505, 49.7839289 ], [ 6.71529, 49.7838943 ], [ 6.7153437, 49.7838978 ], [ 6.7153329, 49.7839445 ], [ 6.7154456, 49.7839549 ], [ 6.7154778, 49.7837817 ], [ 6.7153705, 49.7837765 ], [ 6.7153168, 49.7837384 ], [ 6.7153142, 49.7836917 ], [ 6.7152632, 49.783664 ], [ 6.7152042, 49.7836778 ], [ 6.7151639, 49.7836761 ], [ 6.7151076, 49.7836415 ], [ 6.7150325, 49.7836692 ], [ 6.7150298, 49.7837038 ], [ 6.7150111, 49.7837229 ], [ 6.7149521, 49.7837384 ], [ 6.7149386, 49.7837869 ], [ 6.7149681, 49.7838025 ], [ 6.714995, 49.7838008 ], [ 6.7150057, 49.7838268 ], [ 6.7149977, 49.7838718 ], [ 6.7151076, 49.7839255 ], [ 6.7151505, 49.7839289 ] ] ] } },
{ "type": "Feature", "properties": { "element_type": "way", "osmid": 461378378, "amenity": "kindergarten", "check_date": null, "name": "Kath. Kindertagesstätte St. Peter", "website": null, "addr:city": "Trier", "addr:housenumber": "1", "addr:postcode": "54293", "addr:street": "Zur Stadtmauer", "capacity": null, "contact:email": null, "contact:fax": null, "contact:phone": null, "contact:website": null, "max_age": null, "min_age": null, "opening_hours": null, "operator": null, "operator:type": null, "operator:wikidata": null, "email": null, "phone": null, "description": null, "denomination": null, "note": null, "religion": null, "nodes": [ 4568833167, 5166505421, 4568833168, 12866377667, 4568833169, 4568833171, 4568833172, 4568833173, 4568833167 ], "building": "kindergarten", "building:levels": null, "roof:levels": null, "roof:shape": null, "addr:country": "DE", "nursery": null, "preschool": null, "education": null, "wheelchair": null, "loc_name": null, "start_date": null, "fixme": "Bitte Adresse überprüfen und genaue Maße fixen. Neubau, Abmessungen nur geschätzt.", "source": "Bing", "lunch": null, "fax": null, "isced:level": null, "official_name": null, "toilets:wheelchair": null, "wikidata": null, "ways": null, "type": null }, "geometry": { "type": "Polygon", "coordinates": [ [ [ 6.6870229, 49.8103941 ], [ 6.6870771, 49.8103417 ], [ 6.687191, 49.8103943 ], [ 6.6871986, 49.8103863 ], [ 6.68731, 49.8102763 ], [ 6.6870513, 49.8101648 ], [ 6.6869334, 49.810114 ], [ 6.6867606, 49.8102811 ], [ 6.6870229, 49.8103941 ] ] ] } },
{ "type": "Feature", "properties": { "element_type": "way", "osmid": 1041692307, "amenity": "kindergarten", "check_date": null, "name": "Montessori Kinderhaus St. Peter", "website": null, "addr:city": null, "addr:housenumber": null, "addr:postcode": null, "addr:street": null, "capacity": null, "contact:email": "montessori-trier@kita-ggmbh-trier.de", "contact:fax": "+49 651 1701776", "contact:phone": "+49 651 1701703", "contact:website": "https://www.kita-ggmbh-trier.de/unsere-kitas/t-u-v/trier-ehrang-montessori-kinderhaus/", "max_age": "6", "min_age": "0", "opening_hours": null, "operator": "Katholische KiTa gGmbH Trier", "operator:type": null, "operator:wikidata": null, "email": null, "phone": null, "description": null, "denomination": null, "note": null, "religion": null, "nodes": [ 9590032839, 9590032838, 9590032837, 12872038943, 9590032836, 9590032835, 9590032834, 9590032833, 12872038944, 9590032832, 9590032839 ], "building": null, "building:levels": null, "roof:levels": null, "roof:shape": null, "addr:country": null, "nursery": null, "preschool": null, "education": null, "wheelchair": null, "loc_name": null, "start_date": null, "fixme": null, "source": null, "lunch": null, "fax": null, "isced:level": "0", "official_name": null, "toilets:wheelchair": null, "wikidata": null, "ways": null, "type": null }, "geometry": { "type": "Polygon", "coordinates": [ [ [ 6.6997719, 49.8169947 ], [ 6.6997941, 49.8170121 ], [ 6.6999268, 49.8171167 ], [ 6.7004143, 49.8168558 ], [ 6.7000227, 49.8165374 ], [ 6.6996022, 49.816787 ], [ 6.6994273, 49.8166714 ], [ 6.6993581, 49.8166257 ], [ 6.6989779, 49.816887 ], [ 6.6994145, 49.8171907 ], [ 6.6997719, 49.8169947 ] ] ] } },
{ "type": "Feature", "properties": { "element_type": "way", "osmid": 444343435, "amenity": "kindergarten", "check_date": "2025-11-22", "name": "Integrative KiTa Haus Tobias", "website": "http://www.rcvtrier.caritas.de/73504.html", "addr:city": "Trier", "addr:housenumber": "16", "addr:postcode": "54293", "addr:street": "Von-Pidoll-Straße", "capacity": null, "contact:email": null, "contact:fax": null, "contact:phone": "+49 651 9955960", "contact:website": null, "max_age": null, "min_age": null, "opening_hours": null, "operator": "Caritasverband Trier", "operator:type": null, "operator:wikidata": null, "email": null, "phone": null, "description": null, "denomination": null, "note": null, "religion": null, "nodes": [ 4418301472, 4703908119, 4703908116, 4418301473, 4418301474, 4703908112, 4703908114, 4703908115, 4703908113, 4418301475, 4703908105, 4703908107, 4703908111, 4703908110, 4703908109, 4703908108, 4703908106, 4703908104, 4418301472 ], "building": "kindergarten", "building:levels": null, "roof:levels": null, "roof:shape": null, "addr:country": null, "nursery": null, "preschool": null, "education": null, "wheelchair": null, "loc_name": "Herrenhaus", "start_date": "1865", "fixme": null, "source": null, "lunch": null, "fax": null, "isced:level": null, "official_name": null, "toilets:wheelchair": null, "wikidata": null, "ways": null, "type": null }, "geometry": { "type": "Polygon", "coordinates": [ [ [ 6.7055394, 49.8228899 ], [ 6.705543, 49.8229358 ], [ 6.705549, 49.8230099 ], [ 6.7057549, 49.823002 ], [ 6.7057559, 49.8229418 ], [ 6.7058204, 49.8229396 ], [ 6.7058152, 49.8228623 ], [ 6.705749, 49.8228639 ], [ 6.705744, 49.8228078 ], [ 6.7056746, 49.8228098 ], [ 6.7056727, 49.8227935 ], [ 6.7056639, 49.8227858 ], [ 6.7056533, 49.82278 ], [ 6.705627, 49.82278 ], [ 6.7056087, 49.8227866 ], [ 6.7055995, 49.8227963 ], [ 6.7055998, 49.8228117 ], [ 6.7055333, 49.8228135 ], [ 6.7055394, 49.8228899 ] ] ] } }
]
}
