{
"type": "FeatureCollection",
"name": "schools_Trier, Germany",
"crs": { "type": "name", "properties": { "name": "urn:ogc:def:crs:OGC:1.3:CRS84" } },
"features": [
{ "type": "Feature", "properties": { "element_type": "way", "osmid": 337799484, "amenity": "school", "operator": null, "denomination": null, "religion": null, "start_date": null, "website": "http://www.ghs-zewen.de/", "check_date": null, "addr:city": null, "addr:housenumber": null, "addr:postcode": null, "addr:street": null, "email": null, "name": "Grundschule Zewen", "phone": null, "wheelchair": null, "nodes": [ 3448572312, 3448572314, 1644708968, 1644709072, 4061862241, 1644709103, 1644709224, 1644709265, 1644709317, 3448572317, 582456940, 1644709418, 3448572313, 3448572118, 3448572117, 3448572119, 3448572121, 3448572312 ], "addr:country": null, "contact:website": null, "isced:level": "1", "note": null, "old_name": null, "wikidata": null, "addr:housename": null, "fax": null, "operator:type": null, "toilets:wheelchair": null, "building": null, "opening_hours": null, "building:levels": null, "roof:shape": null, "contact:email": null, "contact:fax": null, "contact:phone": null, "wikipedia": null, "addr:suburb": null, "landuse": null, "education": null, "source": null, "short_name": null, "grades": null, "building:roof": null, "type": null, "ways": null }, "geometry": { "type": "Polygon", "coordinates": [ [ [ 6.5785681, 49.7195005 ], [ 6.5786397, 49.7195422 ], [ 6.578735, 49.7195963 ], [ 6.5787459, 49.7196041 ], [ 6.5787575, 49.7196124 ], [ 6.5788871, 49.7196845 ], [ 6.5789337, 49.7197151 ], [ 6.5790293, 49.7197687 ], [ 6.5790956, 49.7198096 ], [ 6.5791277, 49.7198294 ], [ 6.5791752, 49.7198655 ], [ 6.5797581, 49.7194948 ], [ 6.5793452, 49.7190869 ], [ 6.579253, 49.7190029 ], [ 6.5789784, 49.7191181 ], [ 6.5786745, 49.7193186 ], [ 6.5785467, 49.719488 ], [ 6.5785681, 49.7195005 ] ] ] } },
{ "type": "Feature", "properties": { "element_type": "way", "osmid": 160944479, "amenity": "school", "operator": null, "denomination": null, "religion": null, "start_date": null, "website": null, "check_date": null, "addr:city": "Trier", "addr:housenumber": "11", "addr:postcode": "54294", "addr:street": "Estricher Weg", "email": null, "name": "Grundschule Trier-Feyen", "phone": null, "wheelchair": "yes", "nodes": [ 1729104968, 1729104983, 1729104985, 1729104990, 1729097238, 1729097363, 1729104988, 1729097057, 1729096883, 1729104974, 1729104973, 1729104971, 1729104969, 1729104967, 1729104965, 1729104968 ], "addr:country": "DE", "contact:website": null, "isced:level": "1", "note": null, "old_name": null, "wikidata": null, "addr:housename": null, "fax": null, "operator:type": null, "toilets:wheelchair": "yes", "building": null, "opening_hours": null, "building:levels": null, "roof:shape": null, "contact:email": null, "contact:fax": null, "contact:phone": null, "wikipedia": null, "addr:suburb": null, "landuse": null, "education": null, "source": null, "short_name": null, "grades": null, "building:roof": null, "type": null, "ways": null }, "geometry": { "type": "Polygon", "coordinates": [ [ [ 6.6291022, 49.724822 ], [ 6.6288315, 49.7248743 ], [ 6.6287112, 49.7249185 ], [ 6.6286795, 49.7250033 ], [ 6.6286279, 49.7252215 ], [ 6.6285943, 49.725534 ], [ 6.6285895, 49.7256037 ], [ 6.6285767, 49.7257191 ], [ 6.6285989, 49.7257617 ], [ 6.629017, 49.7259323 ], [ 6.6290155, 49.7258504 ], [ 6.6289986, 49.7258509 ], [ 6.6290065, 49.7255515 ], [ 6.6290993, 49.7255466 ], [ 6.6290929, 49.7248789 ], [ 6.6291022, 49.724822 ] ] ] } },
{ "type": "Feature", "properties": { "element_type": "way", "osmid": 160774113, "amenity": "school", "operator": null, "denomination": null, "religion": null, "start_date": null, "website": "https://www.medardschule.de/", "check_date": "2025-03-02", "addr:city": "Trier", "addr:housenumber": "2", "addr:postcode": "54294", "addr:street": "Medardstraße", "email": null, "name": "Medard-Schule", "phone": null, "wheelchair": "yes", "nodes": [ 1728121385, 1728121375, 1728121344, 1728121231, 1728121230, 1728121209, 1728121233, 1728121205, 1728121212, 1728121202, 1728121188, 1728121185, 1728121182, 1728121180, 1728121227, 1728121409, 1728121418, 1728121425, 1728121431, 1728121430, 1728121406, 1728121396, 1728121385 ], "addr:country": "DE", "contact:website": null, "isced:level": "1;2", "note": null, "old_name": null, "wikidata": null, "addr:housename": null, "fax": null, "operator:type": null, "toilets:wheelchair": "yes", "building": null, "opening_hours": null, "building:levels": null, "roof:shape": null, "contact:email": null, "contact:fax": null, "contact:phone": null, "wikipedia": null, "addr:suburb": null, "landuse": null, "education": null, "source": null, "short_name": null, "grades": null, "building:roof": null, "type": null, "ways": null }, "geometry": { "type": "Polygon", "coordinates": [ [ [ 6.6292043, 49.7382143 ], [ 6.6290967, 49.7382205 ], [ 6.6291044, 49.7382896 ], [ 6.6291122, 49.7383339 ], [ 6.6302556, 49.738272 ], [ 6.6304599, 49.738244 ], [ 6.6305063, 49.7382254 ], [ 6.629932, 49.7374455 ], [ 6.6298337, 49.7373101 ], [ 6.6297551, 49.7373336 ], [ 6.629724, 49.7373398 ], [ 6.6296711, 49.7373455 ], [ 6.6297051, 49.7374003 ], [ 6.6295541, 49.7374313 ], [ 6.6295472, 49.7374163 ], [ 6.6292034, 49.7374869 ], [ 6.6291755, 49.7374233 ], [ 6.6289624, 49.7374624 ], [ 6.6288856, 49.7374695 ], [ 6.6289617, 49.7379523 ], [ 6.6290231, 49.7380706 ], [ 6.6291908, 49.7381418 ], [ 6.6292043, 49.7382143 ] ] ] } },
{ "type": "Feature", "properties": { "element_type": "way", "osmid": 571082879, "amenity": "school", "operator": null, "denomination": null, "religion": null, "start_date": null, "website": null, "check_date": null, "addr:city": null, "addr:housenumber": null, "addr:postcode": null, "addr:street": null, "email": null, "name": "Johann-Herrmann-Grundschule", "phone": null, "wheelchair": null, "nodes": [ 5489469938, 1627018749, 1627018727, 1627018711, 207507547, 7069903740, 8895679691, 1627018608, 5489469937, 5489469936, 1627018704, 1627018723, 10727764227, 5489469934, 5489469938 ], "addr:country": null, "contact:website": "https://www.gs-euren.de/", "isced:level": "1", "note": null, "old_name": null, "wikidata": null, "addr:housename": null, "fax": null, "operator:type": null, "toilets:wheelchair": null, "building": null, "opening_hours": null, "building:levels": null, "roof:shape": null, "contact:email": null, "contact:fax": null, "contact:phone": null, "wikipedia": null, "addr:suburb": null, "landuse": null, "education": null, "source": null, "short_name": null, "grades": null, "building:roof": null, "type": null, "ways": null }, "geometry": { "type": "Polygon", "coordinates": [ [ [ 6.6062887, 49.7395805 ], [ 6.60649, 49.7395659 ], [ 6.6065832, 49.7395637 ], [ 6.6066833, 49.7394864 ], [ 6.6069238, 49.7393081 ], [ 6.6064287, 49.7389218 ], [ 6.606006, 49.7391185 ], [ 6.6059499, 49.7390702 ], [ 6.6056837, 49.7391887 ], [ 6.6054853, 49.7392592 ], [ 6.6059136, 49.7395368 ], [ 6.6059579, 49.7395694 ], [ 6.6060579, 49.7396478 ], [ 6.6060743, 49.7396593 ], [ 6.6062887, 49.7395805 ] ] ] } },
{ "type": "Feature", "properties": { "element_type": "way", "osmid": 492658238, "amenity": "school", "operator": null, "denomination": null, "religion": null, "start_date": "1914", "website": "https://matthias-grundschule.eu", "check_date": null, "addr:city": "Trier", "addr:housenumber": "2-4", "addr:postcode": "54290", "addr:street": "Kentenichstraße", "email": null, "name": "Matthias-Grundschule", "phone": null, "wheelchair": null, "nodes": [ 1229369782, 4846474900, 4846474901, 4846474913, 4846474902, 4846474903, 4846474904, 4846474914, 1678198229, 1726721388, 1726721441, 4846474906, 4846474907, 4846506541, 4849874448, 4846474908, 4849874446, 4849874445, 1229369782 ], "addr:country": "DE", "contact:website": null, "isced:level": "1", "note": null, "old_name": null, "wikidata": null, "addr:housename": null, "fax": null, "operator:type": null, "toilets:wheelchair": null, "building": null, "opening_hours": null, "building:levels": null, "roof:shape": null, "contact:email": "info@matthias-grundschule.de", "contact:fax": null, "contact:phone": "+49 651 30625", "wikipedia": null, "addr:suburb": null, "landuse": null, "education": null, "source": "bing", "short_name": null, "grades": null, "building:roof": null, "type": null, "ways": null }, "geometry": { "type": "Polygon", "coordinates": [ [ [ 6.6310014, 49.7415027 ], [ 6.6311221, 49.7418173 ], [ 6.6314009, 49.7417743 ], [ 6.631508, 49.7417572 ], [ 6.6316462, 49.7417351 ], [ 6.6318091, 49.7417127 ], [ 6.6325798, 49.741697 ], [ 6.6325739, 49.7416484 ], [ 6.6324429, 49.7411869 ], [ 6.6324354, 49.7411577 ], [ 6.6323886, 49.741166 ], [ 6.6321558, 49.741207 ], [ 6.6320917, 49.7412177 ], [ 6.6318631, 49.7412462 ], [ 6.6317652, 49.7412533 ], [ 6.6315747, 49.7412606 ], [ 6.631325, 49.74127 ], [ 6.6313888, 49.7414441 ], [ 6.6310014, 49.7415027 ] ] ] } },
{ "type": "Feature", "properties": { "element_type": "way", "osmid": 571783496, "amenity": "school", "operator": null, "denomination": null, "religion": null, "start_date": null, "website": null, "check_date": null, "addr:city": "Trier", "addr:housenumber": "32a", "addr:postcode": "54294", "addr:street": "Jahnstraße", "email": null, "name": "Grundschule Reichertsberg", "phone": null, "wheelchair": null, "nodes": [ 5494502937, 5494501617, 5494502936, 8391846138, 1914299824, 5494502933, 5494502932, 5494502931, 5494502937 ], "addr:country": "DE", "contact:website": "https://www.grundschule-reichertsberg-trier.de/", "isced:level": "1", "note": null, "old_name": null, "wikidata": null, "addr:housename": null, "fax": null, "operator:type": null, "toilets:wheelchair": null, "building": null, "opening_hours": null, "building:levels": null, "roof:shape": null, "contact:email": null, "contact:fax": null, "contact:phone": null, "wikipedia": null, "addr:suburb": null, "landuse": null, "education": null, "source": null, "short_name": null, "grades": null, "building:roof": null, "type": null, "ways": null }, "geometry": { "type": "Polygon", "coordinates": [ [ [ 6.6125683, 49.7470938 ], [ 6.6123117, 49.7468983 ], [ 6.6120839, 49.7469515 ], [ 6.6119775, 49.7467928 ], [ 6.6113622, 49.7469694 ], [ 6.6118186, 49.7476685 ], [ 6.6122421, 49.747553 ], [ 6.6127918, 49.7474008 ], [ 6.6125683, 49.7470938 ] ] ] } },
{ "type": "Feature", "properties": { "element_type": "way", "osmid": 315324051, "amenity": "school", "operator": "Stadt Trier", "denomination": null, "religion": null, "start_date": null, "website": "https://www.nmr-trier.de/", "check_date": null, "addr:city": "Trier", "addr:housenumber": "12b", "addr:postcode": "54290", "addr:street": "Speestraße", "email": null, "name": "Nelson Mandela Realschule Plus", "phone": null, "wheelchair": null, "nodes": [ 1725104751, 602764513, 11383265337, 11383265336, 206184656, 11383265339, 11383265340, 11383265338, 11383265298, 1323770287, 1323770303, 1323770281, 1323770274, 330795394, 330795395, 603034015, 1323841272, 1725104870, 1725104847, 1323841290, 3214347491, 3214347488, 3214347496, 3336905240, 330795399, 1725104707, 3214347490, 1725104745, 330795392, 1725104751 ], "addr:country": "DE", "contact:website": null, "isced:level": "2", "note": null, "old_name": "Pestalozzi-Hauptschule", "wikidata": null, "addr:housename": null, "fax": null, "operator:type": "public", "toilets:wheelchair": null, "building": null, "opening_hours": null, "building:levels": null, "roof:shape": null, "contact:email": null, "contact:fax": null, "contact:phone": null, "wikipedia": null, "addr:suburb": null, "landuse": null, "education": null, "source": null, "short_name": null, "grades": null, "building:roof": null, "type": null, "ways": null }, "geometry": { "type": "Polygon", "coordinates": [ [ [ 6.628019, 49.7475232 ], [ 6.6280189, 49.7475958 ], [ 6.6280473, 49.7478093 ], [ 6.6280498, 49.7478271 ], [ 6.6280577, 49.7478415 ], [ 6.6280759, 49.7478488 ], [ 6.6281063, 49.7478495 ], [ 6.6281993, 49.747841 ], [ 6.6283785, 49.747828 ], [ 6.6283727, 49.747794 ], [ 6.6287216, 49.7477688 ], [ 6.6287204, 49.7476581 ], [ 6.6289737, 49.7476347 ], [ 6.6289431, 49.7474958 ], [ 6.6292546, 49.7474683 ], [ 6.6294596, 49.7474906 ], [ 6.6293539, 49.7472876 ], [ 6.6293212, 49.7472472 ], [ 6.629222, 49.7472638 ], [ 6.6290612, 49.7471302 ], [ 6.6289269, 49.7471554 ], [ 6.6289047, 49.7471596 ], [ 6.6288757, 49.7470345 ], [ 6.6288554, 49.7469465 ], [ 6.6286089, 49.7469705 ], [ 6.6286159, 49.7470009 ], [ 6.6283483, 49.747022 ], [ 6.6281408, 49.7470391 ], [ 6.6280552, 49.7470445 ], [ 6.628019, 49.7475232 ] ] ] } },
{ "type": "Feature", "properties": { "element_type": "way", "osmid": 117517723, "amenity": "school", "operator": null, "denomination": null, "religion": null, "start_date": null, "website": "https://barbara-grundschule.jimdofree.com/", "check_date": null, "addr:city": null, "addr:housenumber": null, "addr:postcode": null, "addr:street": null, "email": null, "name": "Barbara-Grundschule", "phone": null, "wheelchair": null, "nodes": [ 603034019, 603034023, 603034024, 1323841272, 603034015, 603034026, 1323770292, 1323770275, 1323770306, 1231220305, 1231220219, 1725105044, 1231220245, 1231220216, 1231220237, 1231220283, 1231220282, 1725105015, 1231220228, 2594285328, 11935533689, 11935533691, 1732696460, 11935533687, 603034020, 603034019 ], "addr:country": null, "contact:website": null, "isced:level": "1", "note": null, "old_name": null, "wikidata": "Q134303390", "addr:housename": null, "fax": null, "operator:type": null, "toilets:wheelchair": null, "building": null, "opening_hours": null, "building:levels": null, "roof:shape": null, "contact:email": null, "contact:fax": null, "contact:phone": null, "wikipedia": null, "addr:suburb": null, "landuse": null, "education": null, "source": null, "short_name": null, "grades": null, "building:roof": null, "type": null, "ways": null }, "geometry": { "type": "Polygon", "coordinates": [ [ [ 6.6297409, 49.7474315 ], [ 6.6295996, 49.7474558 ], [ 6.6294596, 49.7474906 ], [ 6.6292546, 49.7474683 ], [ 6.6292906, 49.7477639 ], [ 6.6292946, 49.747808 ], [ 6.6291476, 49.7479215 ], [ 6.629174, 49.7480915 ], [ 6.6292141, 49.748088 ], [ 6.6292362, 49.7482 ], [ 6.6293874, 49.7481876 ], [ 6.629638, 49.7481674 ], [ 6.6296392, 49.7481672 ], [ 6.6297697, 49.7481358 ], [ 6.6297298, 49.7480665 ], [ 6.6298723, 49.7480337 ], [ 6.6299053, 49.7480258 ], [ 6.6300582, 49.747989 ], [ 6.6301191, 49.7479717 ], [ 6.6299742, 49.7477147 ], [ 6.629946, 49.7476538 ], [ 6.6299401, 49.747641 ], [ 6.6299306, 49.7476204 ], [ 6.6298904, 49.7475335 ], [ 6.6297872, 49.7475509 ], [ 6.6297409, 49.7474315 ] ] ] } },
{ "type": "Feature", "properties": { "element_type": "way", "osmid": 92712804, "amenity": "school", "operator": "Bistum Trier", "denomination": "roman_catholic", "religion": "christian", "start_date": null, "website": "https://amg-trier.de/", "check_date": "2024-09-14", "addr:city": "Trier", "addr:housenumber": "35", "addr:postcode": "54290", "addr:street": "Neustraße", "email": "verwaltung@amg-trier.de", "name": "Bischöfliches Angela-Merici-Gymnasium", "phone": "+49 651 14598-0", "wheelchair": "yes", "nodes": [ 729536472, 4571755540, 4571755546, 729536485, 1428974112, 1428974091, 1428974081, 1428974079, 1428974075, 1428974071, 729536477, 1075247745, 1075247765, 1075247762, 1075247752, 1428974101, 1428974102, 1075247768, 1075247750, 1428905149, 1428905148, 3331645225, 1428974144, 1428974147, 6835760578, 729536472 ], "addr:country": null, "contact:website": null, "isced:level": "2;3", "note": null, "old_name": null, "wikidata": "Q108270289", "addr:housename": "Bischöfliches Angela-Merici-Gymnasium", "fax": "+49 651 14598-29", "operator:type": "religious", "toilets:wheelchair": "yes", "building": null, "opening_hours": null, "building:levels": null, "roof:shape": null, "contact:email": null, "contact:fax": null, "contact:phone": null, "wikipedia": null, "addr:suburb": null, "landuse": null, "education": null, "source": null, "short_name": null, "grades": null, "building:roof": null, "type": null, "ways": null }, "geometry": { "type": "Polygon", "coordinates": [ [ [ 6.6384043, 49.7511998 ], [ 6.6387077, 49.751126 ], [ 6.6390171, 49.7510438 ], [ 6.6389136, 49.7508072 ], [ 6.638837, 49.750649 ], [ 6.6388149, 49.7506122 ], [ 6.6388253, 49.7506009 ], [ 6.6388083, 49.7505662 ], [ 6.6387997, 49.7505499 ], [ 6.6387781, 49.7505079 ], [ 6.6381793, 49.750629 ], [ 6.6380316, 49.7506498 ], [ 6.63808, 49.7508104 ], [ 6.637817, 49.7508451 ], [ 6.6377759, 49.7507019 ], [ 6.6377693, 49.7507036 ], [ 6.63774, 49.7506416 ], [ 6.6375798, 49.7506756 ], [ 6.6376073, 49.7507433 ], [ 6.6376317, 49.7507384 ], [ 6.6377165, 49.7510154 ], [ 6.6377651, 49.7511727 ], [ 6.6381774, 49.7511186 ], [ 6.6382119, 49.7512287 ], [ 6.6383546, 49.7512093 ], [ 6.6384043, 49.7511998 ] ] ] } },
{ "type": "Feature", "properties": { "element_type": "way", "osmid": 499544996, "amenity": "school", "operator": "Stadt Trier", "denomination": null, "religion": null, "start_date": null, "website": null, "check_date": null, "addr:city": null, "addr:housenumber": null, "addr:postcode": null, "addr:street": null, "email": null, "name": "Humboldt-Gymnasium", "phone": null, "wheelchair": null, "nodes": [ 4576048712, 1428884645, 1428884634, 1428884631, 1428870783, 996210503, 996210504, 996210505, 996210506, 996210508, 996210511, 996210513, 11115727231, 996210516, 996210517, 996210484, 4576048710, 4576048711, 4576048712 ], "addr:country": null, "contact:website": "https://www.hgt-trier.de/start/", "isced:level": "2;3", "note": null, "old_name": null, "wikidata": "Q1636906", "addr:housename": null, "fax": null, "operator:type": null, "toilets:wheelchair": null, "building": null, "opening_hours": null, "building:levels": null, "roof:shape": null, "contact:email": "verwaltung@hgt-trier.de", "contact:fax": null, "contact:phone": "+49 651 97950", "wikipedia": "de:Humboldt-Gymnasium Trier", "addr:suburb": null, "landuse": null, "education": null, "source": null, "short_name": "HGT Trier", "grades": null, "building:roof": null, "type": null, "ways": null }, "geometry": { "type": "Polygon", "coordinates": [ [ [ 6.6337343, 49.7511397 ], [ 6.6336273, 49.7512264 ], [ 6.6337465, 49.7512878 ], [ 6.6344644, 49.7516654 ], [ 6.6345497, 49.7516006 ], [ 6.634559, 49.7515931 ], [ 6.6346109, 49.7515513 ], [ 6.6346792, 49.7515166 ], [ 6.634742, 49.751484 ], [ 6.634829, 49.7514486 ], [ 6.6349259, 49.7514205 ], [ 6.6350712, 49.7513883 ], [ 6.6348676, 49.7510073 ], [ 6.6347931, 49.7508501 ], [ 6.6342646, 49.7509193 ], [ 6.6339884, 49.7509556 ], [ 6.6336885, 49.7509975 ], [ 6.6337035, 49.7510403 ], [ 6.6337343, 49.7511397 ] ] ] } },
{ "type": "Feature", "properties": { "element_type": "way", "osmid": 160269594, "amenity": "school", "operator": null, "denomination": null, "religion": null, "start_date": null, "website": "https://www.waldorfschule-trier.de/", "check_date": null, "addr:city": null, "addr:housenumber": null, "addr:postcode": null, "addr:street": null, "email": null, "name": "Waldorfschule Trier", "phone": "+49 651 9930136", "wheelchair": null, "nodes": [ 1722603770, 1722643891, 1722603765, 1723237190, 1723237197, 1723237192, 1723237214, 1723237216, 1723237219, 1723237321, 1723237505, 1723237565, 1723237698, 1723237936, 1723238083, 1723238196, 1723238226, 1722643895, 1722643894, 1722643892, 1723237372, 1722603770 ], "addr:country": null, "contact:website": null, "isced:level": "1;2;3", "note": null, "old_name": null, "wikidata": "Q56249881", "addr:housename": null, "fax": null, "operator:type": null, "toilets:wheelchair": null, "building": null, "opening_hours": null, "building:levels": null, "roof:shape": null, "contact:email": null, "contact:fax": null, "contact:phone": null, "wikipedia": null, "addr:suburb": null, "landuse": null, "education": "school", "source": null, "short_name": null, "grades": null, "building:roof": null, "type": null, "ways": null }, "geometry": { "type": "Polygon", "coordinates": [ [ [ 6.645922, 49.7291371 ], [ 6.6458878, 49.7292892 ], [ 6.6461016, 49.7298919 ], [ 6.6463144, 49.7301458 ], [ 6.6467885, 49.7306327 ], [ 6.6477961, 49.7302803 ], [ 6.6477216, 49.7300605 ], [ 6.647734, 49.7298353 ], [ 6.6478646, 49.7296052 ], [ 6.6478254, 49.7292715 ], [ 6.6481153, 49.7292844 ], [ 6.648416, 49.7290782 ], [ 6.6484084, 49.7288929 ], [ 6.6482064, 49.7288741 ], [ 6.6477952, 49.7288715 ], [ 6.6474233, 49.7287543 ], [ 6.64714, 49.728726 ], [ 6.6467022, 49.7286822 ], [ 6.6464136, 49.7287522 ], [ 6.6461268, 49.7289164 ], [ 6.6460132, 49.7289301 ], [ 6.645922, 49.7291371 ] ] ] } },
{ "type": "Feature", "properties": { "element_type": "way", "osmid": 160272905, "amenity": "school", "operator": null, "denomination": null, "religion": null, "start_date": null, "website": "https://igs-trier.de/", "check_date": null, "addr:city": null, "addr:housenumber": null, "addr:postcode": null, "addr:street": null, "email": null, "name": "Integrierte Gesamtschule Trier", "phone": null, "wheelchair": null, "nodes": [ 1723275982, 1723276049, 1723276097, 1723276379, 1723276394, 1723276402, 1723276405, 1723276398, 8040694132, 8040694113, 8040694120, 1723276397, 8040694131, 8040694115, 8040694123, 1723276358, 1723276196, 1723275909, 1723275906, 1723275982 ], "addr:country": null, "contact:website": null, "isced:level": "2;3", "note": null, "old_name": null, "wikidata": null, "addr:housename": null, "fax": null, "operator:type": null, "toilets:wheelchair": null, "building": null, "opening_hours": null, "building:levels": null, "roof:shape": null, "contact:email": null, "contact:fax": null, "contact:phone": null, "wikipedia": null, "addr:suburb": null, "landuse": null, "education": null, "source": null, "short_name": null, "grades": null, "building:roof": null, "type": null, "ways": null }, "geometry": { "type": "Polygon", "coordinates": [ [ [ 6.6493452, 49.7297763 ], [ 6.6490878, 49.7297702 ], [ 6.6490422, 49.7303192 ], [ 6.6492367, 49.7306199 ], [ 6.6499287, 49.7309497 ], [ 6.6501512, 49.7309736 ], [ 6.6506326, 49.7308452 ], [ 6.6508621, 49.7307662 ], [ 6.6509725, 49.7308115 ], [ 6.6509766, 49.7309636 ], [ 6.6516031, 49.7310472 ], [ 6.651707, 49.7307332 ], [ 6.6518148, 49.7302134 ], [ 6.6513316, 49.7302164 ], [ 6.6512717, 49.7301339 ], [ 6.6512531, 49.7297166 ], [ 6.6511278, 49.7297126 ], [ 6.6501515, 49.7296813 ], [ 6.6501515, 49.7297887 ], [ 6.6493452, 49.7297763 ] ] ] } },
{ "type": "Feature", "properties": { "element_type": "way", "osmid": 472644430, "amenity": "school", "operator": null, "denomination": null, "religion": null, "start_date": null, "website": null, "check_date": null, "addr:city": null, "addr:housenumber": null, "addr:postcode": null, "addr:street": null, "email": null, "name": "Grundschule Mariahof", "phone": null, "wheelchair": "no", "nodes": [ 4668427321, 4668427322, 4668427323, 11637775089, 11637775090, 4668427324, 4668427325, 4668427321 ], "addr:country": null, "contact:website": null, "isced:level": "1", "note": null, "old_name": null, "wikidata": null, "addr:housename": null, "fax": null, "operator:type": null, "toilets:wheelchair": null, "building": null, "opening_hours": null, "building:levels": null, "roof:shape": null, "contact:email": null, "contact:fax": null, "contact:phone": null, "wikipedia": null, "addr:suburb": null, "landuse": null, "education": null, "source": "Bing", "short_name": null, "grades": null, "building:roof": null, "type": null, "ways": null }, "geometry": { "type": "Polygon", "coordinates": [ [ [ 6.6597817, 49.7307181 ], [ 6.6594387, 49.7300359 ], [ 6.6593143, 49.7300435 ], [ 6.6588842, 49.7300699 ], [ 6.658683, 49.7300822 ], [ 6.6587179, 49.7306599 ], [ 6.6587246, 49.7307713 ], [ 6.6597817, 49.7307181 ] ] ] } },
{ "type": "Feature", "properties": { "element_type": "way", "osmid": 516881080, "amenity": "school", "operator": null, "denomination": null, "religion": null, "start_date": null, "website": "https://grundschule-heiligkreuz.de/", "check_date": null, "addr:city": "Trier", "addr:housenumber": "21", "addr:postcode": "54295", "addr:street": "Rotbachstraße", "email": "post@grundschule-heiligkreuz.de", "name": "Grundschule Heiligkreuz", "phone": "+49 651 309872", "wheelchair": null, "nodes": [ 1721683193, 5045158008, 7858753360, 5045158009, 5045158010, 11071756321, 1721683185, 1721683193 ], "addr:country": "DE", "contact:website": null, "isced:level": "1", "note": null, "old_name": null, "wikidata": null, "addr:housename": null, "fax": "+49 651 981297 0", "operator:type": null, "toilets:wheelchair": null, "building": null, "opening_hours": null, "building:levels": null, "roof:shape": null, "contact:email": null, "contact:fax": null, "contact:phone": null, "wikipedia": null, "addr:suburb": null, "landuse": null, "education": null, "source": null, "short_name": null, "grades": "1-4", "building:roof": null, "type": null, "ways": null }, "geometry": { "type": "Polygon", "coordinates": [ [ [ 6.6424611, 49.74134 ], [ 6.6422631, 49.7411498 ], [ 6.6417, 49.7406032 ], [ 6.6412189, 49.7407242 ], [ 6.6414282, 49.7410155 ], [ 6.6416089, 49.7412688 ], [ 6.6417757, 49.7415141 ], [ 6.6424611, 49.74134 ] ] ] } },
{ "type": "Feature", "properties": { "element_type": "way", "osmid": 160211513, "amenity": "school", "operator": "Ursulinenkongregation Calvarienberg-Ahrweiler", "denomination": null, "religion": null, "start_date": null, "website": "https://www.bmrtrier.de/", "check_date": null, "addr:city": "Trier", "addr:housenumber": "26", "addr:postcode": "54295", "addr:street": "Bernhardstraße", "email": null, "name": "Blandine-Merten-Realschule", "phone": null, "wheelchair": "limited", "nodes": [ 1722766087, 1722766072, 1722766045, 1722766047, 1722766041, 1722766038, 1722776483, 1722776498, 1722766036, 13188297544, 1722766065, 1722766106, 1722766140, 1722766157, 599925172, 599925170, 599925167, 599925166, 1722731831, 599925163, 1722766158, 6315724794, 1722766155, 1722766148, 1722766142, 1722766132, 1722766135, 1722766120, 1722766112, 1722766108, 1722766087 ], "addr:country": null, "contact:website": null, "isced:level": "2", "note": null, "old_name": null, "wikidata": null, "addr:housename": null, "fax": null, "operator:type": null, "toilets:wheelchair": null, "building": null, "opening_hours": null, "building:levels": null, "roof:shape": null, "contact:email": null, "contact:fax": null, "contact:phone": null, "wikipedia": null, "addr:suburb": null, "landuse": "education", "education": null, "source": null, "short_name": null, "grades": null, "building:roof": null, "type": null, "ways": null }, "geometry": { "type": "Polygon", "coordinates": [ [ [ 6.6387907, 49.7447999 ], [ 6.6388088, 49.7448553 ], [ 6.6388985, 49.7448678 ], [ 6.6388663, 49.744959 ], [ 6.6389091, 49.7449588 ], [ 6.6389082, 49.7449908 ], [ 6.6388641, 49.7449928 ], [ 6.6388868, 49.7450915 ], [ 6.6394135, 49.745162 ], [ 6.6397203, 49.7452031 ], [ 6.6399311, 49.7453256 ], [ 6.640124, 49.7453793 ], [ 6.6403715, 49.7454977 ], [ 6.6403642, 49.7455399 ], [ 6.6407863, 49.7456587 ], [ 6.6408634, 49.7453877 ], [ 6.6407841, 49.7451518 ], [ 6.6405796, 49.7449395 ], [ 6.6409647, 49.7446256 ], [ 6.6413701, 49.7444247 ], [ 6.6412756, 49.744286 ], [ 6.6411883, 49.7440566 ], [ 6.6408921, 49.7441785 ], [ 6.6407368, 49.7441324 ], [ 6.6403306, 49.7442488 ], [ 6.640347, 49.7442712 ], [ 6.6397575, 49.7444062 ], [ 6.6394953, 49.7444007 ], [ 6.6390712, 49.7444932 ], [ 6.6386689, 49.7446203 ], [ 6.6387907, 49.7447999 ] ] ] } },
{ "type": "Feature", "properties": { "element_type": "way", "osmid": 500430170, "amenity": "school", "operator": "Stadt Trier", "denomination": null, "religion": null, "start_date": null, "website": "http://www.fwg-trier.com/", "check_date": "2025-12-12", "addr:city": null, "addr:housenumber": null, "addr:postcode": null, "addr:street": null, "email": null, "name": "Friedrich-Wilhelm-Gymnasium", "phone": null, "wheelchair": null, "nodes": [ 3325515757, 4914857112, 4914857113, 5756148210, 5756148206, 5756148218, 132280262, 5756148216, 5756148207, 2355430328, 4818572363, 5756148209, 4818572364, 4818572365, 5756148208, 4545285735, 600069030, 1722748922, 1387779345, 4914857115, 1722748919, 4914857116, 4914857117, 4914857118, 3325515751, 3325515752, 3325515753, 4914857119, 3325515754, 3325515755, 4914857120, 3325515756, 3325515757 ], "addr:country": null, "contact:website": null, "isced:level": "2;3", "note": null, "old_name": null, "wikidata": "Q1457868", "addr:housename": null, "fax": null, "operator:type": null, "toilets:wheelchair": null, "building": null, "opening_hours": null, "building:levels": null, "roof:shape": null, "contact:email": "verwaltung@fwg-trier.com", "contact:fax": "+49 651 966383 18", "contact:phone": null, "wikipedia": "de:Friedrich-Wilhelm-Gymnasium (Trier)", "addr:suburb": null, "landuse": null, "education": null, "source": null, "short_name": "FWG Trier", "grades": "5-12", "building:roof": null, "type": null, "ways": null }, "geometry": { "type": "Polygon", "coordinates": [ [ [ 6.6437278, 49.7482422 ], [ 6.6446611, 49.7480621 ], [ 6.6446237, 49.7480001 ], [ 6.6448057, 49.7479458 ], [ 6.6446737, 49.7477711 ], [ 6.6447869, 49.7477307 ], [ 6.644852, 49.7477099 ], [ 6.6448993, 49.7476958 ], [ 6.6447503, 49.7475147 ], [ 6.6446712, 49.7473197 ], [ 6.6447522, 49.747307 ], [ 6.6448477, 49.7472967 ], [ 6.6447362, 49.7469505 ], [ 6.644726, 49.7469221 ], [ 6.6440429, 49.7470694 ], [ 6.6439895, 49.7470734 ], [ 6.6439066, 49.7470684 ], [ 6.6438333, 49.7470547 ], [ 6.643763, 49.7470247 ], [ 6.643716, 49.7469963 ], [ 6.6435525, 49.7470112 ], [ 6.6435161, 49.7472119 ], [ 6.6434474, 49.7474063 ], [ 6.6433946, 49.7476041 ], [ 6.6433419, 49.7477371 ], [ 6.6432425, 49.7479089 ], [ 6.6432472, 49.7479262 ], [ 6.6432597, 49.747972 ], [ 6.6433339, 49.7480684 ], [ 6.643347, 49.7480787 ], [ 6.6434315, 49.7481448 ], [ 6.6436108, 49.7482083 ], [ 6.6437278, 49.7482422 ] ] ] } },
{ "type": "Feature", "properties": { "element_type": "way", "osmid": 130051163, "amenity": "school", "operator": "Bistum Trier", "denomination": null, "religion": "christian", "start_date": null, "website": null, "check_date": null, "addr:city": "Trier", "addr:housenumber": "5", "addr:postcode": "54290", "addr:street": "Dominikanerstraße", "email": null, "name": "Grundschule am Dom", "phone": null, "wheelchair": null, "nodes": [ 1429032057, 1433575426, 1433575434, 1433575431, 1433575436, 1433575425, 1433575438, 1433575441, 1433575443, 1433575446, 1433575454, 1433575447, 1433575452, 1433575455, 1433575459, 1433575463, 1433575472, 1433575461, 1433575468, 1433575471, 1433575475, 1433575481, 1433575478, 1433575480, 4239611338, 1433575450, 1429032081, 1429032057 ], "addr:country": "DE", "contact:website": "https://www.grundschule-am-dom.de/", "isced:level": "1", "note": null, "old_name": "Bischöfliche Grundschule St. Paulin", "wikidata": "Q866233", "addr:housename": null, "fax": null, "operator:type": null, "toilets:wheelchair": null, "building": "school", "opening_hours": null, "building:levels": "2", "roof:shape": "flat", "contact:email": "grundschule-am-dom@bgv-trier.de", "contact:fax": null, "contact:phone": null, "wikipedia": "de:Grundschule am Dom", "addr:suburb": null, "landuse": null, "education": null, "source": null, "short_name": null, "grades": null, "building:roof": null, "type": null, "ways": null }, "geometry": { "type": "Polygon", "coordinates": [ [ [ 6.6459887, 49.755632 ], [ 6.6460194, 49.7556246 ], [ 6.6460411, 49.7556619 ], [ 6.6461691, 49.7558816 ], [ 6.6462587, 49.7558598 ], [ 6.6462731, 49.7558845 ], [ 6.6465996, 49.7558051 ], [ 6.6465889, 49.7557867 ], [ 6.6466666, 49.7557678 ], [ 6.6466302, 49.7557051 ], [ 6.646298, 49.7557858 ], [ 6.6462619, 49.7557238 ], [ 6.6464359, 49.7556815 ], [ 6.6464258, 49.7556643 ], [ 6.6465047, 49.7556451 ], [ 6.646468, 49.7555821 ], [ 6.6462141, 49.7556438 ], [ 6.646179, 49.7555836 ], [ 6.6463054, 49.7555529 ], [ 6.646295, 49.7555351 ], [ 6.6463757, 49.7555155 ], [ 6.6463394, 49.7554532 ], [ 6.64613, 49.7555041 ], [ 6.6461158, 49.7554798 ], [ 6.6460751, 49.7554897 ], [ 6.6460549, 49.755455 ], [ 6.6459067, 49.7554911 ], [ 6.6459887, 49.755632 ] ] ] } },
{ "type": "Feature", "properties": { "element_type": "way", "osmid": 129538424, "amenity": "school", "operator": "Bistum Trier", "denomination": null, "religion": null, "start_date": null, "website": null, "check_date": null, "addr:city": "Trier", "addr:housenumber": "3", "addr:postcode": "54290", "addr:street": "Dominikanerstraße", "email": null, "name": "St. Helena-Schule", "phone": null, "wheelchair": null, "nodes": [ 1429032118, 1429038401, 1429038398, 1429032094, 1429032090, 4496759514, 4496759513, 1429032108, 1429032118 ], "addr:country": "DE", "contact:website": "https://www.bbs-helena-trier.de/", "isced:level": "3;4", "note": null, "old_name": null, "wikidata": "Q105715866", "addr:housename": null, "fax": null, "operator:type": null, "toilets:wheelchair": null, "building": "school", "opening_hours": null, "building:levels": "3", "roof:shape": "flat", "contact:email": "st-helena-schule@bistum-trier.de", "contact:fax": "+49 651 49794", "contact:phone": "+49 651 41373", "wikipedia": "de:St. Helena-Schule Trier", "addr:suburb": null, "landuse": null, "education": null, "source": null, "short_name": null, "grades": null, "building:roof": null, "type": null, "ways": null }, "geometry": { "type": "Polygon", "coordinates": [ [ [ 6.6460466, 49.7559365 ], [ 6.6459426, 49.7557647 ], [ 6.6459728, 49.755757 ], [ 6.6459306, 49.7556875 ], [ 6.6455793, 49.7557764 ], [ 6.645663, 49.7559144 ], [ 6.645681, 49.7559441 ], [ 6.6457237, 49.7560147 ], [ 6.6460466, 49.7559365 ] ] ] } },
{ "type": "Feature", "properties": { "element_type": "way", "osmid": 1427363757, "amenity": "school", "operator": "Stadt Trier", "denomination": null, "religion": null, "start_date": null, "website": null, "check_date": null, "addr:city": "Trier", "addr:housenumber": "6", "addr:postcode": "54290", "addr:street": "Sichelstraße", "email": null, "name": "Max-Planck-Gymnasium", "phone": null, "wheelchair": "no", "nodes": [ 1433585316, 4498427742, 1433585350, 1433585357, 1433585413, 4498427746, 4498427744, 4498427743, 4498427745, 1433585421, 1433585420, 1433585431, 1433585438, 1531008001, 1433585441, 4498427759, 4498427758, 1433585464, 1433585469, 2531055188, 2531055187, 1429038466, 1531051719, 4498427749, 1531051718, 1531008002, 1433585466, 1433585451, 1433585450, 1433585426, 11394955660, 4498427748, 4498427747, 1433585387, 1433585367, 1433585389, 1433585383, 1433585364, 1433585340, 1433585325, 1433585330, 1433585303, 1433585316 ], "addr:country": "DE", "contact:website": null, "isced:level": "2;3", "note": null, "old_name": null, "wikidata": "Q1912053", "addr:housename": "Max-Planck-Gymnasium", "fax": null, "operator:type": null, "toilets:wheelchair": "yes", "building": "school", "opening_hours": null, "building:levels": null, "roof:shape": null, "contact:email": null, "contact:fax": null, "contact:phone": null, "wikipedia": "de:Max-Planck-Gymnasium (Trier)", "addr:suburb": null, "landuse": null, "education": null, "source": null, "short_name": "MPG Trier", "grades": null, "building:roof": null, "type": "site", "ways": null }, "geometry": { "type": "Polygon", "coordinates": [ [ [ 6.6470385, 49.7561716 ], [ 6.6470833, 49.7562198 ], [ 6.647052, 49.7562327 ], [ 6.6472712, 49.7564807 ], [ 6.6472283, 49.7564957 ], [ 6.6472135, 49.7564753 ], [ 6.6471414, 49.7565016 ], [ 6.6471562, 49.7565231 ], [ 6.6471188, 49.7565374 ], [ 6.6471096, 49.7565283 ], [ 6.6469647, 49.7565844 ], [ 6.6469899, 49.7566128 ], [ 6.6469617, 49.7566236 ], [ 6.6469384, 49.7566323 ], [ 6.6469052, 49.7565979 ], [ 6.6466627, 49.7566868 ], [ 6.6466968, 49.7567221 ], [ 6.6466454, 49.7567403 ], [ 6.6466, 49.7567306 ], [ 6.6465592, 49.7568186 ], [ 6.6465889, 49.7568021 ], [ 6.6466634, 49.7568795 ], [ 6.6467401, 49.7568507 ], [ 6.6467468, 49.7568575 ], [ 6.6470613, 49.7567431 ], [ 6.647091, 49.7567323 ], [ 6.6472314, 49.7566793 ], [ 6.6472395, 49.7566703 ], [ 6.6475559, 49.7565541 ], [ 6.6475513, 49.7565489 ], [ 6.6475023, 49.7564936 ], [ 6.6474674, 49.7565092 ], [ 6.6473063, 49.7563298 ], [ 6.6473873, 49.7562735 ], [ 6.6474899, 49.7563384 ], [ 6.6475694, 49.7562972 ], [ 6.6476577, 49.7562491 ], [ 6.6475318, 49.7561705 ], [ 6.6473356, 49.7560495 ], [ 6.6472889, 49.7560788 ], [ 6.6468965, 49.755841 ], [ 6.6467119, 49.7559768 ], [ 6.6470385, 49.7561716 ] ] ] } },
{ "type": "Feature", "properties": { "element_type": "relation", "osmid": 19568562, "amenity": "school", "operator": null, "denomination": null, "religion": null, "start_date": null, "website": "https://www.avg-trier.de/", "check_date": null, "addr:city": null, "addr:housenumber": null, "addr:postcode": null, "addr:street": null, "email": null, "name": "Auguste-Viktoria-Gymnasium", "phone": null, "wheelchair": null, "nodes": [ [ [ 4573611789, 4573611588, 4573611587, 4573611586, 4573611585, 4573611584, 4573611583, 4573611582, 4573611581, 4573611575, 4573611576, 4573611577, 4573611578, 4573611579, 4573611574, 4573611580, 1429042363, 1429042366, 1429042370, 6185798203, 1429042371, 1429042369, 1429042373, 1429042374, 1726511291, 13267631797, 1726511310, 13267631795, 13267631796, 13267631791, 13267631778, 13267631777, 13267631792, 13267631793, 13267631776, 13267631775, 13267631794, 1726511319, 1726511325, 13267631785, 13267631784, 13267631783, 13267631786, 13267631787, 13267631782, 13267631781, 13267631788, 13267631789, 13267631780, 13267631779, 13267631790, 1429042377, 4494880860, 7164574282, 4494880861, 4494880862, 4494880859, 4573611789 ], [ 2531055182, 4498427755, 4498427757, 4498427756, 4498427754, 4241035999, 4498427753, 4498427752, 2531055184, 10903362278, 2531055185, 10903362279, 2531055186, 2531055187, 2531055188, 2531055189, 2531055190, 2531055191, 4498427750, 4498427751, 2531055192, 2531055193, 2531055195, 2531055196, 2531055197, 2531055198, 10903362277, 2531055182 ] ] ], "addr:country": null, "contact:website": null, "isced:level": "2;3", "note": null, "old_name": null, "wikidata": "Q766044", "addr:housename": null, "fax": null, "operator:type": null, "toilets:wheelchair": null, "building": null, "opening_hours": null, "building:levels": null, "roof:shape": null, "contact:email": null, "contact:fax": null, "contact:phone": null, "wikipedia": "de:Auguste-Viktoria-Gymnasium Trier", "addr:suburb": null, "landuse": null, "education": null, "source": null, "short_name": "AVG Trier", "grades": null, "building:roof": null, "type": "multipolygon", "ways": [ 499443927, 246018225 ] }, "geometry": { "type": "MultiPolygon", "coordinates": [ [ [ [ 6.6457588, 49.7577387 ], [ 6.6457856, 49.7577352 ], [ 6.6458124, 49.7577291 ], [ 6.6458379, 49.7577222 ], [ 6.6458687, 49.7577144 ], [ 6.645905, 49.7576997 ], [ 6.6459345, 49.7576841 ], [ 6.6461008, 49.7575914 ], [ 6.6461542, 49.7575549 ], [ 6.6462191, 49.7575098 ], [ 6.6460378, 49.75743 ], [ 6.6458578, 49.7571113 ], [ 6.645652, 49.7570224 ], [ 6.6455888, 49.7570978 ], [ 6.6455118, 49.7571331 ], [ 6.6455409, 49.7571824 ], [ 6.6453842, 49.7572228 ], [ 6.6454168, 49.7572746 ], [ 6.6453965, 49.7572799 ], [ 6.6453753, 49.7572856 ], [ 6.6453561, 49.7572545 ], [ 6.6452003, 49.7572939 ], [ 6.6452195, 49.7573261 ], [ 6.6451623, 49.7573405 ], [ 6.6452213, 49.7574386 ], [ 6.645244, 49.7574328 ], [ 6.6452543, 49.7574514 ], [ 6.6452329, 49.7574566 ], [ 6.6452466, 49.7574796 ], [ 6.645261, 49.7574761 ], [ 6.6452672, 49.7574856 ], [ 6.6452525, 49.7574892 ], [ 6.6452759, 49.7575282 ], [ 6.6452906, 49.7575244 ], [ 6.6452984, 49.7575366 ], [ 6.6452832, 49.7575404 ], [ 6.6453066, 49.7575794 ], [ 6.6451631, 49.7576171 ], [ 6.6451374, 49.7575746 ], [ 6.6451173, 49.7575797 ], [ 6.6451107, 49.7575681 ], [ 6.6451305, 49.7575632 ], [ 6.6451068, 49.757524 ], [ 6.6450869, 49.7575291 ], [ 6.6450802, 49.7575184 ], [ 6.6451003, 49.7575133 ], [ 6.6450775, 49.7574757 ], [ 6.6450581, 49.7574809 ], [ 6.6450511, 49.75747 ], [ 6.645071, 49.757465 ], [ 6.6450176, 49.7573765 ], [ 6.6449836, 49.7573896 ], [ 6.6446357, 49.7575591 ], [ 6.6446065, 49.7575735 ], [ 6.644651, 49.7576877 ], [ 6.6451677, 49.7577368 ], [ 6.6457333, 49.7577404 ], [ 6.6457588, 49.7577387 ] ] ], [ [ [ 6.6461519, 49.7560195 ], [ 6.6461444, 49.7560104 ], [ 6.6460741, 49.7560299 ], [ 6.646075, 49.7560397 ], [ 6.6459568, 49.7560731 ], [ 6.6459896, 49.7561248 ], [ 6.6459184, 49.7561409 ], [ 6.645904, 49.756112 ], [ 6.6458563, 49.7561194 ], [ 6.6455738, 49.7561631 ], [ 6.6456398, 49.7563422 ], [ 6.6457583, 49.7566636 ], [ 6.6465592, 49.7568186 ], [ 6.6466, 49.7567306 ], [ 6.6462481, 49.7566572 ], [ 6.6462798, 49.7565858 ], [ 6.6458912, 49.7565069 ], [ 6.6458508, 49.7565141 ], [ 6.6458253, 49.756445 ], [ 6.6458582, 49.7564412 ], [ 6.6460185, 49.7564173 ], [ 6.6459627, 49.756269 ], [ 6.6460717, 49.7562391 ], [ 6.646098, 49.7562761 ], [ 6.646564, 49.7561441 ], [ 6.6464685, 49.7560024 ], [ 6.6464265, 49.75594 ], [ 6.6461519, 49.7560195 ] ] ] ] } },
{ "type": "Feature", "properties": { "element_type": "way", "osmid": 495702305, "amenity": "school", "operator": "Stadt Trier", "denomination": null, "religion": null, "start_date": null, "website": null, "check_date": "2024-09-04", "addr:city": null, "addr:housenumber": null, "addr:postcode": null, "addr:street": null, "email": null, "name": "Grundschule Trier-Irsch", "phone": null, "wheelchair": null, "nodes": [ 4874325454, 4874325458, 4874325457, 4874325455, 4874325451, 4874325445, 4874325442, 4874325439, 4874325454 ], "addr:country": null, "contact:website": null, "isced:level": "1", "note": null, "old_name": null, "wikidata": null, "addr:housename": null, "fax": null, "operator:type": null, "toilets:wheelchair": null, "building": null, "opening_hours": null, "building:levels": null, "roof:shape": null, "contact:email": null, "contact:fax": null, "contact:phone": null, "wikipedia": null, "addr:suburb": null, "landuse": null, "education": null, "source": null, "short_name": null, "grades": null, "building:roof": null, "type": null, "ways": null }, "geometry": { "type": "Polygon", "coordinates": [ [ [ 6.6975993, 49.7248277 ], [ 6.6977334, 49.7246955 ], [ 6.6979413, 49.7246331 ], [ 6.6980566, 49.7245056 ], [ 6.6982417, 49.7244276 ], [ 6.6981867, 49.7243713 ], [ 6.6976355, 49.7241051 ], [ 6.6971031, 49.7246023 ], [ 6.6975993, 49.7248277 ] ] ] } },
{ "type": "Feature", "properties": { "element_type": "way", "osmid": 134203064, "amenity": "school", "operator": null, "denomination": null, "religion": null, "start_date": null, "website": "https://gstarforst.de/", "check_date": "2025-03-10", "addr:city": "Trier", "addr:housenumber": "206", "addr:postcode": "54296", "addr:street": "Am Trimmelter Hof", "email": null, "name": "Grundschule Tarforst", "phone": null, "wheelchair": null, "nodes": [ 1476117335, 1485519168, 1476117357, 3408207390, 3408207389, 3408207386, 3408207385, 1476117339, 1476117361, 12558941698, 1620540596, 1476117335 ], "addr:country": null, "contact:website": null, "isced:level": "1", "note": null, "old_name": null, "wikidata": null, "addr:housename": null, "fax": null, "operator:type": null, "toilets:wheelchair": null, "building": null, "opening_hours": null, "building:levels": null, "roof:shape": null, "contact:email": "gstriertarforst@web.de", "contact:fax": "+49 651 9679185", "contact:phone": "+49 651 10326", "wikipedia": null, "addr:suburb": "Tarforst", "landuse": null, "education": null, "source": null, "short_name": null, "grades": null, "building:roof": null, "type": null, "ways": null }, "geometry": { "type": "Polygon", "coordinates": [ [ [ 6.6926017, 49.7392439 ], [ 6.6934297, 49.7398948 ], [ 6.6934728, 49.7398923 ], [ 6.6935298, 49.7398672 ], [ 6.6936185, 49.7398192 ], [ 6.6937884, 49.7396703 ], [ 6.6944398, 49.7391278 ], [ 6.6944309, 49.7391151 ], [ 6.6944213, 49.7390993 ], [ 6.6944664, 49.7390822 ], [ 6.6940031, 49.7385567 ], [ 6.6926017, 49.7392439 ] ] ] } },
{ "type": "Feature", "properties": { "element_type": "way", "osmid": 1141737759, "amenity": "school", "operator": null, "denomination": null, "religion": null, "start_date": null, "website": "https://whc-schule.rlp.de/", "check_date": null, "addr:city": null, "addr:housenumber": "201", "addr:postcode": "54296", "addr:street": "Am Trimmelter Hof", "email": null, "name": "Wilhelm-Hubert-Cüppers Gehörlosenschule", "phone": null, "wheelchair": null, "nodes": [ 1476117313, 1476117307, 12584793164, 12582488186, 12584817608, 12584817607, 12584817606, 1476117380, 12584793180, 1476117326, 1476117314, 1476117405, 1476117360, 12584793178, 1476117415, 1476117348, 12584793176, 12584793175, 10634540634, 1476117400, 1476117311, 1476117343, 1476117393, 1476117408, 12584793165, 1476117378, 1476117373, 1476117317, 1476117350, 1476117296, 1476117313 ], "addr:country": null, "contact:website": null, "isced:level": "1;2", "note": null, "old_name": null, "wikidata": null, "addr:housename": null, "fax": null, "operator:type": null, "toilets:wheelchair": null, "building": null, "opening_hours": null, "building:levels": null, "roof:shape": null, "contact:email": "whc@whc-schule-trier.de", "contact:fax": "+49 651 910 3534", "contact:phone": "+49 651 910 350", "wikipedia": null, "addr:suburb": null, "landuse": null, "education": null, "source": null, "short_name": null, "grades": null, "building:roof": null, "type": null, "ways": null }, "geometry": { "type": "Polygon", "coordinates": [ [ [ 6.6927126, 49.7397357 ], [ 6.6926187, 49.7396695 ], [ 6.6927753, 49.7395787 ], [ 6.6917086, 49.7387405 ], [ 6.6916782, 49.7387578 ], [ 6.6916097, 49.7387013 ], [ 6.69157, 49.7387214 ], [ 6.6915336, 49.7387206 ], [ 6.6913114, 49.7385461 ], [ 6.6911355, 49.7385205 ], [ 6.6909505, 49.7384928 ], [ 6.6903477, 49.7387183 ], [ 6.6902237, 49.7388102 ], [ 6.6900427, 49.7390579 ], [ 6.6895918, 49.7393321 ], [ 6.6895712, 49.739375 ], [ 6.6905083, 49.7401301 ], [ 6.6905505, 49.7402921 ], [ 6.6909289, 49.740365 ], [ 6.6912328, 49.7404369 ], [ 6.6914439, 49.7404963 ], [ 6.6915453, 49.7405074 ], [ 6.6916633, 49.740341 ], [ 6.6918981, 49.7402572 ], [ 6.6919744, 49.74023 ], [ 6.6922298, 49.7402141 ], [ 6.692777, 49.7402626 ], [ 6.692895, 49.7402488 ], [ 6.6930452, 49.7401586 ], [ 6.693066, 49.739974 ], [ 6.6927126, 49.7397357 ] ] ] } },
{ "type": "Feature", "properties": { "element_type": "way", "osmid": 1141655228, "amenity": "school", "operator": null, "denomination": null, "religion": null, "start_date": null, "website": null, "check_date": null, "addr:city": "Trier", "addr:housenumber": "40", "addr:postcode": "54295", "addr:street": "Auf der Ayl", "email": null, "name": "Grundschule Olewig", "phone": null, "wheelchair": null, "nodes": [ 10634212546, 12616427042, 12616427046, 12611215888, 12616857960, 10634212545, 12600638706, 10634212544, 10634212543, 10634212542, 12616427054, 10634212541, 12611215889, 10634212540, 12616427052, 12616427051, 12616427050, 12616427049, 10634212539, 12616427048, 12616427047, 10634212546 ], "addr:country": "DE", "contact:website": null, "isced:level": "1", "note": null, "old_name": null, "wikidata": null, "addr:housename": null, "fax": null, "operator:type": null, "toilets:wheelchair": null, "building": null, "opening_hours": null, "building:levels": null, "roof:shape": null, "contact:email": null, "contact:fax": null, "contact:phone": null, "wikipedia": null, "addr:suburb": null, "landuse": null, "education": null, "source": null, "short_name": null, "grades": null, "building:roof": null, "type": null, "ways": null }, "geometry": { "type": "Polygon", "coordinates": [ [ [ 6.6634527, 49.7415033 ], [ 6.6634593, 49.7415839 ], [ 6.6634943, 49.7417651 ], [ 6.6635561, 49.7419514 ], [ 6.6636283, 49.7421344 ], [ 6.663727, 49.7421177 ], [ 6.6648798, 49.7419104 ], [ 6.6648495, 49.7416804 ], [ 6.6651959, 49.7416158 ], [ 6.6651766, 49.7415562 ], [ 6.6650386, 49.741197 ], [ 6.6649286, 49.7410287 ], [ 6.664893, 49.741015 ], [ 6.6645012, 49.7411081 ], [ 6.6642072, 49.7411801 ], [ 6.6642172, 49.7411931 ], [ 6.664128, 49.7412162 ], [ 6.6641187, 49.7412041 ], [ 6.6637785, 49.741302 ], [ 6.6636098, 49.7413519 ], [ 6.6634445, 49.7414035 ], [ 6.6634527, 49.7415033 ] ] ] } },
{ "type": "Feature", "properties": { "element_type": "way", "osmid": 552883517, "amenity": "school", "operator": null, "denomination": null, "religion": null, "start_date": null, "website": null, "check_date": null, "addr:city": "Trier", "addr:housenumber": "33", "addr:postcode": "54296", "addr:street": "Am Weidengraben", "email": null, "name": "Keune-Grundschule", "phone": null, "wheelchair": "no", "nodes": [ 5337438532, 5337438531, 5337438530, 5337438529, 5337438528, 5337438532 ], "addr:country": "DE", "contact:website": "http://www.keune-gs.de/", "isced:level": "1", "note": null, "old_name": null, "wikidata": null, "addr:housename": null, "fax": null, "operator:type": null, "toilets:wheelchair": null, "building": null, "opening_hours": null, "building:levels": null, "roof:shape": null, "contact:email": "info@keune-gs.de", "contact:fax": "+49 651 4368679", "contact:phone": "+49 651 12384", "wikipedia": null, "addr:suburb": null, "landuse": null, "education": null, "source": null, "short_name": null, "grades": null, "building:roof": "flat", "type": null, "ways": null }, "geometry": { "type": "Polygon", "coordinates": [ [ [ 6.6880037, 49.7529397 ], [ 6.6888231, 49.7523479 ], [ 6.68782, 49.7518176 ], [ 6.6874525, 49.7521521 ], [ 6.6870582, 49.7524562 ], [ 6.6880037, 49.7529397 ] ] ] } },
{ "type": "Feature", "properties": { "element_type": "way", "osmid": 23026466, "amenity": "school", "operator": "Stadt Trier", "denomination": null, "religion": null, "start_date": null, "website": null, "check_date": null, "addr:city": "Trier", "addr:housenumber": "3", "addr:postcode": "54295", "addr:street": "Soterstraße", "email": null, "name": "Egbert-Grundschule", "phone": null, "wheelchair": null, "nodes": [ 248397483, 248397498, 248397487, 2806334380, 2806334379, 248397491, 2806334378, 248397494, 2806334377, 12657385012, 2806334376, 12657385013, 248397483 ], "addr:country": "DE", "contact:website": "http://www.egbert-grundschule.de/", "isced:level": "1", "note": "Bis zur Sanierung der alten Gebäude in der Olwiger Straße befindet sich hier die Egbert-Grundschule.", "old_name": "Grundschule Kürenz", "wikidata": "Q134302131", "addr:housename": null, "fax": null, "operator:type": null, "toilets:wheelchair": null, "building": null, "opening_hours": null, "building:levels": null, "roof:shape": null, "contact:email": null, "contact:fax": null, "contact:phone": null, "wikipedia": null, "addr:suburb": null, "landuse": null, "education": null, "source": null, "short_name": null, "grades": null, "building:roof": null, "type": null, "ways": null }, "geometry": { "type": "Polygon", "coordinates": [ [ [ 6.6615582, 49.7586635 ], [ 6.6616277, 49.7587822 ], [ 6.6616862, 49.7589223 ], [ 6.6617022, 49.759035 ], [ 6.6618277, 49.759041 ], [ 6.6624017, 49.758892 ], [ 6.66213, 49.75848 ], [ 6.6616834, 49.7585162 ], [ 6.6616293, 49.7585366 ], [ 6.6615906, 49.7585598 ], [ 6.6615616, 49.7585917 ], [ 6.6615497, 49.7586243 ], [ 6.6615582, 49.7586635 ] ] ] } },
{ "type": "Feature", "properties": { "element_type": "node", "osmid": 6934610287, "amenity": "school", "operator": null, "denomination": null, "religion": null, "start_date": null, "website": "https://www.dekra-akademie.de/de/trier/", "check_date": null, "addr:city": "Trier", "addr:housenumber": "5-7", "addr:postcode": "54292", "addr:street": "Ohmstraße", "email": "gerolstein.akademie@dekra.com", "name": "Dekra Akademie", "phone": "+49 651 1467810", "wheelchair": null, "nodes": null, "addr:country": null, "contact:website": null, "isced:level": null, "note": null, "old_name": null, "wikidata": null, "addr:housename": null, "fax": null, "operator:type": null, "toilets:wheelchair": null, "building": null, "opening_hours": null, "building:levels": null, "roof:shape": null, "contact:email": null, "contact:fax": null, "contact:phone": null, "wikipedia": null, "addr:suburb": null, "landuse": null, "education": null, "source": null, "short_name": null, "grades": null, "building:roof": null, "type": null, "ways": null }, "geometry": { "type": "Point", "coordinates": [ 6.6829966, 49.7747215 ] } },
{ "type": "Feature", "properties": { "element_type": "node", "osmid": 6934614786, "amenity": "school", "operator": null, "denomination": null, "religion": null, "start_date": null, "website": "https://www.wellness-schule-meuser.de/", "check_date": null, "addr:city": "Trier", "addr:housenumber": "5-7", "addr:postcode": "54292", "addr:street": "Ohmstraße", "email": "info@wellness-schule-meuser.de", "name": "Kosmetik & Massageschule Meuser", "phone": "+49 6506 910755", "wheelchair": null, "nodes": null, "addr:country": null, "contact:website": null, "isced:level": null, "note": null, "old_name": null, "wikidata": null, "addr:housename": null, "fax": null, "operator:type": null, "toilets:wheelchair": null, "building": null, "opening_hours": null, "building:levels": null, "roof:shape": null, "contact:email": null, "contact:fax": null, "contact:phone": null, "wikipedia": null, "addr:suburb": null, "landuse": null, "education": null, "source": null, "short_name": null, "grades": null, "building:roof": null, "type": null, "ways": null }, "geometry": { "type": "Point", "coordinates": [ 6.6829106, 49.7748213 ] } },
{ "type": "Feature", "properties": { "element_type": "way", "osmid": 510252740, "amenity": "school", "operator": null, "denomination": null, "religion": null, "start_date": null, "website": null, "check_date": "2024-03-20", "addr:city": "Trier", "addr:housenumber": "49", "addr:postcode": "54293", "addr:street": "Pfalzgrafenstraße", "email": null, "name": "Gregor-von-Pfalzel-Grundschule", "phone": null, "wheelchair": null, "nodes": [ 4458450206, 4456468478, 4456468477, 2201332697, 2201332686, 4458450212, 2201335534, 4454557572, 4454557571, 2201332700, 4454557569, 4458450206 ], "addr:country": "DE", "contact:website": null, "isced:level": "1", "note": null, "old_name": null, "wikidata": null, "addr:housename": null, "fax": null, "operator:type": null, "toilets:wheelchair": null, "building": null, "opening_hours": null, "building:levels": null, "roof:shape": null, "contact:email": null, "contact:fax": null, "contact:phone": null, "wikipedia": null, "addr:suburb": null, "landuse": null, "education": null, "source": null, "short_name": null, "grades": null, "building:roof": null, "type": null, "ways": null }, "geometry": { "type": "Polygon", "coordinates": [ [ [ 6.6875526, 49.7791754 ], [ 6.6875429, 49.7792269 ], [ 6.6875848, 49.7792302 ], [ 6.6875835, 49.7792371 ], [ 6.6879211, 49.7792637 ], [ 6.6880585, 49.7792745 ], [ 6.6880512, 49.7793129 ], [ 6.6888166, 49.7793731 ], [ 6.6891569, 49.7794005 ], [ 6.6892646, 49.7790447 ], [ 6.6875869, 49.77891 ], [ 6.6875526, 49.7791754 ] ] ] } },
{ "type": "Feature", "properties": { "element_type": "way", "osmid": 149997899, "amenity": "school", "operator": null, "denomination": null, "religion": null, "start_date": "1955", "website": null, "check_date": null, "addr:city": "Trier", "addr:housenumber": "9", "addr:postcode": "54293", "addr:street": "Johannes-Kerscht-Straße", "email": null, "name": "Grundschule am Biewerbach", "phone": null, "wheelchair": null, "nodes": [ 1629395900, 1629395883, 1629395902, 1629395899, 1629395903, 1629395905, 1629395944, 1629395958, 1629395956, 1629395960, 1629395946, 1629395929, 1629395900 ], "addr:country": "DE", "contact:website": null, "isced:level": "1", "note": null, "old_name": null, "wikidata": null, "addr:housename": null, "fax": null, "operator:type": null, "toilets:wheelchair": null, "building": "school", "opening_hours": null, "building:levels": null, "roof:shape": null, "contact:email": null, "contact:fax": null, "contact:phone": null, "wikipedia": null, "addr:suburb": null, "landuse": null, "education": null, "source": null, "short_name": null, "grades": null, "building:roof": null, "type": null, "ways": null }, "geometry": { "type": "Polygon", "coordinates": [ [ [ 6.6624234, 49.7802058 ], [ 6.6623072, 49.7802453 ], [ 6.6623625, 49.7803135 ], [ 6.6624679, 49.7802777 ], [ 6.6624825, 49.7802957 ], [ 6.6626311, 49.7802452 ], [ 6.6624629, 49.7800377 ], [ 6.662505, 49.7800234 ], [ 6.6624655, 49.7799747 ], [ 6.662431, 49.7799864 ], [ 6.6623879, 49.7799333 ], [ 6.6622425, 49.7799827 ], [ 6.6624234, 49.7802058 ] ] ] } },
{ "type": "Feature", "properties": { "element_type": "way", "osmid": 571783493, "amenity": "school", "operator": null, "denomination": null, "religion": null, "start_date": null, "website": null, "check_date": null, "addr:city": null, "addr:housenumber": null, "addr:postcode": null, "addr:street": null, "email": null, "name": "Kurfürst-Balduin Realschule plus", "phone": null, "wheelchair": null, "nodes": [ 1547608622, 1596547053, 5494502930, 5494502929, 1547608707, 1547608742, 1547608666, 1547608659, 6954870314, 6954870316, 1547608622 ], "addr:country": null, "contact:website": "http://www.kubawest.de/", "isced:level": "2", "note": null, "old_name": null, "wikidata": null, "addr:housename": null, "fax": null, "operator:type": null, "toilets:wheelchair": null, "building": null, "opening_hours": null, "building:levels": null, "roof:shape": null, "contact:email": null, "contact:fax": null, "contact:phone": null, "wikipedia": null, "addr:suburb": null, "landuse": null, "education": null, "source": null, "short_name": null, "grades": null, "building:roof": null, "type": null, "ways": null }, "geometry": { "type": "Polygon", "coordinates": [ [ [ 6.6204296, 49.7525914 ], [ 6.6204534, 49.7525866 ], [ 6.6205785, 49.752829 ], [ 6.6204849, 49.7528518 ], [ 6.620585, 49.7530484 ], [ 6.6208315, 49.7529929 ], [ 6.6213387, 49.7528158 ], [ 6.6211043, 49.7522974 ], [ 6.6204946, 49.7524427 ], [ 6.6203717, 49.7524761 ], [ 6.6204296, 49.7525914 ] ] ] } },
{ "type": "Feature", "properties": { "element_type": "relation", "osmid": 2060890, "amenity": "school", "operator": null, "denomination": null, "religion": null, "start_date": null, "website": "https://bbsgut-trier.de/", "check_date": null, "addr:city": "Trier", "addr:housenumber": "15", "addr:postcode": "54290", "addr:street": "Langstraße", "email": "info@bbsgut-trier.de", "name": "Berufsbildende Schule für Gestaltung und Technik", "phone": "+49 651 7181719", "wheelchair": "yes", "nodes": [ [ [ 1395188366, 1395188363, 1395188364, 1395188359, 1395188357, 1395188352, 1395188356, 1395188348, 1395188343, 247369357, 1395188338, 1395188349, 1395188351, 1395188358, 1395188362, 1395188372, 1395188373, 1395188379, 1395188381, 1651827188, 1395188387, 1395188390, 1395188397, 1395188396, 1395188400, 1395188409, 1395188415, 1395188419, 1395188421, 1395188420, 1395188424, 1395188438, 1395188464, 1395188453, 1395188417, 1395188436, 1395188422, 1395188418, 1395188412, 1395188411, 1395188407, 1395188405, 1395188395, 1395188394, 1395188391, 1395188388, 1395188386, 1395188389, 1395188385, 1395188384, 1395188374, 1395188371, 1395188367, 1395188365, 1395188354, 1395188350, 1395188342, 1395188341, 1395188328, 1395188324, 1395188334, 1395188332, 1395188329, 1395188325, 1395188308, 1395188300, 1395188315, 1395188311, 1395188292, 1395188294, 1395188301, 1395188305, 1395188313, 1395188327, 1395188331, 13123749327, 1395188337, 1395188339, 1395188335, 1395188333, 1395188303, 1395188309, 1395188289, 1651827176, 1395188290, 1395188279, 1395188280, 1395188306, 1395188318, 1395188347, 1395188366 ], [ 1395188263, 1395188264, 1395188246, 1395188218, 1395188238, 1395188233, 1395188251, 1395188254, 5335637776, 4612541918, 4612541919, 5335637777, 1395188403, 1395188401, 1395188406, 1395188414, 1395188416, 1395188413, 10778280874, 5335637775, 1395188429, 1395188439, 1395188426, 1395188423, 1395188380, 1395188382, 1395188376, 1395188370, 1395188322, 1395188323, 1395188312, 1395188310, 1395188263 ], [ 11926606538, 11926606539, 11926606540, 11926606541, 11926606538 ] ] ], "addr:country": "DE", "contact:website": null, "isced:level": "3;4", "note": null, "old_name": null, "wikidata": "Q134301820", "addr:housename": null, "fax": null, "operator:type": null, "toilets:wheelchair": "yes", "building": null, "opening_hours": null, "building:levels": null, "roof:shape": null, "contact:email": null, "contact:fax": null, "contact:phone": null, "wikipedia": null, "addr:suburb": null, "landuse": null, "education": null, "source": null, "short_name": null, "grades": null, "building:roof": null, "type": "multipolygon", "ways": [ 1427560482, 125666267, 1285729485 ] }, "geometry": { "type": "MultiPolygon", "coordinates": [ [ [ [ 6.6346498, 49.7592943 ], [ 6.6346745, 49.759303 ], [ 6.6347589, 49.7592871 ], [ 6.6347774, 49.759272 ], [ 6.6348748, 49.7592525 ], [ 6.6348957, 49.7592628 ], [ 6.6349882, 49.7592433 ], [ 6.6349968, 49.7592314 ], [ 6.635088, 49.7592157 ], [ 6.6351776, 49.7592003 ], [ 6.6352002, 49.7592479 ], [ 6.6352227, 49.7592527 ], [ 6.6352378, 49.7592838 ], [ 6.6352288, 49.7592936 ], [ 6.6352543, 49.7593509 ], [ 6.6352709, 49.7593509 ], [ 6.6352844, 49.7593762 ], [ 6.6352769, 49.7593917 ], [ 6.6352893, 49.7594163 ], [ 6.635301, 49.7594394 ], [ 6.6353145, 49.7594452 ], [ 6.6353296, 49.7594724 ], [ 6.635304, 49.7594724 ], [ 6.6352859, 49.7594831 ], [ 6.6353175, 49.7595482 ], [ 6.6353762, 49.7595725 ], [ 6.6353777, 49.7595851 ], [ 6.6354093, 49.7595949 ], [ 6.6354334, 49.7595881 ], [ 6.63547, 49.7596028 ], [ 6.6355027, 49.7596867 ], [ 6.6355959, 49.7598988 ], [ 6.6361628, 49.7597947 ], [ 6.6360695, 49.7595827 ], [ 6.635549, 49.7596782 ], [ 6.6355099, 49.7595953 ], [ 6.6355748, 49.7595842 ], [ 6.6356004, 49.7595599 ], [ 6.6355929, 49.7595511 ], [ 6.6356079, 49.7595472 ], [ 6.6356139, 49.7595336 ], [ 6.6355898, 49.7594714 ], [ 6.6355658, 49.7594646 ], [ 6.6355598, 49.7594491 ], [ 6.6355763, 49.7594442 ], [ 6.6355883, 49.7594384 ], [ 6.6356049, 49.7594442 ], [ 6.6356891, 49.7594277 ], [ 6.6357087, 49.7594112 ], [ 6.6356861, 49.7593529 ], [ 6.6356636, 49.759347 ], [ 6.6356515, 49.7593237 ], [ 6.6356636, 49.759313 ], [ 6.6356365, 49.7592557 ], [ 6.6356184, 49.7592498 ], [ 6.6356094, 49.7592304 ], [ 6.6356169, 49.7592148 ], [ 6.6355929, 49.7591594 ], [ 6.6355673, 49.7591526 ], [ 6.6354665, 49.759175 ], [ 6.6354605, 49.7591707 ], [ 6.6354566, 49.7591617 ], [ 6.6354659, 49.7591553 ], [ 6.6354351, 49.7590936 ], [ 6.6354135, 49.7590871 ], [ 6.6353203, 49.7591095 ], [ 6.6353095, 49.759104 ], [ 6.6352823, 49.7590445 ], [ 6.6351603, 49.7590678 ], [ 6.6351746, 49.7590875 ], [ 6.635149, 49.7590933 ], [ 6.6351385, 49.759107 ], [ 6.6351595, 49.7591575 ], [ 6.6351821, 49.7591653 ], [ 6.6350762, 49.759183 ], [ 6.6349851, 49.7591983 ], [ 6.6349728, 49.7592003 ], [ 6.6349635, 49.7591784 ], [ 6.6349762, 49.7591725 ], [ 6.6349386, 49.759088 ], [ 6.6348904, 49.7590938 ], [ 6.6348468, 49.7590073 ], [ 6.6347869, 49.7590089 ], [ 6.6347385, 49.7590102 ], [ 6.6347114, 49.7589461 ], [ 6.6346738, 49.7589471 ], [ 6.6343187, 49.7590928 ], [ 6.6343125, 49.7591238 ], [ 6.6344573, 49.7592421 ], [ 6.6345432, 49.7593158 ], [ 6.6346498, 49.7592943 ] ] ], [ [ [ 6.6360991, 49.7591009 ], [ 6.6360785, 49.7591079 ], [ 6.6361147, 49.7591525 ], [ 6.6361407, 49.7591436 ], [ 6.636307, 49.7593484 ], [ 6.6362846, 49.759356 ], [ 6.636321, 49.7594008 ], [ 6.6363444, 49.7593929 ], [ 6.6365116, 49.7595987 ], [ 6.6364803, 49.7596093 ], [ 6.6365515, 49.7596969 ], [ 6.6367804, 49.7596194 ], [ 6.6367545, 49.7595875 ], [ 6.6367443, 49.7595749 ], [ 6.6367344, 49.7595627 ], [ 6.6366745, 49.759583 ], [ 6.6366581, 49.7595628 ], [ 6.6367172, 49.7595428 ], [ 6.6366817, 49.7594991 ], [ 6.6366411, 49.7595129 ], [ 6.6364133, 49.7592323 ], [ 6.636377, 49.7591877 ], [ 6.6363609, 49.7591678 ], [ 6.6363218, 49.7591197 ], [ 6.6360942, 49.7588394 ], [ 6.6361434, 49.7588227 ], [ 6.6361089, 49.7587802 ], [ 6.636067, 49.7587944 ], [ 6.636035, 49.7587589 ], [ 6.6358303, 49.758815 ], [ 6.6358997, 49.7589005 ], [ 6.6359284, 49.7588908 ], [ 6.6360991, 49.7591009 ] ] ], [ [ [ 6.6359494, 49.7592146 ], [ 6.635824, 49.7592468 ], [ 6.6359466, 49.7594503 ], [ 6.6360606, 49.759419 ], [ 6.6359494, 49.7592146 ] ] ] ] } },
{ "type": "Feature", "properties": { "element_type": "relation", "osmid": 19572503, "amenity": "school", "operator": "Freie Montessori-Schule Trier e. V.", "denomination": null, "religion": null, "start_date": null, "website": "https://www.montessori-trier.schule/", "check_date": null, "addr:city": null, "addr:housenumber": null, "addr:postcode": null, "addr:street": null, "email": null, "name": "Freie Montessori-Schule Trier", "phone": null, "wheelchair": "yes", "nodes": [ [ [ 6321574368, 10873054810, 10872951479, 10872951480, 1622448023, 1622447885, 1622447858, 1622447794, 1622447734, 1622447761, 1622447535, 6321574373, 6321574368 ], [ 4575330654, 4908112127, 1416190466, 1416190464, 1416190443, 1416190437, 1416190419, 4575330680, 4575330681, 4575330684, 4575330683, 4575345843, 4575345844, 1428884654, 1428884677, 1428884700, 4570235653, 4570235652, 1428884767, 4570235626, 4570235625, 4570235624, 4570235635, 4570235630, 4570235631, 4570235632, 4570235628, 4570235629, 4570235636, 4570235633, 4575330649, 1416190509, 1416190515, 4575330654 ] ] ], "addr:country": null, "contact:website": null, "isced:level": "1;2", "note": null, "old_name": null, "wikidata": null, "addr:housename": null, "fax": null, "operator:type": "private", "toilets:wheelchair": null, "building": null, "opening_hours": null, "building:levels": null, "roof:shape": null, "contact:email": null, "contact:fax": null, "contact:phone": null, "wikipedia": null, "addr:suburb": null, "landuse": null, "education": null, "source": null, "short_name": null, "grades": null, "building:roof": null, "type": "multipolygon", "ways": [ 1169277615, 499545336 ] }, "geometry": { "type": "MultiPolygon", "coordinates": [ [ [ [ 6.6386239, 49.7672621 ], [ 6.6385851, 49.7673165 ], [ 6.6384067, 49.7674619 ], [ 6.6383921, 49.7674543 ], [ 6.638349, 49.7674895 ], [ 6.6383623, 49.7674963 ], [ 6.6383516, 49.7675051 ], [ 6.6387463, 49.7677148 ], [ 6.6387917, 49.7677368 ], [ 6.6388159, 49.7677368 ], [ 6.6390475, 49.7674855 ], [ 6.6390777, 49.7674527 ], [ 6.6386239, 49.7672621 ] ] ], [ [ [ 6.6300553, 49.7516831 ], [ 6.63012, 49.7516852 ], [ 6.6302319, 49.7516934 ], [ 6.6303309, 49.7517019 ], [ 6.6303354, 49.7516517 ], [ 6.630473, 49.7516595 ], [ 6.6304559, 49.7516105 ], [ 6.6305498, 49.7515961 ], [ 6.6305753, 49.7516738 ], [ 6.6304827, 49.7516874 ], [ 6.6304766, 49.75171 ], [ 6.6305969, 49.7517157 ], [ 6.6306028, 49.7516832 ], [ 6.6307491, 49.7517114 ], [ 6.6308913, 49.7517323 ], [ 6.6309503, 49.7514197 ], [ 6.6309861, 49.7514048 ], [ 6.6309343, 49.7512381 ], [ 6.6308981, 49.7511451 ], [ 6.630859, 49.7510272 ], [ 6.6307096, 49.7510468 ], [ 6.6300289, 49.7511434 ], [ 6.6298947, 49.7511624 ], [ 6.6299165, 49.7512676 ], [ 6.6299298, 49.7513464 ], [ 6.6299373, 49.7513828 ], [ 6.6299571, 49.7514764 ], [ 6.6299624, 49.7515144 ], [ 6.629966, 49.7515482 ], [ 6.6299713, 49.7515927 ], [ 6.6299773, 49.7516341 ], [ 6.6299854, 49.7516789 ], [ 6.6299931, 49.7516782 ], [ 6.6300553, 49.7516831 ] ] ] ] } },
{ "type": "Feature", "properties": { "element_type": "way", "osmid": 1427560481, "amenity": "school", "operator": null, "denomination": null, "religion": null, "start_date": null, "website": "https://www.bbsw-trier.de", "check_date": null, "addr:city": "Trier", "addr:housenumber": "9", "addr:postcode": "54290", "addr:street": "Irminenfreihof", "email": null, "name": "Berufsbildende Schule Wirtschaft", "phone": null, "wheelchair": null, "nodes": [ 1395188465, 1395188459, 1395188451, 1417402239, 1395188437, 1395188445, 1395188368, 1395188377, 1395188353, 1395188369, 1395188392, 1395188399, 1395188468, 1395188470, 1395188471, 1395188473, 1395188475, 1395188477, 1395188478, 1395188482, 1395188476, 1395188472, 1395188462, 1395188466, 1395188448, 1395188443, 1395188440, 1395188430, 1395188433, 1395188432, 1395188452, 1395188455, 1395188465 ], "addr:country": "DE", "contact:website": null, "isced:level": "3;4", "note": null, "old_name": null, "wikidata": "Q134290995", "addr:housename": null, "fax": null, "operator:type": null, "toilets:wheelchair": null, "building": "school", "opening_hours": null, "building:levels": null, "roof:shape": null, "contact:email": null, "contact:fax": null, "contact:phone": null, "wikipedia": null, "addr:suburb": null, "landuse": null, "education": null, "source": null, "short_name": null, "grades": null, "building:roof": null, "type": null, "ways": null }, "geometry": { "type": "Polygon", "coordinates": [ [ [ 6.6335391, 49.759853 ], [ 6.6336206, 49.759793 ], [ 6.6335395, 49.7597468 ], [ 6.6334285, 49.7596835 ], [ 6.633325, 49.7597597 ], [ 6.6327314, 49.7593535 ], [ 6.6327152, 49.7593635 ], [ 6.6325946, 49.7592629 ], [ 6.6323939, 49.7593519 ], [ 6.6325398, 49.7594721 ], [ 6.6325185, 49.7594853 ], [ 6.6331882, 49.7599397 ], [ 6.6332663, 49.7599842 ], [ 6.633259, 49.7599895 ], [ 6.6332575, 49.7599906 ], [ 6.6332504, 49.7599959 ], [ 6.6333037, 49.7600262 ], [ 6.6333034, 49.7600389 ], [ 6.6336555, 49.7602173 ], [ 6.6338852, 49.7600281 ], [ 6.6337974, 49.7599836 ], [ 6.6339032, 49.7598964 ], [ 6.6339455, 49.7599174 ], [ 6.6341298, 49.7597635 ], [ 6.6340779, 49.7597364 ], [ 6.6341104, 49.7597097 ], [ 6.6339438, 49.7596253 ], [ 6.633908, 49.7596548 ], [ 6.6338893, 49.7596453 ], [ 6.6337063, 49.7597961 ], [ 6.6337378, 49.759812 ], [ 6.6336315, 49.7598995 ], [ 6.6335391, 49.759853 ] ] ] } },
{ "type": "Feature", "properties": { "element_type": "way", "osmid": 152379283, "amenity": "school", "operator": null, "denomination": null, "religion": null, "start_date": null, "website": "https://ausonius-grundschule.de/", "check_date": null, "addr:city": "Trier", "addr:housenumber": "4", "addr:postcode": "54290", "addr:street": "Langstraße", "email": null, "name": "Ausonius-Grundschule", "phone": null, "wheelchair": "yes", "nodes": [ 1652008596, 1652008591, 10928135945, 10926833660, 1652008551, 1652008577, 1652008571, 10928135946, 1652008581, 1652008585, 1652008588, 1652008590, 1652008593, 1652008592, 10928135940, 1652008595, 4612536691, 1652008596 ], "addr:country": "DE", "contact:website": null, "isced:level": "1", "note": null, "old_name": null, "wikidata": "Q134292217", "addr:housename": null, "fax": null, "operator:type": null, "toilets:wheelchair": "yes", "building": null, "opening_hours": null, "building:levels": null, "roof:shape": null, "contact:email": null, "contact:fax": null, "contact:phone": null, "wikipedia": null, "addr:suburb": null, "landuse": null, "education": null, "source": null, "short_name": null, "grades": null, "building:roof": null, "type": null, "ways": null }, "geometry": { "type": "Polygon", "coordinates": [ [ [ 6.6352159, 49.7598445 ], [ 6.6351912, 49.7597878 ], [ 6.6351637, 49.7597246 ], [ 6.6349762, 49.7592943 ], [ 6.6346026, 49.7593676 ], [ 6.6345195, 49.7593662 ], [ 6.6343876, 49.7594347 ], [ 6.6343304, 49.7594644 ], [ 6.6341697, 49.7595726 ], [ 6.6343898, 49.759704 ], [ 6.6343255, 49.7597597 ], [ 6.6347479, 49.7599952 ], [ 6.634802, 49.7599455 ], [ 6.6348948, 49.7599861 ], [ 6.634967, 49.7600176 ], [ 6.6350748, 49.7600677 ], [ 6.6354167, 49.7602119 ], [ 6.6352159, 49.7598445 ] ] ] } },
{ "type": "Feature", "properties": { "element_type": "relation", "osmid": 2060889, "amenity": "school", "operator": null, "denomination": null, "religion": null, "start_date": null, "website": null, "check_date": null, "addr:city": "Trier", "addr:housenumber": "2", "addr:postcode": "54290", "addr:street": "Langstraße", "email": null, "name": "Berufsbildende Schule Ernährung Hauswirtschaft Sozialpflege", "phone": null, "wheelchair": null, "nodes": [ [ [ 1395188503, 4612590330, 9020783385, 1395188479, 1395188480, 4612536712, 1651827233, 4612536709, 4612536692, 1395188503 ], [ 1497310434, 1497310454, 1497310451, 1497310485, 1497310503, 1497310496, 1497310495, 1497310501, 1497310517, 1497310523, 1497310522, 1497310525, 1497310527, 1497310531, 1497310510, 1497310512, 1497310482, 1497347805, 1497347807, 1497347809, 1497347803, 1497347798, 1497347801, 1497310464, 1497310463, 1497310455, 1497310452, 1497310459, 1497310434 ] ] ], "addr:country": "DE", "contact:website": null, "isced:level": "3;4", "note": null, "old_name": null, "wikidata": null, "addr:housename": null, "fax": null, "operator:type": null, "toilets:wheelchair": null, "building": null, "opening_hours": null, "building:levels": null, "roof:shape": null, "contact:email": null, "contact:fax": null, "contact:phone": null, "wikipedia": null, "addr:suburb": null, "landuse": null, "education": null, "source": null, "short_name": null, "grades": null, "building:roof": null, "type": "multipolygon", "ways": [ 125666270, 136505431 ] }, "geometry": { "type": "MultiPolygon", "coordinates": [ [ [ [ 6.6349057, 49.7604726 ], [ 6.6350118, 49.7603737 ], [ 6.6350666, 49.7603218 ], [ 6.635124, 49.7602693 ], [ 6.6352128, 49.7601866 ], [ 6.6350362, 49.7601057 ], [ 6.6348837, 49.7602472 ], [ 6.6347365, 49.7603839 ], [ 6.6347294, 49.7603915 ], [ 6.6349057, 49.7604726 ] ] ], [ [ [ 6.6366145, 49.7597598 ], [ 6.6365825, 49.7597184 ], [ 6.6364978, 49.7597457 ], [ 6.636547, 49.7598094 ], [ 6.6364744, 49.7598328 ], [ 6.6364143, 49.7598522 ], [ 6.6364003, 49.759834 ], [ 6.6363074, 49.7598639 ], [ 6.6364497, 49.7600482 ], [ 6.636548, 49.7600166 ], [ 6.6365409, 49.7600074 ], [ 6.6365849, 49.7599933 ], [ 6.636738, 49.7601916 ], [ 6.6367825, 49.7601773 ], [ 6.636875, 49.760297 ], [ 6.6369618, 49.760269 ], [ 6.6369449, 49.7602472 ], [ 6.6369863, 49.7602338 ], [ 6.6369922, 49.7602415 ], [ 6.6370841, 49.7602119 ], [ 6.6370051, 49.7601096 ], [ 6.6370981, 49.7600797 ], [ 6.6371105, 49.7600958 ], [ 6.6371312, 49.7601226 ], [ 6.6374798, 49.7600109 ], [ 6.6372566, 49.7597242 ], [ 6.6371837, 49.759746 ], [ 6.637077, 49.7596129 ], [ 6.6366145, 49.7597598 ] ] ] ] } },
{ "type": "Feature", "properties": { "element_type": "way", "osmid": 571783490, "amenity": "school", "operator": null, "denomination": null, "religion": null, "start_date": null, "website": null, "check_date": "2025-01-07", "addr:city": "Trier", "addr:housenumber": "30", "addr:postcode": "54294", "addr:street": "Im Sabel", "email": null, "name": "Grundschule Pallien", "phone": null, "wheelchair": null, "nodes": [ 5494502928, 6064158580, 6064158579, 5494502927, 5494502926, 5494502925, 5494502924, 5494502923, 5494502928 ], "addr:country": "DE", "contact:website": "http://typo.grundschule-pallien.de", "isced:level": "1", "note": null, "old_name": null, "wikidata": null, "addr:housename": null, "fax": null, "operator:type": null, "toilets:wheelchair": null, "building": null, "opening_hours": null, "building:levels": null, "roof:shape": null, "contact:email": null, "contact:fax": null, "contact:phone": null, "wikipedia": null, "addr:suburb": null, "landuse": null, "education": null, "source": null, "short_name": null, "grades": null, "building:roof": null, "type": null, "ways": null }, "geometry": { "type": "Polygon", "coordinates": [ [ [ 6.6258542, 49.762081 ], [ 6.6260339, 49.7622585 ], [ 6.6259038, 49.7623677 ], [ 6.6260688, 49.7624751 ], [ 6.6264376, 49.7622508 ], [ 6.6263129, 49.7621771 ], [ 6.626333, 49.7621607 ], [ 6.6260299, 49.7619917 ], [ 6.6258542, 49.762081 ] ] ] } },
{ "type": "Feature", "properties": { "element_type": "node", "osmid": 11249058722, "amenity": "school", "operator": null, "denomination": null, "religion": null, "start_date": null, "website": null, "check_date": null, "addr:city": "Trier", "addr:housenumber": "1", "addr:postcode": "54290", "addr:street": "Christophstraße", "email": null, "name": "Staatliches Studienseminar für das Lehramt an Gymnasien", "phone": null, "wheelchair": null, "nodes": null, "addr:country": null, "contact:website": null, "isced:level": null, "note": null, "old_name": null, "wikidata": null, "addr:housename": null, "fax": null, "operator:type": null, "toilets:wheelchair": null, "building": null, "opening_hours": null, "building:levels": null, "roof:shape": null, "contact:email": null, "contact:fax": null, "contact:phone": null, "wikipedia": null, "addr:suburb": null, "landuse": null, "education": null, "source": null, "short_name": null, "grades": null, "building:roof": null, "type": null, "ways": null }, "geometry": { "type": "Point", "coordinates": [ 6.6486273, 49.7573537 ] } },
{ "type": "Feature", "properties": { "element_type": "way", "osmid": 226796880, "amenity": "school", "operator": null, "denomination": null, "religion": null, "start_date": null, "website": "https://www.st-maximin.de/", "check_date": null, "addr:city": "Trier", "addr:housenumber": "18b", "addr:postcode": "54292", "addr:street": "Maximinstraße", "email": null, "name": "Privatschule Sankt Maximin", "phone": null, "wheelchair": null, "nodes": [ 2355440532, 4501179876, 2355440540, 2355440544, 2355440529, 2355440525, 2355440546, 2355440557, 2355440531, 2355440533, 2355440536, 2355440530, 2355440526, 4489564614, 4489564612, 4501179881, 4489564613, 2355440543, 2355440545, 2355440532 ], "addr:country": null, "contact:website": null, "isced:level": "2", "note": null, "old_name": null, "wikidata": null, "addr:housename": null, "fax": null, "operator:type": null, "toilets:wheelchair": null, "building": "yes", "opening_hours": null, "building:levels": "2", "roof:shape": "flat", "contact:email": null, "contact:fax": null, "contact:phone": null, "wikipedia": null, "addr:suburb": null, "landuse": null, "education": null, "source": null, "short_name": null, "grades": null, "building:roof": null, "type": null, "ways": null }, "geometry": { "type": "Polygon", "coordinates": [ [ [ 6.6510109, 49.76051 ], [ 6.6512159, 49.7606746 ], [ 6.6515107, 49.7605271 ], [ 6.6513605, 49.7604065 ], [ 6.6513794, 49.7603031 ], [ 6.6515662, 49.7602044 ], [ 6.6514941, 49.7601448 ], [ 6.6515347, 49.7601231 ], [ 6.6514494, 49.7600531 ], [ 6.6514097, 49.7600752 ], [ 6.6513332, 49.760014 ], [ 6.6510432, 49.7601652 ], [ 6.6510273, 49.7602197 ], [ 6.6509855, 49.760215 ], [ 6.6509802, 49.7602464 ], [ 6.650976, 49.7602709 ], [ 6.6509959, 49.7602845 ], [ 6.6509272, 49.7603229 ], [ 6.6509134, 49.7604317 ], [ 6.6510109, 49.76051 ] ] ] } },
{ "type": "Feature", "properties": { "element_type": "way", "osmid": 543581705, "amenity": "school", "operator": null, "denomination": null, "religion": null, "start_date": null, "website": "https://www.sankt-josef-trier.de/", "check_date": null, "addr:city": null, "addr:housenumber": null, "addr:postcode": null, "addr:street": null, "email": null, "name": "Bischöfliche Förderschule St. Josef", "phone": null, "wheelchair": null, "nodes": [ 2355515469, 2355515465, 4504699051, 4504699052, 4504699053, 2355515400, 2355515487, 2355515378, 5254824943, 4504699071, 5254824942, 2355515504, 4504699034, 2355515469 ], "addr:country": null, "contact:website": null, "isced:level": "1;2", "note": null, "old_name": null, "wikidata": null, "addr:housename": null, "fax": null, "operator:type": null, "toilets:wheelchair": null, "building": null, "opening_hours": null, "building:levels": null, "roof:shape": null, "contact:email": "foerderschule@sankt-josef-trier.de", "contact:fax": null, "contact:phone": "+49 651 28421", "wikipedia": null, "addr:suburb": null, "landuse": null, "education": null, "source": null, "short_name": "Bischöfl. Förderschule St. Josef", "grades": null, "building:roof": null, "type": null, "ways": null }, "geometry": { "type": "Polygon", "coordinates": [ [ [ 6.6508096, 49.7612005 ], [ 6.6508328, 49.7612232 ], [ 6.6509486, 49.7613246 ], [ 6.651146, 49.7612219 ], [ 6.6513337, 49.7611243 ], [ 6.6512422, 49.7610479 ], [ 6.6514054, 49.7609701 ], [ 6.6513044, 49.7609088 ], [ 6.6513405, 49.7608454 ], [ 6.6513111, 49.7608178 ], [ 6.6511472, 49.7608939 ], [ 6.6508564, 49.7610377 ], [ 6.6507053, 49.7611125 ], [ 6.6508096, 49.7612005 ] ] ] } },
{ "type": "Feature", "properties": { "element_type": "way", "osmid": 507791226, "amenity": "school", "operator": null, "denomination": null, "religion": null, "start_date": null, "website": null, "check_date": null, "addr:city": null, "addr:housenumber": null, "addr:postcode": null, "addr:street": null, "email": null, "name": "Porta-Nigra-Schule", "phone": null, "wheelchair": null, "nodes": [ 2047135888, 4972300063, 4972300062, 2046616182, 4487674208, 2355698536, 4487681553, 4487674205, 2047135826, 2047135834, 2047135839, 2047135857, 2047135880, 2047135888 ], "addr:country": null, "contact:website": "https://porta-nigra-schule.de/", "isced:level": "1;2;3", "note": null, "old_name": null, "wikidata": null, "addr:housename": null, "fax": null, "operator:type": null, "toilets:wheelchair": null, "building": null, "opening_hours": null, "building:levels": null, "roof:shape": null, "contact:email": "info@porta-nigra-schule.de", "contact:fax": "+49 651 26392", "contact:phone": "+49 651 28011", "wikipedia": null, "addr:suburb": null, "landuse": null, "education": null, "source": null, "short_name": null, "grades": null, "building:roof": null, "type": null, "ways": null }, "geometry": { "type": "Polygon", "coordinates": [ [ [ 6.6447533, 49.7617719 ], [ 6.6449098, 49.7616884 ], [ 6.6450064, 49.7616379 ], [ 6.6451187, 49.761578 ], [ 6.6450453, 49.7615223 ], [ 6.6454256, 49.7613125 ], [ 6.6450681, 49.7610447 ], [ 6.6447993, 49.7611586 ], [ 6.6443924, 49.761331 ], [ 6.6441842, 49.7614262 ], [ 6.6440909, 49.7614679 ], [ 6.6445944, 49.7618555 ], [ 6.6446326, 49.7618362 ], [ 6.6447533, 49.7617719 ] ] ] } },
{ "type": "Feature", "properties": { "element_type": "way", "osmid": 1165657122, "amenity": "school", "operator": null, "denomination": null, "religion": null, "start_date": null, "website": "http://www.bnt-trier.de/", "check_date": null, "addr:city": "Trier", "addr:housenumber": "105", "addr:postcode": "54292", "addr:street": "Paulinstraße", "email": null, "name": "Balthasar-Neumann-Technikum", "phone": null, "wheelchair": null, "nodes": [ 3324162647, 10842095663, 10842095662, 10842095651, 3249273854, 3249273837, 4604866658, 4604867796, 4502157997, 4502157998, 10842095660, 10842095652, 6676274784, 6676274783, 4604867792, 4604867791, 4602741079, 4604866680, 10842095653, 4604867789, 4602741080, 4602741081, 4602741082, 4602741083, 4602741084, 3324162648, 10842095654, 3324162647 ], "addr:country": null, "contact:website": null, "isced:level": "3", "note": null, "old_name": null, "wikidata": "Q133856689", "addr:housename": null, "fax": null, "operator:type": null, "toilets:wheelchair": null, "building": null, "opening_hours": null, "building:levels": null, "roof:shape": null, "contact:email": null, "contact:fax": null, "contact:phone": null, "wikipedia": null, "addr:suburb": null, "landuse": null, "education": null, "source": null, "short_name": null, "grades": null, "building:roof": null, "type": null, "ways": null }, "geometry": { "type": "Polygon", "coordinates": [ [ [ 6.6523069, 49.7643155 ], [ 6.6523142, 49.7643086 ], [ 6.652336, 49.7643024 ], [ 6.6524769, 49.764254 ], [ 6.6524915, 49.7642539 ], [ 6.6525004, 49.7642572 ], [ 6.6525565, 49.7642876 ], [ 6.6525691, 49.7642781 ], [ 6.6527305, 49.7641555 ], [ 6.6528561, 49.7640602 ], [ 6.6529044, 49.7640236 ], [ 6.6531203, 49.7638569 ], [ 6.6527341, 49.7636298 ], [ 6.6527207, 49.7636378 ], [ 6.6525181, 49.7635129 ], [ 6.6522693, 49.7633624 ], [ 6.6522502, 49.7633738 ], [ 6.6522318, 49.7633843 ], [ 6.6519183, 49.7635717 ], [ 6.6517603, 49.7636661 ], [ 6.6516003, 49.7637573 ], [ 6.6515477, 49.7637981 ], [ 6.6514569, 49.763877 ], [ 6.651354, 49.7639593 ], [ 6.651663, 49.7641106 ], [ 6.6519506, 49.7642442 ], [ 6.6522436, 49.764376 ], [ 6.6523069, 49.7643155 ] ] ] } },
{ "type": "Feature", "properties": { "element_type": "way", "osmid": 541567042, "amenity": "school", "operator": null, "denomination": null, "religion": null, "start_date": null, "website": null, "check_date": null, "addr:city": null, "addr:housenumber": null, "addr:postcode": null, "addr:street": null, "email": null, "name": "Ambrosius Grundschule", "phone": null, "wheelchair": null, "nodes": [ 3930516638, 12102036698, 5236690553, 12102036700, 3930516639, 5236690555, 3930516653, 3930516652, 2311184978, 2311184977, 2311184976, 5236690549, 5236690550, 2311185016, 3930516650, 9588386641, 5236690564, 3930516638 ], "addr:country": null, "contact:website": null, "isced:level": "1", "note": null, "old_name": null, "wikidata": "Q134291101", "addr:housename": null, "fax": null, "operator:type": null, "toilets:wheelchair": null, "building": null, "opening_hours": null, "building:levels": null, "roof:shape": null, "contact:email": null, "contact:fax": null, "contact:phone": null, "wikipedia": null, "addr:suburb": null, "landuse": null, "education": null, "source": null, "short_name": null, "grades": null, "building:roof": null, "type": null, "ways": null }, "geometry": { "type": "Polygon", "coordinates": [ [ [ 6.6586544, 49.7652845 ], [ 6.6584997, 49.7652037 ], [ 6.6578543, 49.7648431 ], [ 6.6578762, 49.7648223 ], [ 6.6575463, 49.7646428 ], [ 6.6570045, 49.7650533 ], [ 6.6574022, 49.7652703 ], [ 6.6571175, 49.7654974 ], [ 6.6574824, 49.7657063 ], [ 6.6572981, 49.7658514 ], [ 6.6578085, 49.7660758 ], [ 6.6579856, 49.7659403 ], [ 6.65806, 49.7658834 ], [ 6.6581374, 49.7658225 ], [ 6.6582159, 49.7657608 ], [ 6.658243, 49.7657392 ], [ 6.6587496, 49.7653357 ], [ 6.6586544, 49.7652845 ] ] ] } },
{ "type": "Feature", "properties": { "element_type": "way", "osmid": 201917031, "amenity": "school", "operator": null, "denomination": null, "religion": null, "start_date": null, "website": null, "check_date": null, "addr:city": null, "addr:housenumber": null, "addr:postcode": null, "addr:street": null, "email": null, "name": "Grundschule St. Martin", "phone": null, "wheelchair": null, "nodes": [ 2119246707, 4512536651, 4512536652, 4512536646, 4512536650, 4512536649, 4512536648, 4512536647, 4512536645, 2119246884, 2119246586, 4512536653, 2119246734, 2119246707 ], "addr:country": null, "contact:website": null, "isced:level": "1", "note": null, "old_name": null, "wikidata": null, "addr:housename": null, "fax": null, "operator:type": null, "toilets:wheelchair": null, "building": null, "opening_hours": null, "building:levels": null, "roof:shape": null, "contact:email": null, "contact:fax": null, "contact:phone": null, "wikipedia": null, "addr:suburb": null, "landuse": null, "education": null, "source": null, "short_name": null, "grades": null, "building:roof": null, "type": null, "ways": null }, "geometry": { "type": "Polygon", "coordinates": [ [ [ 6.6402001, 49.7651215 ], [ 6.6400078, 49.7650037 ], [ 6.6396453, 49.765246 ], [ 6.6396285, 49.7652586 ], [ 6.6396281, 49.7652738 ], [ 6.6396329, 49.7653005 ], [ 6.6396574, 49.7653169 ], [ 6.6396844, 49.7653372 ], [ 6.6395617, 49.7654251 ], [ 6.6401993, 49.7658551 ], [ 6.6407266, 49.7654535 ], [ 6.6410008, 49.7652429 ], [ 6.6404947, 49.7649218 ], [ 6.6402001, 49.7651215 ] ] ] } },
{ "type": "Feature", "properties": { "element_type": "way", "osmid": 1429546918, "amenity": "school", "operator": null, "denomination": null, "religion": null, "start_date": null, "website": "http://www.grundschule-trierruwer.de/", "check_date": null, "addr:city": "Trier", "addr:housenumber": "1", "addr:postcode": "54292", "addr:street": "Franz-Altenhofen-Straße", "email": null, "name": "Grundschule Ruwer", "phone": null, "wheelchair": "no", "nodes": [ 13141206210, 13141206209, 1722030843, 1722030829, 1722030827, 1722030831, 1722030836, 1722030825, 13141206208, 13141206207, 13141206206, 13141206210 ], "addr:country": "DE", "contact:website": null, "isced:level": "1", "note": null, "old_name": null, "wikidata": null, "addr:housename": null, "fax": null, "operator:type": null, "toilets:wheelchair": null, "building": null, "opening_hours": null, "building:levels": null, "roof:shape": null, "contact:email": null, "contact:fax": null, "contact:phone": null, "wikipedia": null, "addr:suburb": null, "landuse": null, "education": null, "source": null, "short_name": null, "grades": null, "building:roof": null, "type": null, "ways": null }, "geometry": { "type": "Polygon", "coordinates": [ [ [ 6.7120095, 49.7851157 ], [ 6.7114442, 49.7848387 ], [ 6.7112816, 49.7847834 ], [ 6.7111173, 49.7847696 ], [ 6.7110864, 49.7847987 ], [ 6.710951, 49.7848149 ], [ 6.710699, 49.7847457 ], [ 6.7102432, 49.7846507 ], [ 6.7101949, 49.7849287 ], [ 6.7102218, 49.7849988 ], [ 6.7114234, 49.7855582 ], [ 6.7120095, 49.7851157 ] ] ] } },
{ "type": "Feature", "properties": { "element_type": "way", "osmid": 110561920, "amenity": "school", "operator": "Stadt Trier", "denomination": null, "religion": null, "start_date": null, "website": "https://moseltalschule.de", "check_date": null, "addr:city": "Trier", "addr:housenumber": "1", "addr:postcode": "54293", "addr:street": "Mäusheckerweg", "email": "mail@moseltalschule.de", "name": "Moseltal Realschule plus Trier", "phone": "+49 651 96798-60", "wheelchair": null, "nodes": [ 1262335445, 1262335447, 1262335449, 1262335450, 1262335452, 1632957234, 1632957238, 1632957233, 1632957230, 1262335454, 1262335456, 1262335458, 1632957243, 3364728470, 1632957268, 3406929458, 1262335461, 1262335462, 1262335463, 1262335465, 1262335468, 1632957282, 1262335470, 1262335472, 1262335474, 1632957279, 1632957278, 1632957274, 1632957276, 1632957255, 1632957254, 1632957249, 1632957250, 1262335477, 1262335480, 9893149715, 3366281307, 9893149710, 1262335482, 1262335484, 1262335445 ], "addr:country": "DE", "contact:website": null, "isced:level": "2", "note": null, "old_name": "Johann-Amos-Comenius Realschule", "wikidata": null, "addr:housename": null, "fax": "+49 651 96798-68", "operator:type": null, "toilets:wheelchair": null, "building": "school", "opening_hours": "SH closed", "building:levels": "3", "roof:shape": null, "contact:email": null, "contact:fax": null, "contact:phone": null, "wikipedia": null, "addr:suburb": null, "landuse": null, "education": null, "source": null, "short_name": null, "grades": null, "building:roof": null, "type": null, "ways": null }, "geometry": { "type": "Polygon", "coordinates": [ [ [ 6.6766106, 49.787292 ], [ 6.6767059, 49.7872479 ], [ 6.6768217, 49.7873522 ], [ 6.6768285, 49.7873583 ], [ 6.676838, 49.7873668 ], [ 6.6768655, 49.7873917 ], [ 6.6767803, 49.7874311 ], [ 6.6768548, 49.7874983 ], [ 6.6768719, 49.7874903 ], [ 6.6769059, 49.7875209 ], [ 6.6768894, 49.7875285 ], [ 6.6770967, 49.7877152 ], [ 6.6771151, 49.7877067 ], [ 6.6771523, 49.7877402 ], [ 6.6771347, 49.7877483 ], [ 6.6773121, 49.7879081 ], [ 6.6774072, 49.787864 ], [ 6.6773875, 49.7878463 ], [ 6.6774175, 49.7878324 ], [ 6.6774858, 49.7878008 ], [ 6.6775375, 49.7878474 ], [ 6.6776359, 49.7878018 ], [ 6.6774285, 49.787615 ], [ 6.6773792, 49.7876378 ], [ 6.6773604, 49.7876209 ], [ 6.6773468, 49.7876087 ], [ 6.6772763, 49.7875452 ], [ 6.6771415, 49.7874237 ], [ 6.6770946, 49.7873815 ], [ 6.6772349, 49.7873166 ], [ 6.6770936, 49.7871892 ], [ 6.676997, 49.7872339 ], [ 6.6770511, 49.7872827 ], [ 6.6770044, 49.7873043 ], [ 6.6769883, 49.7872898 ], [ 6.6769783, 49.7872944 ], [ 6.6767434, 49.7870828 ], [ 6.6766565, 49.787123 ], [ 6.6766431, 49.7871109 ], [ 6.6764888, 49.7871823 ], [ 6.6766106, 49.787292 ] ] ] } },
{ "type": "Feature", "properties": { "element_type": "way", "osmid": 110256230, "amenity": "school", "operator": "Stadt Trier", "denomination": null, "religion": null, "start_date": null, "website": "https://fsg-trier.de", "check_date": null, "addr:city": null, "addr:housenumber": null, "addr:postcode": null, "addr:street": null, "email": "info@fsg-trier.de", "name": "Friedrich-Spee-Gymnasium Trier", "phone": "+49 651 96798-10", "wheelchair": null, "nodes": [ 1259621076, 1259621077, 1632957387, 1632957384, 1632957410, 1632957411, 3372987778, 1632957457, 1632957452, 1259621078, 1259621079, 1259621080, 1632957508, 1632957522, 1259621081, 1632957499, 1632957491, 1259621082, 1259621083, 1632957462, 1632957454, 1632957440, 1632957446, 1259621084, 1259621085, 1259621086, 1259621087, 1259621088, 1259621089, 1259621090, 1632957429, 1632957434, 1632957432, 1632957420, 1259621091, 1632957415, 1259621076 ], "addr:country": null, "contact:website": null, "isced:level": "2;3", "note": null, "old_name": null, "wikidata": null, "addr:housename": null, "fax": "+49 651 96798-28", "operator:type": null, "toilets:wheelchair": null, "building": "school", "opening_hours": "SH closed", "building:levels": null, "roof:shape": null, "contact:email": null, "contact:fax": null, "contact:phone": null, "wikipedia": null, "addr:suburb": null, "landuse": null, "education": null, "source": null, "short_name": null, "grades": null, "building:roof": null, "type": null, "ways": null }, "geometry": { "type": "Polygon", "coordinates": [ [ [ 6.6776082, 49.7884519 ], [ 6.6776166, 49.788448 ], [ 6.677633, 49.7884628 ], [ 6.6776045, 49.788476 ], [ 6.6775864, 49.7884844 ], [ 6.6775699, 49.7884695 ], [ 6.6775622, 49.7884731 ], [ 6.6773938, 49.7883215 ], [ 6.6771992, 49.7884116 ], [ 6.6772848, 49.7884886 ], [ 6.677334, 49.7884658 ], [ 6.6774684, 49.7885868 ], [ 6.6775325, 49.7885571 ], [ 6.6775506, 49.7885734 ], [ 6.677567, 49.7885658 ], [ 6.677591, 49.7885874 ], [ 6.6775768, 49.788594 ], [ 6.6777136, 49.7887171 ], [ 6.6777692, 49.7886913 ], [ 6.6777954, 49.7887149 ], [ 6.677777, 49.7887234 ], [ 6.6778777, 49.7888141 ], [ 6.6779767, 49.7887682 ], [ 6.6779595, 49.7887527 ], [ 6.6780531, 49.7887093 ], [ 6.6781045, 49.7887555 ], [ 6.6782006, 49.788711 ], [ 6.6780626, 49.7885868 ], [ 6.6780537, 49.7885909 ], [ 6.6779809, 49.7885254 ], [ 6.6778679, 49.7884237 ], [ 6.6778814, 49.7884175 ], [ 6.6778095, 49.7883528 ], [ 6.6777995, 49.7883575 ], [ 6.6777372, 49.7883014 ], [ 6.6775416, 49.788392 ], [ 6.6776082, 49.7884519 ] ] ] } },
{ "type": "Feature", "properties": { "element_type": "way", "osmid": 501219290, "amenity": "school", "operator": null, "denomination": null, "religion": null, "start_date": null, "website": null, "check_date": null, "addr:city": null, "addr:housenumber": null, "addr:postcode": null, "addr:street": null, "email": null, "name": "Grundschule St. Peter", "phone": null, "wheelchair": null, "nodes": [ 4425281113, 4425281110, 4425281111, 4425281108, 4425281109, 4425281104, 4425281103, 4693726503, 4425281102, 4693726502, 4693726496, 4425281101, 4920877446, 6561454618, 4447267737, 4699515464, 3800643067, 3800643060, 4422354822, 3800643068, 3800643062, 4422354821, 3800643069, 3800643064, 4699515465, 3800643061, 3800643071, 4415760148, 4415760149, 4425281113 ], "addr:country": null, "contact:website": "http://www.grundschule-st-peter.de/", "isced:level": "1", "note": null, "old_name": null, "wikidata": null, "addr:housename": null, "fax": null, "operator:type": null, "toilets:wheelchair": null, "building": null, "opening_hours": null, "building:levels": null, "roof:shape": null, "contact:email": "gs-st.peter@gmx.de", "contact:fax": "+49 651 7103445", "contact:phone": "+49 651 64963", "wikipedia": null, "addr:suburb": null, "landuse": null, "education": null, "source": null, "short_name": null, "grades": null, "building:roof": null, "type": null, "ways": null }, "geometry": { "type": "Polygon", "coordinates": [ [ [ 6.6847561, 49.8090902 ], [ 6.6849055, 49.8091053 ], [ 6.684912, 49.8090783 ], [ 6.6850159, 49.8090887 ], [ 6.6850703, 49.8088541 ], [ 6.6849982, 49.8088497 ], [ 6.6850168, 49.8087576 ], [ 6.6850219, 49.8087364 ], [ 6.6849922, 49.8087336 ], [ 6.684853, 49.8087202 ], [ 6.6847244, 49.8087079 ], [ 6.6847176, 49.8086632 ], [ 6.6845538, 49.8086899 ], [ 6.6843828, 49.8087204 ], [ 6.6839642, 49.8089138 ], [ 6.6839601, 49.808974 ], [ 6.6839492, 49.8090547 ], [ 6.683924, 49.8092418 ], [ 6.683889, 49.8092398 ], [ 6.6838798, 49.8093081 ], [ 6.6840229, 49.8093161 ], [ 6.6840192, 49.8093437 ], [ 6.6841665, 49.8093603 ], [ 6.6842441, 49.8093677 ], [ 6.684339, 49.8093706 ], [ 6.6844272, 49.8092432 ], [ 6.6846557, 49.8093077 ], [ 6.684731, 49.8092128 ], [ 6.6847489, 49.8091196 ], [ 6.6847561, 49.8090902 ] ] ] } },
{ "type": "Feature", "properties": { "element_type": "way", "osmid": 552574385, "amenity": "school", "operator": null, "denomination": null, "religion": null, "start_date": null, "website": "https://grundschule-quint.de/", "check_date": null, "addr:city": null, "addr:housenumber": null, "addr:postcode": null, "addr:street": null, "email": null, "name": "Grundschule Quint", "phone": null, "wheelchair": null, "nodes": [ 5334847545, 5335163751, 5334847546, 5334847547, 5334847548, 5334847549, 5334847550, 5334847551, 5334847552, 5334847553, 5334847554, 5335163594, 5335163752, 5334847545 ], "addr:country": null, "contact:website": null, "isced:level": "1", "note": null, "old_name": null, "wikidata": null, "addr:housename": null, "fax": null, "operator:type": null, "toilets:wheelchair": null, "building": null, "opening_hours": null, "building:levels": null, "roof:shape": null, "contact:email": null, "contact:fax": null, "contact:phone": null, "wikipedia": null, "addr:suburb": null, "landuse": null, "education": null, "source": "Bing", "short_name": null, "grades": null, "building:roof": null, "type": null, "ways": null }, "geometry": { "type": "Polygon", "coordinates": [ [ [ 6.7066155, 49.8218947 ], [ 6.7066641, 49.821871 ], [ 6.7066363, 49.8218562 ], [ 6.7068937, 49.8216514 ], [ 6.7069806, 49.8215368 ], [ 6.7065983, 49.8212267 ], [ 6.7062684, 49.821063 ], [ 6.7060564, 49.8212315 ], [ 6.7059305, 49.8211578 ], [ 6.7056048, 49.8213631 ], [ 6.7056256, 49.8213749 ], [ 6.7062551, 49.8217327 ], [ 6.7065721, 49.8219159 ], [ 6.7066155, 49.8218947 ] ] ] } }
]
}
