{
"type": "FeatureCollection",
"name": "universities_Trier, Germany",
"crs": { "type": "name", "properties": { "name": "urn:ogc:def:crs:OGC:1.3:CRS84" } },
"features": [
{ "type": "Feature", "properties": { "addr:city": null, "addr:country": null, "addr:housenumber": null, "addr:postcode": null, "addr:street": null, "amenity": "university", "check_date": null, "name": "Universität Trier (Campus 1)", "addr:housename": null, "alt_name": null, "college": null, "int_name": null, "toilets:wheelchair": null, "wheelchair": "limited", "email": null, "operator": null, "phone": null, "website": null, "wikidata": null, "wikipedia": null, "nodes": [ 139426497, 1026986161, 1026986160, 41982689, 12648451148, 12648451147, 12444568901, 41982740, 1026986163, 662348005, 1026986162, 638990822, 12588862394, 12588862395, 12588862393, 12588862396, 12588862392, 638990820, 12588862398, 12588862399, 12588862397, 638990823, 12588862400, 638990821, 12588882001, 12588882002, 638990819, 139426497 ], "landuse": "education", "building": null, "building:levels": null, "ref": null, "roof:levels": null, "roof:shape": null, "source": null, "isced:level": null, "contact:email": null, "contact:phone": null, "name:en": null, "office": null, "fax": null, "contact:facebook": null, "contact:fax": null, "contact:linkedin": null, "contact:twitter": null, "contact:website": null, "contact:youtube": null, "operator:type": null, "ways": null, "type": null, "education": null, "name:de": null }, "geometry": { "type": "Polygon", "coordinates": [ [ [ 6.6838843, 49.7489741 ], [ 6.685982, 49.7498504 ], [ 6.6906669, 49.7454079 ], [ 6.6890786, 49.7448181 ], [ 6.688294, 49.7445204 ], [ 6.6875114, 49.7442245 ], [ 6.6865064, 49.74388 ], [ 6.6856745, 49.7447386 ], [ 6.6855427, 49.7455959 ], [ 6.6855575, 49.7459587 ], [ 6.6859952, 49.7467416 ], [ 6.6859673, 49.7467704 ], [ 6.6859477, 49.7468023 ], [ 6.6859275, 49.7468428 ], [ 6.6859163, 49.7468838 ], [ 6.6859028, 49.7469736 ], [ 6.6858839, 49.7470655 ], [ 6.6858636, 49.747108 ], [ 6.6858361, 49.7471464 ], [ 6.6857879, 49.7471837 ], [ 6.6857403, 49.7472115 ], [ 6.6856702, 49.7472392 ], [ 6.6855938, 49.7472507 ], [ 6.6855297, 49.747247 ], [ 6.6854737, 49.7472413 ], [ 6.6853637, 49.747221 ], [ 6.6852778, 49.7473351 ], [ 6.6838843, 49.7489741 ] ] ] } },
{ "type": "Feature", "properties": { "addr:city": "Trier", "addr:country": null, "addr:housenumber": "21", "addr:postcode": "54296", "addr:street": "Behringstraße", "amenity": "university", "check_date": "2024-08-14", "name": "Universität Trier (Campus 2)", "addr:housename": null, "alt_name": "Uni Trier (Campus 2)", "college": null, "int_name": null, "toilets:wheelchair": null, "wheelchair": "limited", "email": null, "operator": null, "phone": null, "website": null, "wikidata": null, "wikipedia": null, "nodes": [ 1837893062, 1837893060, 12589905702, 12589832599, 12589905703, 12589832598, 12589905701, 12589832600, 1837893049, 4719354990, 1837893047, 1837893051, 12589832597, 12589832596, 4719354989, 4719354993, 1837893059, 4719354994, 4719355005, 4719355008, 4719355009, 4719355010, 12421816633, 1837893063, 12589832595, 12589832594, 4719355012, 4719355011, 12589832593, 12589832592, 12589832591, 1837893068, 2361000829, 13188356523, 1837893073, 1837893071, 1837893069, 1837893066, 7688989917, 7688989916, 7688989915, 1837893064, 1837893062 ], "landuse": null, "building": null, "building:levels": null, "ref": null, "roof:levels": null, "roof:shape": null, "source": null, "isced:level": null, "contact:email": null, "contact:phone": null, "name:en": null, "office": null, "fax": null, "contact:facebook": null, "contact:fax": null, "contact:linkedin": null, "contact:twitter": null, "contact:website": null, "contact:youtube": null, "operator:type": null, "ways": null, "type": null, "education": null, "name:de": null }, "geometry": { "type": "Polygon", "coordinates": [ [ [ 6.6737115, 49.7480455 ], [ 6.6739978, 49.7484719 ], [ 6.6740943, 49.7489238 ], [ 6.6746663, 49.748913 ], [ 6.6750891, 49.74858 ], [ 6.6753255, 49.7486383 ], [ 6.6754332, 49.7487038 ], [ 6.6758775, 49.749068 ], [ 6.6759837, 49.7490228 ], [ 6.6760918, 49.7489767 ], [ 6.6763106, 49.7487358 ], [ 6.6766159, 49.748857 ], [ 6.676904, 49.7488208 ], [ 6.6771764, 49.7489267 ], [ 6.6773084, 49.7488323 ], [ 6.6777109, 49.7484398 ], [ 6.6776878, 49.7483585 ], [ 6.6776329, 49.748293 ], [ 6.6774646, 49.748207 ], [ 6.6775627, 49.7481112 ], [ 6.6776446, 49.7480625 ], [ 6.6776768, 49.7479392 ], [ 6.6775629, 49.7478811 ], [ 6.6773608, 49.7477353 ], [ 6.6770752, 49.7475294 ], [ 6.6767978, 49.7472932 ], [ 6.6765265, 49.7470301 ], [ 6.676091, 49.7467909 ], [ 6.6759207, 49.7467639 ], [ 6.6757502, 49.7467639 ], [ 6.6754119, 49.7467697 ], [ 6.6749178, 49.7468293 ], [ 6.674739, 49.7468521 ], [ 6.6744906, 49.7468972 ], [ 6.6742584, 49.7469533 ], [ 6.6740212, 49.7470276 ], [ 6.6738233, 49.747099 ], [ 6.6736478, 49.7471783 ], [ 6.6735593, 49.7472747 ], [ 6.6734987, 49.7473928 ], [ 6.6735896, 49.7476436 ], [ 6.6736571, 49.7478817 ], [ 6.6737115, 49.7480455 ] ] ] } },
{ "type": "Feature", "properties": { "addr:city": "Trier", "addr:country": "DE", "addr:housenumber": "15", "addr:postcode": "54290", "addr:street": "Johanniterufer", "amenity": "university", "check_date": "2024-12-25", "name": "Universität Trier: Psychobiologie", "addr:housename": null, "alt_name": null, "college": null, "int_name": null, "toilets:wheelchair": null, "wheelchair": null, "email": null, "operator": null, "phone": null, "website": null, "wikidata": null, "wikipedia": null, "nodes": null, "landuse": null, "building": null, "building:levels": null, "ref": null, "roof:levels": null, "roof:shape": null, "source": null, "isced:level": null, "contact:email": null, "contact:phone": null, "name:en": null, "office": null, "fax": null, "contact:facebook": null, "contact:fax": null, "contact:linkedin": null, "contact:twitter": null, "contact:website": null, "contact:youtube": null, "operator:type": null, "ways": null, "type": null, "education": null, "name:de": null }, "geometry": { "type": "Point", "coordinates": [ 6.6285167, 49.7522377 ] } },
{ "type": "Feature", "properties": { "addr:city": null, "addr:country": null, "addr:housenumber": null, "addr:postcode": null, "addr:street": null, "amenity": "university", "check_date": null, "name": "Campus Gestaltung (Hochschule Trier)", "addr:housename": null, "alt_name": null, "college": null, "int_name": null, "toilets:wheelchair": null, "wheelchair": null, "email": null, "operator": null, "phone": null, "website": "https://www.hochschule-trier.de/gestaltung/", "wikidata": null, "wikipedia": null, "nodes": [ [ [ 1395188346, 1395188326, 2311942586, 1395188355, 2311942587, 13123749333, 2311942590, 1395188268, 1395188244, 1395188275, 1395188260, 1395188223, 4618392058, 1395188190, 4618392059, 1395188262, 1395188383, 1395188369, 1395188353, 1395188346 ], [ 1395188247, 1395188241, 4625048459, 4625048458, 4625048457, 4625048456, 4625048455, 4625048454, 4625048453, 4625048452, 4625048451, 4625048450, 4625048449, 4625048448, 4625048447, 4625048446, 4625048445, 4625048444, 4625048443, 4625048442, 4625048441, 1395188215, 5220383692, 1395188270, 1395188292, 1395188294, 1395188297, 1395188247 ], [ 1395188378, 1395188402, 1395188347, 1395188318, 1395188316, 1395188378 ] ] ], "landuse": null, "building": null, "building:levels": null, "ref": null, "roof:levels": null, "roof:shape": null, "source": null, "isced:level": null, "contact:email": null, "contact:phone": null, "name:en": null, "office": null, "fax": null, "contact:facebook": null, "contact:fax": null, "contact:linkedin": null, "contact:twitter": null, "contact:website": null, "contact:youtube": null, "operator:type": null, "ways": [ 125666263, 125666266, 125666279 ], "type": "multipolygon", "education": null, "name:de": null }, "geometry": { "type": "MultiPolygon", "coordinates": [ [ [ [ 6.6325553, 49.7591599 ], [ 6.6323404, 49.759253 ], [ 6.6323254, 49.7592617 ], [ 6.6321813, 49.7591411 ], [ 6.632136, 49.7591023 ], [ 6.6320881, 49.7590613 ], [ 6.6319136, 49.7589133 ], [ 6.6322058, 49.7588187 ], [ 6.6323515, 49.7589428 ], [ 6.6324891, 49.7588808 ], [ 6.6323591, 49.7587685 ], [ 6.632371, 49.7587601 ], [ 6.6322891, 49.7586662 ], [ 6.6318315, 49.7588225 ], [ 6.631678, 49.7588947 ], [ 6.6322828, 49.759406 ], [ 6.6323939, 49.7593519 ], [ 6.6325946, 49.7592629 ], [ 6.6326388, 49.7592426 ], [ 6.6325553, 49.7591599 ] ] ], [ [ [ 6.6351218, 49.7590751 ], [ 6.6351603, 49.7590678 ], [ 6.6352823, 49.7590445 ], [ 6.635832, 49.75894 ], [ 6.6357787, 49.7588206 ], [ 6.6357492, 49.7587543 ], [ 6.6355265, 49.7588 ], [ 6.6355401, 49.7588321 ], [ 6.6354173, 49.7588569 ], [ 6.6352512, 49.7588904 ], [ 6.6352113, 49.7587973 ], [ 6.6352051, 49.7587842 ], [ 6.6351971, 49.758777 ], [ 6.635186, 49.7587679 ], [ 6.6351739, 49.7587615 ], [ 6.6351571, 49.7587559 ], [ 6.635141, 49.7587504 ], [ 6.6351232, 49.75875 ], [ 6.635102, 49.7587512 ], [ 6.6350813, 49.7587531 ], [ 6.6350628, 49.7587559 ], [ 6.6350486, 49.7587655 ], [ 6.6350356, 49.758777 ], [ 6.6350264, 49.7587882 ], [ 6.6350202, 49.7587993 ], [ 6.6350172, 49.7588125 ], [ 6.6350202, 49.7588292 ], [ 6.6351218, 49.7590751 ] ] ], [ [ [ 6.633952, 49.7595002 ], [ 6.6344573, 49.7592421 ], [ 6.6343125, 49.7591238 ], [ 6.6342994, 49.7591131 ], [ 6.6337942, 49.7593713 ], [ 6.633952, 49.7595002 ] ] ] ] } },
{ "type": "Feature", "properties": { "addr:city": null, "addr:country": null, "addr:housenumber": null, "addr:postcode": null, "addr:street": null, "amenity": "university", "check_date": null, "name": "Hochschule Trier", "addr:housename": null, "alt_name": null, "college": null, "int_name": null, "toilets:wheelchair": null, "wheelchair": null, "email": null, "operator": null, "phone": null, "website": null, "wikidata": null, "wikipedia": null, "nodes": null, "landuse": null, "building": null, "building:levels": null, "ref": null, "roof:levels": null, "roof:shape": null, "source": null, "isced:level": null, "contact:email": null, "contact:phone": null, "name:en": null, "office": null, "fax": null, "contact:facebook": null, "contact:fax": null, "contact:linkedin": null, "contact:twitter": null, "contact:website": null, "contact:youtube": null, "operator:type": null, "ways": null, "type": null, "education": null, "name:de": null }, "geometry": { "type": "Point", "coordinates": [ 6.628017093987682, 49.768307547734267 ] } }
]
}
