{
"type": "FeatureCollection",
"name": "bomb_scenarios_Trier, Germany",
"crs": { "type": "name", "properties": { "name": "urn:ogc:def:crs:OGC:1.3:CRS84" } },
"features": [
{ "type": "Feature", "properties": { "osmid": "13191088106", "dist_to_sample": 138.33351252362715, "scenario_id": 0 }, "geometry": { "type": "Point", "coordinates": [ 6.632913437707828, 49.715314299032855 ] } },
{ "type": "Feature", "properties": { "osmid": "1422063330", "dist_to_sample": 32.175339663199949, "scenario_id": 1 }, "geometry": { "type": "Point", "coordinates": [ 6.57508432423677, 49.719166361967346 ] } },
{ "type": "Feature", "properties": { "osmid": "1271930402", "dist_to_sample": 117.15783965629319, "scenario_id": 2 }, "geometry": { "type": "Point", "coordinates": [ 6.592046547498891, 49.725365284219102 ] } },
{ "type": "Feature", "properties": { "osmid": "311998030", "dist_to_sample": 35.667659824192498, "scenario_id": 3 }, "geometry": { "type": "Point", "coordinates": [ 6.643009330239451, 49.725413448724169 ] } },
{ "type": "Feature", "properties": { "osmid": "1704704710", "dist_to_sample": 117.77594935091236, "scenario_id": 4 }, "geometry": { "type": "Point", "coordinates": [ 6.664677563343438, 49.722932742167522 ] } },
{ "type": "Feature", "properties": { "osmid": "262420281", "dist_to_sample": 26.21519172316172, "scenario_id": 5 }, "geometry": { "type": "Point", "coordinates": [ 6.680000960606415, 49.723090484958114 ] } },
{ "type": "Feature", "properties": { "osmid": "3084734264", "dist_to_sample": 83.571198035102725, "scenario_id": 6 }, "geometry": { "type": "Point", "coordinates": [ 6.607755510986522, 49.729994945351713 ] } },
{ "type": "Feature", "properties": { "osmid": "280231595", "dist_to_sample": 90.898446659980181, "scenario_id": 7 }, "geometry": { "type": "Point", "coordinates": [ 6.691168463394803, 49.728448222176631 ] } },
{ "type": "Feature", "properties": { "osmid": "4644246454", "dist_to_sample": 139.74937647345541, "scenario_id": 8 }, "geometry": { "type": "Point", "coordinates": [ 6.626460138055719, 49.734209674645783 ] } },
{ "type": "Feature", "properties": { "osmid": "4873291610", "dist_to_sample": 48.361081178319516, "scenario_id": 9 }, "geometry": { "type": "Point", "coordinates": [ 6.649193551457306, 49.734476811146699 ] } },
{ "type": "Feature", "properties": { "osmid": "6320545145", "dist_to_sample": 222.62752741361487, "scenario_id": 10 }, "geometry": { "type": "Point", "coordinates": [ 6.671434322582041, 49.734651859522138 ] } },
{ "type": "Feature", "properties": { "osmid": "5172521478", "dist_to_sample": 9.7530277048441665, "scenario_id": 11 }, "geometry": { "type": "Point", "coordinates": [ 6.697858982748946, 49.736847082590778 ] } },
{ "type": "Feature", "properties": { "osmid": "8565773497", "dist_to_sample": 175.88662276207066, "scenario_id": 12 }, "geometry": { "type": "Point", "coordinates": [ 6.584656223173943, 49.741542370827496 ] } },
{ "type": "Feature", "properties": { "osmid": "207507809", "dist_to_sample": 67.131327432605403, "scenario_id": 13 }, "geometry": { "type": "Point", "coordinates": [ 6.60254195837848, 49.741896100789354 ] } },
{ "type": "Feature", "properties": { "osmid": "3697081875", "dist_to_sample": 94.798645221806737, "scenario_id": 14 }, "geometry": { "type": "Point", "coordinates": [ 6.617265997931542, 49.74134000764181 ] } },
{ "type": "Feature", "properties": { "osmid": "258855654", "dist_to_sample": 66.597700694807784, "scenario_id": 15 }, "geometry": { "type": "Point", "coordinates": [ 6.637770119487659, 49.743817641687087 ] } },
{ "type": "Feature", "properties": { "osmid": "12487368165", "dist_to_sample": 39.704039348348537, "scenario_id": 16 }, "geometry": { "type": "Point", "coordinates": [ 6.658340864031914, 49.742200758651371 ] } },
{ "type": "Feature", "properties": { "osmid": "20909353", "dist_to_sample": 19.157039652882592, "scenario_id": 17 }, "geometry": { "type": "Point", "coordinates": [ 6.684434834192174, 49.743417178758627 ] } },
{ "type": "Feature", "properties": { "osmid": "12750871048", "dist_to_sample": 209.85711390262284, "scenario_id": 18 }, "geometry": { "type": "Point", "coordinates": [ 6.669008709262132, 49.748316950172935 ] } },
{ "type": "Feature", "properties": { "osmid": "4061314587", "dist_to_sample": 21.023083101724037, "scenario_id": 19 }, "geometry": { "type": "Point", "coordinates": [ 6.623319509560571, 49.751132075725153 ] } },
{ "type": "Feature", "properties": { "osmid": "10795829525", "dist_to_sample": 37.5968813713719, "scenario_id": 20 }, "geometry": { "type": "Point", "coordinates": [ 6.649297676583278, 49.749815763557145 ] } },
{ "type": "Feature", "properties": { "osmid": "247367977", "dist_to_sample": 30.996030308069894, "scenario_id": 21 }, "geometry": { "type": "Point", "coordinates": [ 6.636127966430247, 49.760507161298882 ] } },
{ "type": "Feature", "properties": { "osmid": "1403856522", "dist_to_sample": 69.911479962029787, "scenario_id": 22 }, "geometry": { "type": "Point", "coordinates": [ 6.654292167119022, 49.759021288689993 ] } },
{ "type": "Feature", "properties": { "osmid": "2376196954", "dist_to_sample": 101.5317203871421, "scenario_id": 23 }, "geometry": { "type": "Point", "coordinates": [ 6.672444740105391, 49.759716765312561 ] } },
{ "type": "Feature", "properties": { "osmid": "1625719777", "dist_to_sample": 17.30278885495288, "scenario_id": 24 }, "geometry": { "type": "Point", "coordinates": [ 6.639184107490403, 49.770297944453453 ] } },
{ "type": "Feature", "properties": { "osmid": "10286199624", "dist_to_sample": 44.789875028586437, "scenario_id": 25 }, "geometry": { "type": "Point", "coordinates": [ 6.655810859336476, 49.769957718615437 ] } },
{ "type": "Feature", "properties": { "osmid": "7890563682", "dist_to_sample": 28.727414678532817, "scenario_id": 26 }, "geometry": { "type": "Point", "coordinates": [ 6.672448276080985, 49.771651501777157 ] } },
{ "type": "Feature", "properties": { "osmid": "297102558", "dist_to_sample": 108.50597138823029, "scenario_id": 27 }, "geometry": { "type": "Point", "coordinates": [ 6.660637539983871, 49.780264833472742 ] } },
{ "type": "Feature", "properties": { "osmid": "2295721720", "dist_to_sample": 130.92981382917188, "scenario_id": 28 }, "geometry": { "type": "Point", "coordinates": [ 6.677306699676805, 49.782123254214945 ] } },
{ "type": "Feature", "properties": { "osmid": "459984673", "dist_to_sample": 44.552532334475323, "scenario_id": 29 }, "geometry": { "type": "Point", "coordinates": [ 6.690959454738132, 49.783771361996806 ] } },
{ "type": "Feature", "properties": { "osmid": "5317340908", "dist_to_sample": 229.61264452037219, "scenario_id": 30 }, "geometry": { "type": "Point", "coordinates": [ 6.648709246945142, 49.788526276802365 ] } },
{ "type": "Feature", "properties": { "osmid": "6277963003", "dist_to_sample": 158.19577405134157, "scenario_id": 31 }, "geometry": { "type": "Point", "coordinates": [ 6.664771113090292, 49.793557765077509 ] } },
{ "type": "Feature", "properties": { "osmid": "3221548229", "dist_to_sample": 109.72959527212016, "scenario_id": 32 }, "geometry": { "type": "Point", "coordinates": [ 6.683500834949378, 49.791766638406898 ] } },
{ "type": "Feature", "properties": { "osmid": "510618451", "dist_to_sample": 138.25365352454239, "scenario_id": 33 }, "geometry": { "type": "Point", "coordinates": [ 6.675351798651586, 49.800997202741016 ] } },
{ "type": "Feature", "properties": { "osmid": "4699660030", "dist_to_sample": 102.05368819680166, "scenario_id": 34 }, "geometry": { "type": "Point", "coordinates": [ 6.687440550089362, 49.805437522474669 ] } },
{ "type": "Feature", "properties": { "osmid": "269297470", "dist_to_sample": 157.66917034461935, "scenario_id": 35 }, "geometry": { "type": "Point", "coordinates": [ 6.676693077254278, 49.811304166782818 ] } },
{ "type": "Feature", "properties": { "osmid": "7212013426", "dist_to_sample": 12.433029206935471, "scenario_id": 36 }, "geometry": { "type": "Point", "coordinates": [ 6.697534474794035, 49.814303185117183 ] } },
{ "type": "Feature", "properties": { "osmid": "537506339", "dist_to_sample": 51.88223186466842, "scenario_id": 37 }, "geometry": { "type": "Point", "coordinates": [ 6.690912139743943, 49.823971695461253 ] } },
{ "type": "Feature", "properties": { "osmid": null, "dist_to_sample": null, "scenario_id": 38 }, "geometry": { "type": "Point", "coordinates": [ 6.703139944860827, 49.814414008992365 ] } },
{ "type": "Feature", "properties": { "osmid": null, "dist_to_sample": null, "scenario_id": 39 }, "geometry": { "type": "Point", "coordinates": [ 6.5733413970035, 49.737809261627078 ] } },
{ "type": "Feature", "properties": { "osmid": null, "dist_to_sample": null, "scenario_id": 40 }, "geometry": { "type": "Point", "coordinates": [ 6.638440219220563, 49.731814513827175 ] } },
{ "type": "Feature", "properties": { "osmid": null, "dist_to_sample": null, "scenario_id": 41 }, "geometry": { "type": "Point", "coordinates": [ 6.633985523958387, 49.748866647270816 ] } },
{ "type": "Feature", "properties": { "osmid": null, "dist_to_sample": null, "scenario_id": 42 }, "geometry": { "type": "Point", "coordinates": [ 6.645403630649299, 49.767369309044618 ] } },
{ "type": "Feature", "properties": { "osmid": null, "dist_to_sample": null, "scenario_id": 43 }, "geometry": { "type": "Point", "coordinates": [ 6.664486061037931, 49.751326648994258 ] } }
]
}
